<?xml version="1.0" encoding="UTF-8"?>
<kml xmlns="http://www.opengis.net/kml/2.2">
<Document>
  <name>Angelina County — Unmapped Historical Markers</name>
  <description>THC markers in Angelina County without an HMDB id (isMissing excluded). 22 with THC coords; 0 geocoded from address; 6 omitted (no usable address). Orange pins are isPending=True — the marker may not be installed yet.</description>
  <Style id="normal">
    <IconStyle>
      <Icon><href>http://maps.google.com/mapfiles/ms/icons/red-dot.png</href></Icon>
    </IconStyle>
  </Style>
  <Style id="pending">
    <IconStyle>
      <color>ff00a5ff</color>
      <Icon><href>http://maps.google.com/mapfiles/ms/icons/orange-dot.png</href></Icon>
    </IconStyle>
  </Style>
  <Placemark>
    <name>Aldredge Cemetery</name>
    <styleUrl>#normal</styleUrl>
    <description><![CDATA[marker pending<br/><br/><b>Address:</b> 1211 S. FM 706, Lufkin<br/><br/><b>Marker Text:</b> marker pending]]></description>
    <Point><coordinates>-94.80473,31.353799,0</coordinates></Point>
  </Placemark>
  <Placemark>
    <name>Aldredge Cemetery</name>
    <styleUrl>#normal</styleUrl>
    <description><![CDATA[marker pending<br/><br/><b>Address:</b> 1211 S. FM 706, Lufkin<br/><br/><b>Marker Text:</b> marker pending]]></description>
    <Point><coordinates>-94.80473,31.353799,0</coordinates></Point>
  </Placemark>
  <Placemark>
    <name>Beulah School</name>
    <styleUrl>#normal</styleUrl>
    <description><![CDATA[12 miles southeast of Lufkin on FM 58<br/><br/><b>Address:</b> Lufkin vicinity<br/><br/><b>Marker Text:</b> Beulah School began operations in 1903. Buildings erected and furnished by local residents were used as both school and church. State funds made possible Beulah's first full-time schoolhouse, erected one mile from this site in 1917. The structure grew to accommodate 75 students and three teachers in three rooms. Older students were transferred to Diboll High School in 1928. Though the students escaped with minor injuries, a tornado destroyed the schoolhouse during classes in April 1954. Another edifice was constructed on this site. The Beulah School consolidated with the Diboll Independent School district in 1963; the building became a community center. (1998)]]></description>
    <Point><coordinates>-94.6692074231696,31.1853822422383,0</coordinates></Point>
  </Placemark>
  <Placemark>
    <name>Brown Cemetery</name>
    <styleUrl>#normal</styleUrl>
    <description><![CDATA[8 miles from Huntington on FM 2109. Turn right on Eugene Walker Rd. Cemetery is 1/4 mile down on right hand side.<br/><br/><b>Address:</b> Eugene Walker Rd., Huntington<br/><br/><b>Marker Text:</b> Established Circa 1879 Historic Texas Cemetery – 2012]]></description>
    <Point><coordinates>-94.4328578399811,31.2679918668239,0</coordinates></Point>
  </Placemark>
  <Placemark>
    <name>Civilian Conservation Corps and Forestry in Texas</name>
    <styleUrl>#normal</styleUrl>
    <description><![CDATA[<b>Address:</b> 2221 N. Raguet Street, Lufkin<br/><br/><b>Marker Text:</b> Continuing efforts started in the 1920s by the Texas Forest Service (TFS), the Civilian Conservation Corps (CCC), established through the Emergency Conservation Work Act (1933) during the Great Depression, aided in efforts to preserve Texas forests. CCC enrollees offered fire protection by stringing telephone lines, constructing bridges, culverts, fire lookout towers and fire roads, performing timber stand improvements, and surveying and mapping east Texas forests. The CCC also conducted an extensive reforestation campaign. The work done by the CCC contributed greatly to forest conservation in Texas. This is the site of the former CCC Lufkin district heavy equipment maintenance facility.]]></description>
    <Point><coordinates>-94.7524084564569,31.3560555344391,0</coordinates></Point>
  </Placemark>
  <Placemark>
    <name>Don Joaquin Crossing on Bedias Trail</name>
    <styleUrl>#normal</styleUrl>
    <description><![CDATA[at Angelina River Bridge, 9 mi. N of Lufkin on US 59 (marker broken and removed)<br/><br/><b>Address:</b> Lufkin vicinity<br/><br/><b>Marker Text:</b> Used by Indians, explorers, traders and missionaries, this trail ran from Bedias Indian camps on the lower Trinity River to Spanish missions near Nacogdoches. Don Joaquin de Orobio y Basterra, captain of the presidio at La Bahia (present Goliad), led reconnaissance troops along the trail in 1746 and gave his name to the Angelina River crossing. Italian-born trader Vicente Michili owned a large ranch near the crossing before 1800. Bedias Trail was important in Angelina County's development. Railroads and major highways later followed the Trail's route. (1979)]]></description>
    <Point><coordinates>-94.7260754892488,31.4493978806051,0</coordinates></Point>
  </Placemark>
  <Placemark>
    <name>Dunbar Schools of Lufkin</name>
    <styleUrl>#normal</styleUrl>
    <description><![CDATA[marker pending<br/><br/><b>Address:</b> 1806 Martin Luther King Jr Blvd, Lufkin<br/><br/><b>Marker Text:</b> marker pending]]></description>
    <Point><coordinates>-94.72435,31.358313,0</coordinates></Point>
  </Placemark>
  <Placemark>
    <name>Emporia Cemetery</name>
    <styleUrl>#normal</styleUrl>
    <description><![CDATA[Parker St off US 59 S<br/><br/><b>Address:</b> Diboll<br/><br/><b>Marker Text:</b> This pioneer burial ground predates later timber towns of the area. The land was originally set aside as a family cemetery, with the first burial for W.E. and Emily Waltman's infant son William in 1882. The Emporia sawmill operated a few hundred yards west from 1893-1906; some sawmill workers and their families are also buried here, mostly in unmarked graves. Relatives of Jeremiah and Hester Anthony are also buried here, and while that family took care of the graveyard it was also known as Anthony Cemetery or Pleasant Hill Cemetery. Noteworthy features here include the use of landscape petrified wood and homemade concrete gravestones. Once a rural cemetery, the site is now within the city limits of Diboll. Historic Texas Cemetery - 2006]]></description>
    <Point><coordinates>-94.7860044105749,31.1729353798812,0</coordinates></Point>
  </Placemark>
  <Placemark>
    <name>First Baptist Church Diboll</name>
    <styleUrl>#normal</styleUrl>
    <description><![CDATA[<b>Address:</b> 208 Devereaux Street, Diboll<br/><br/><b>Marker Text:</b> In 1897, the Southern Pine Lumber Company built a Union Church shared by Baptists and Methodists of Diboll. The Baptists acquired land from Copes family heirs in 1915 and built a large frame church building in the 1920s. Reverend Martin Smith was called as the first full-time pastor in 1935, and he continued in that role for nine years. As the congregation continued to grow, the church incorporated in 1952 with George Smith, A.F. Vaughn and V.B. McKinney as trustees. New property near White Oak Creek was purchased and remains the site of the church today. The campus and the outreach have grown through the years to include helping neighbors, planting new churches and supporting missions around the world.]]></description>
    <Point><coordinates>-94.7790031652638,31.186920522623,0</coordinates></Point>
  </Placemark>
  <Placemark>
    <name>Gann Memorial Cemetery</name>
    <styleUrl>#normal</styleUrl>
    <description><![CDATA[<b>Address:</b> Pollok<br/><br/><b>Marker Text:</b> This burial ground, which contains over 3,000 graves, has served area residents since the mid-1800s. In 1860, Nathan W. Gann, who came to Texas with his family in 1836, donated this property and a church building he constructed to Williams Chapel Methodist Church. The first known burial on this land was of Jacob J. Gann in 1861. In 1893, the church disbanded and this property reverted to Nathan Gann, who then deeded it to the Missionary Baptist Church, which is now known as O'Quinn Baptist Church. Many early Angelina County pioneers used this property as a burial ground. As the area's lumber and agricultural industries developed, a number of rural communities organized. The former Lufkin U.S. Air Force Radar Base (later the site of Lufkin State School) was also located nearby. Gann Memorial Cemetery became the primary burial ground for residents of the area, which became known as the Central-Pollok community. Among those interred here are at least five county officials, over 200 veterans of conflicts dating to the Civil War and numerous members of various fraternal organizations. Over the years, family members of the interred cared for the cemetery, which grew due to the generosity of local landowners. In 1978, the Gann Memorial Cemetery Association began to maintain it. The cemetery features curbing, false crypts, vertical stones and obelisks. Today, Gann Memorial Cemetery continues to serve local families and provides a reminder of the early pioneers of the Central and Pollok communities. Historic Texas Cemetery - 2007]]></description>
    <Point><coordinates>-94.8090739183601,31.4262608357021,0</coordinates></Point>
  </Placemark>
  <Placemark>
    <name>Gibbs House</name>
    <styleUrl>#normal</styleUrl>
    <description><![CDATA[10 miles south of Huntington on FM 844<br/><br/><b>Address:</b> 156 Grimes Flournoy Rd, Huntington vicinity<br/><br/><b>Marker Text:</b> W. M. Gibbs came to the town of Manning in 1904 as a sawmill manager for the Carter-Kelly Lumber Company. Gibbs (1876 - 1938) and his wife, Leannah, were the first occupants of this c. 1904 house, and here they reared their four children. Enlarged in 1927, the house is an American foursquare design with Craftsman influences. It remained in the Gibbs family until 1942 and is one of the few remaining physical reminders of the Manning community. Recorded Texas Historic Landmark - 1993]]></description>
    <Point><coordinates>-94.5407174134094,31.141874632361,0</coordinates></Point>
  </Placemark>
  <Placemark>
    <name>Huntington</name>
    <styleUrl>#normal</styleUrl>
    <description><![CDATA[FM 1669 (Main St.) at the South Pacific Railroad, Huntington<br/><br/><b>Address:</b> Huntington<br/><br/><b>Marker Text:</b> Settlers attempted to form a townsite in this area in the 1880s, but it was not until the arrival of the railroad lines that it attracted a thriving population. Carved from virgin forests in the heyday of the southern pine timber industry and established in 1900, Huntington was named for Collis P. Huntington, chairman of the board of the Southern Pacific Railroad. E. A. Blount and W. J. Townsend, Sr., established a townsite and sold lots at a public auction in June 1900. A post office opened in 1900 with R. D. Chapman as postmaster; the Huntington Common School District was created in 1901. Within a year, A. F. Smith built a sawmill outside town. Lumber and agriculture were the area's economic heart. A Baptist church and a Methodist Episcopal church were established in 1901 and 1902. After the Texas &amp; New Orleans rail line from Beaumont to Dallas was built through Huntington in 1902, a permanent railroad station was erected in 1903. Huntington became a center for lumber shipping and the town soon prospered. A local telephone exchange was established in 1907. A newspaper, The Huntington Messenger, was succeeded by The Huntington Herald in 1911. Huntington also had hotels, drugstores, mercantile and grocery stores, a bank, several saloons, blacksmith shops and cotton gins. Several local physicians provided medical services. Highway 40 (later U.S. Highway 69) was completed to the county line in 1924, and area electrical service began in 1927. The town was incorporated in 1938. The McMullen Memorial Library was dedicated in 1953 as a memorial to the nineteen Huntington men who died in World War II. Huntington grew steadily throughout the remainder of the 20th century and continues to thrive at the dawn of the 21st. (2000)]]></description>
    <Point><coordinates>-94.5743495981382,31.2827353477765,0</coordinates></Point>
  </Placemark>
  <Placemark>
    <name>Ivy Cemetery</name>
    <styleUrl>#normal</styleUrl>
    <description><![CDATA[<b>Address:</b> 1874 Palmer Ivy Rd., Huntington<br/><br/><b>Marker Text:</b> This burial ground dates to 1873, when Cyrus Ivy buried a grandson on the family farm and set aside land for a cemetery. Born in Georgia, Ivy moved to Texas with his family in 1852 and settled here by 1860. As other settlers came to the area, the community of Ivy developed; by the 1890s, the settlement had a gristmill, cotton gin, post office and two stores. Cyrus Ivy was a community leader and was heavily involved in church activities. As the area grew, residents of Ivy and other nearby communities used the burial ground. Interments here include veterans of conflicts dating to the Civil War. Today, a cemetery association cares for this graveyard, which continues to serve area residents.]]></description>
    <Point><coordinates>-94.4886182131031,31.2658301557989,0</coordinates></Point>
  </Placemark>
  <Placemark>
    <name>[PENDING] Keltys United Methodist Church</name>
    <styleUrl>#pending</styleUrl>
    <description><![CDATA[<b>⚠ PENDING — marker may not yet be installed at this location.</b><br/><br/>Corner of McMullen St. and Old Mill Road, , 4/10 of a mile NW of Hwy 339 (North Raguet St.), Lufkin, TX<br/><br/><b>Address:</b> 1867 Old Mill Road, Lufkin]]></description>
    <Point><coordinates>-94.748113,31.357396,0</coordinates></Point>
  </Placemark>
  <Placemark>
    <name>Lufkin CCC Camp</name>
    <styleUrl>#normal</styleUrl>
    <description><![CDATA[intersection of Frank (SH 94) and Ellis St., Lufkin<br/><br/><b>Address:</b> Lufkin<br/><br/><b>Marker Text:</b> Created by President Franklin Roosevelt and approved by an Act of Congress in 1933, the Civilian Conservation Corps (CCC) provided youth employment programs during the Great Depression. The Lufkin CCC Camp, located near this site from 1933 until 1942, was administered by the Texas Forest Service. Young men helped to build roads and bridges, string telephone lines, and plant trees. The Lufkin CCC Camp proved to be instrumental in relieving unemployment but also helped revive the East Texas forest industry through its use of progressive forestry techniques. (1984)]]></description>
    <Point><coordinates>-94.7507820331553,31.3344203317992,0</coordinates></Point>
  </Placemark>
  <Placemark>
    <name>Lufkin Telephone Exchange</name>
    <styleUrl>#normal</styleUrl>
    <description><![CDATA[corner of First and Frank streets, Lufkin<br/><br/><b>Address:</b> Lufkin<br/><br/><b>Marker Text:</b> Telephone service in Lufkin began in 1898 when Dr. Alexander Madison Denman and his friend Judge Edwin James Mantooth strung telephone wires between their offices. The system was so popular that the pair soon formed the Lufkin Telephone Exchange with partner Eli Wiener, operating from offices on this site. In 1908 they contracted with the Southwestern Telegraph and Telephone Company to provide long distance service. The company grew as rapidly as telephone technology itself, eventually acquiring the telephone exchanges of a large portion of East Texas. In 1985 the corporation was reorganized as the Lufkin-Conroe Telephone Exchange. (1998)]]></description>
    <Point><coordinates>-94.7286092592752,31.3402624082395,0</coordinates></Point>
  </Placemark>
  <Placemark>
    <name>Manning</name>
    <styleUrl>#normal</styleUrl>
    <description><![CDATA[FM 844, 10 mi. south of Huntington<br/><br/><b>Address:</b> Huntington vicinity<br/><br/><b>Marker Text:</b> The community of Manning grew up around the operations of the Carter-Kelley Lumber Company, established here about 1906. The town was named for D. W. W. Manning (b. 1820) who started a sawmill here in 1867. By 1929 Manning had a population of 1300 and included a movie theater, a school, stores, churches, a post office, and a railroad depot. The town began to decline after a fire destroyed the mill in the mid-1930s, and operations were moved to Camden (30 mi. W). The townsite is now marked by homes, sawmill ruins, and a cemetery. (1980, 1995) Supplemental plaque: This house and what was left of Manning after the mill fire of 1936 were bought by Morgan M. Flournoy. Here he and his wife Ruby raised five children.]]></description>
    <Point><coordinates>-94.5394618241998,31.1416472370607,0</coordinates></Point>
  </Placemark>
  <Placemark>
    <name>Masonic Hall</name>
    <styleUrl>#normal</styleUrl>
    <description><![CDATA[<b>Address:</b> 228 Leach Street, Lufkin<br/><br/><b>Marker Text:</b> The Masonic Hall of North Lufkin was completed in 1900 by the African American Community’s architect, Will Engram. Engram moved to Lufkin in 1896 and, with just a third grade education, he became a master architect and carpenter, building around 100 homes in the area. The simple, wood-frame Masonic Hall was a meeting place for all the fraternal organizations of the Black Community. The Dawn of Light Free Masons Charter dates back to 1893. Under the ownership of the Masons since 1923, the Masonic Hall on Leach Street served as the meeting place for the American Woodmen, the Order of Elks, the Free Masons Dawn of Light Lodge #79, the Eastern Stars and the Heroines of Jericho. These organizations utilized the hall for their meetings, ceremonies and community activities until the mid-1970s. Beginning in 1971, the Masonic Hall fell on hard times and was placed on the city’s demolition list. The daughter of Will Engram worked to save the hall as commemoration to her father and this monument to the black community. The first floor of the hall is now dedicated to revitalizing community organizations while the second floor is used as a Black History room. Artifacts found in the masonic hall were given to the East Texas Research Center of the Steen Library at Stephen F. Austin State University where they remain today. The Masonic Lodge has served the Black Community of Lufkin for over a century and continues to serve it today through education and outreach, and this historic building is one of the last remaining buildings from the turn of the 20th century.]]></description>
    <Point><coordinates>-94.727904,31.353926,0</coordinates></Point>
  </Placemark>
  <Placemark>
    <name>Page Cemetery</name>
    <styleUrl>#normal</styleUrl>
    <description><![CDATA[From Huntington intersection of Highway 69 and FM1669, go south for 2.9 miles.  Turn right onto Fm Rd. 844  (Shawnee Prairie) for 9.l miles.  Turn right onto Lambert Chapel Rd.  Go 1.3 miles and turn right onto Southwell Rd.  Go 1.3 miles and turn right onto Grimes Flournoy Rd.  Go 1/10 mile; turn left onto Wayne Johnson Rd.  Go 0.4 miles and turn right onto Page Cemetery Rd. It is 0.5 miles to cemetery.<br/><br/><b>Address:</b> 757 Page Cemetery Rd., Huntington<br/><br/><b>Marker Text:</b> Nehemiah Page, born in Sampson Co., N. Car., fought in the War of 1812 and survived the Fort Mims attack near Mobile, Ala. He married Elizabeth Crane in Hinds Co., Miss. In 1830, and the couple had seven children. The family moved to Texas in the 1850s, settling on 320 acres and building a log house about half a mile from this family cemetery. Elizabeth was the first burial on Jan. 22, 1862, and Nehemiah was buried the following year. By the turn of the 21st century there were 38 graves, all for Page family descendants or relatives. Notable graves include the Woodmen of the World monument for W. J. Havard and burials for veterans of the War of 1812, Civil War, and World War II. The Page Cemetery Association formed in 1987 to care for this sacred ground.]]></description>
    <Point><coordinates>-94.6000456252333,31.1151010842128,0</coordinates></Point>
  </Placemark>
  <Placemark>
    <name>Pine Grove Missionary Baptist Church</name>
    <styleUrl>#normal</styleUrl>
    <description><![CDATA[7 mi. east of Diboll on FM 1818<br/><br/><b>Address:</b> Diboll vicinity<br/><br/><b>Marker Text:</b> Organized 1872 by ten members from Lambert's Chapel. First pastor, J. S. Lambert; David Allbritton, clerk. Angelina Missionary Baptist Association was founded here, 1875. Veteran pastors: C. B. George, serving 25 years; O. P. Meadows, 15. (1972)]]></description>
    <Point><coordinates>-94.6927963453274,31.1658469577376,0</coordinates></Point>
  </Placemark>
  <Placemark>
    <name>Site of the Town of Marion</name>
    <styleUrl>#normal</styleUrl>
    <description><![CDATA[Marion Ferry Road (FM 1669), north of SH 103<br/><br/><b>Address:</b> Huntington vicinity<br/><br/><b>Marker Text:</b> Known as early as 1828 as McNeill's Landing. In 1831 it consisted of over 200 buildings. First county seat of Angelina County 1846 - 1854. Erected by the State of Texas 1936]]></description>
    <Point><coordinates>-94.523004,31.3952,0</coordinates></Point>
  </Placemark>
  <Placemark>
    <name>Southern Pine Lumber Company Commissary</name>
    <styleUrl>#normal</styleUrl>
    <description><![CDATA[S. First St. at railroad tracks, just north of Mill St. intersection, Diboll<br/><br/><b>Address:</b> Diboll<br/><br/><b>Marker Text:</b> The original commissary at this site was constructed about 1894 when T. L. L. Temple (1859 - 1935) started the first Southern Pine Lumber Company sawmill here. The store was moved to the present building when it was completed in 1923. The inventory included groceries, medicine, ice, furniture, dry goods, and coffins. Items were purchased with "company checks," special tokens of metal or wax-coated paper. Managed from 1896 to 1938 by W. P. Rutland, the commissary closed in 1953. The building housed company offices until 1979. (1980)]]></description>
    <Point><coordinates>-94.7873083551039,31.1826863955177,0</coordinates></Point>
  </Placemark>
</Document>
</kml>
