<?xml version="1.0" encoding="UTF-8"?>
<kml xmlns="http://www.opengis.net/kml/2.2">
<Document>
  <name>Austin County — Unmapped Historical Markers</name>
  <description>THC markers in Austin County without an HMDB id (isMissing excluded). 37 with THC coords; 0 geocoded from address; 4 omitted (no usable address). Orange pins are isPending=True — the marker may not be installed yet.</description>
  <Style id="normal">
    <IconStyle>
      <Icon><href>http://maps.google.com/mapfiles/ms/icons/red-dot.png</href></Icon>
    </IconStyle>
  </Style>
  <Style id="pending">
    <IconStyle>
      <color>ff00a5ff</color>
      <Icon><href>http://maps.google.com/mapfiles/ms/icons/orange-dot.png</href></Icon>
    </IconStyle>
  </Style>
  <Placemark>
    <name>Alexander Glenn Family Graveyard</name>
    <styleUrl>#normal</styleUrl>
    <description><![CDATA[near corner of North Hunt and West Glenn streets<br/><br/><b>Address:</b> Bellville<br/><br/><b>Marker Text:</b> Alexander Glenn (1812-1894), and his wife, Sarah Pamplin Shelburne Glenn (1819-1899), came from Georgia and settled in the Mill Creek Forks area before moving to Bellville in 1854. They purchased the Ezra Cleveland home, one of the first to be built here; this burial site is located on that original property. Glenn served as the Austin County surveyor from 1853 to 1860. The Glenns were active members of St. Mary's Episcopal Church from its inception and were well respected in the community. Their daughter, Sarah Alexander Glenn (1850-1910), is also laid to rest here. The site continues to be cared for by the Bellville Historical Society. Historic Texas Cemetery - 2001]]></description>
    <Point><coordinates>-96.2594318456557,29.9544079418002,0</coordinates></Point>
  </Placemark>
  <Placemark>
    <name>Bednar Family Homestead</name>
    <styleUrl>#normal</styleUrl>
    <description><![CDATA[<b>Address:</b> 7168 Wolff Road, Burton]]></description>
    <Point><coordinates>-96.5571204183266,30.0548192402964,0</coordinates></Point>
  </Placemark>
  <Placemark>
    <name>Bellville High School</name>
    <styleUrl>#normal</styleUrl>
    <description><![CDATA[Bellville ISD Administration Building, in front of historic high school off O'Bryant St. entrance<br/><br/><b>Address:</b> 518 S. Matthews St., Bellville<br/><br/><b>Marker Text:</b> Bellville’s 1918 two-story brick schoolhouse served all grades, but by the 1930s had overcrowding and structural problems. An initial application for funds from the Public Works Administration (PWA), a federal New Deal program, was denied in 1936. After H.F. Granau led 40 citizens in signing a petition, the board of trustees voted to issue bonds for $50,000, and a second application to the PWA secured an additional $58,000. Blum E. Hester was the architect and A.N. Evans was the contractor for a new high school and gymnasium (also used as an auditorium), which opened in 1939 with U.S. Senator Tom Connally making the dedicatory address. The facility was the high school until 1970, then served other grades and school used until being renovated in 2006 as the school district’s administration building and BISD school museum. (2018)]]></description>
    <Point><coordinates>-96.2570148453048,29.9442355782674,0</coordinates></Point>
  </Placemark>
  <Placemark>
    <name>Buckhorn Cemetery</name>
    <styleUrl>#normal</styleUrl>
    <description><![CDATA[8 mi. N on FM 1456 to Buckhorn, right on Ham Kendrick Rd, 0.1 mi. to Buckhorn Church and Cemetery.<br/><br/><b>Address:</b> Bellville<br/><br/><b>Marker Text:</b> Buckhorn Cemetery Established 1880 Historic Texas Cemetery - 2001]]></description>
    <Point><coordinates>-96.2004701282202,30.0357425111067,0</coordinates></Point>
  </Placemark>
  <Placemark>
    <name>Coshatte Cemetery</name>
    <styleUrl>#normal</styleUrl>
    <description><![CDATA[Bellville, 5128 Smith Road<br/><br/><b>Address:</b> 5128 Smith Road, Bellville<br/><br/><b>Marker Text:</b> COSHATTE CEMETERY ESTABLISHED 1915 HISTORIC TEXAS CEMETERY – 2011]]></description>
    <Point><coordinates>-96.2069017012132,29.9275464178146,0</coordinates></Point>
  </Placemark>
  <Placemark>
    <name>Dr. James West Bostick</name>
    <styleUrl>#normal</styleUrl>
    <description><![CDATA[<b>Address:</b> 319 Hardeman St., Sealy<br/><br/><b>Marker Text:</b> (ca. 1840-February 22, 1897) James West Bostick, born in a log cabin near Cat Spring, Austin County, Texas, was the son of J.H. Bostick, Alabama native and one of Stephen F. Austin's "Old 300" settlers. James Bostick served in the Confederate army for 4 years and later became a doctor. He married Rebecca Taylor, daughter of a prominent East Texas family. They moved to Sealy in 1885, helped found St. John's Episcopal Church, and built their home here in 1895. Dr. Bostick, one of Sealy's first doctors, also owned and operated a drugstore. He died at the age of 57, and was buried in the Sealy Public Cemetery in 1897. (1994)]]></description>
    <Point><coordinates>-96.1597789974585,29.7798724093799,0</coordinates></Point>
  </Placemark>
  <Placemark>
    <name>Education in Industry</name>
    <styleUrl>#normal</styleUrl>
    <description><![CDATA[Hwy. 109 S (7453 Ernst Pkwy)<br/><br/><b>Address:</b> 7453 Ernst Pkwy., Industry<br/><br/><b>Marker Text:</b> Education in Industry German settlers established the town of Industry in 1831. Shortly after they arrived in December 1840, the Rev. Louis C. Ervendberg and Dr. Joseph Anton Fischer founded the town's first school. Fischer is recognized as the first teacher in Industry, and Ervendberg is credited as being tutor to the children of town founder Frederick Ernst. Tutors were common, with families hiring teachers to give lessons in their homes. By 1842, 37 area residents had petitioned the Texas Congress for the creation of a German institute of higher learning, Hermann's University. The school received its charter in 1844, and although the charter was amended in 1846 when Texas became a state, the project never materialized. Accustomed to the free education offered in their native Germany, Industry settlers were part of the free public school movement in Texas. In 1864, Civil War veteran Christian William Hander opened a school in the residence of the Niebuhr family. His school grew out of the private home and became the Industry day school in 1865. Other schools at that time were operated by Rudolph Franke and John Simmons. These schools required tuition, though, from their students. Austin County established several public schools by 1880, including five in Industry, which created its own school district in 1912. Nearby Star Hill consolidated with it in 1928. Legislation in 1948 consolidated Industry, Shelby, Henkhaus, Rockhouse and New Bremen into West End Rural High School District, with grades 1-9 in Industry and 10-12 in Bellville. The district erected a new brick building in 1952, as well as a new structure for the African American campus, the Mary Bethune School. Following integration, the school consolidated into the Bellville Independent School District. The 1952 West End School building continued to serve as an elementary campus for the children of the area. (2002)]]></description>
    <Point><coordinates>-96.5020273424697,29.967555004235,0</coordinates></Point>
  </Placemark>
  <Placemark>
    <name>Engelking Cemetery</name>
    <styleUrl>#normal</styleUrl>
    <description><![CDATA[located on the Charles Kisling Ranch, 10569 Schluens Road in Millheim<br/><br/><b>Address:</b> 10569 Schulens Road, Cat Spring<br/><br/><b>Marker Text:</b> FRIEDRICH FERDINAND ENGELKING CAME TO TEXAS IN 1839 FROM SCHLÜSSELBURG, WESTPHALIA, PRUSSIA. IN 1842, HE PURCHASED 177 ACRES IN AUSTIN COUNTY AND LATER THAT YEAR MARRIED OTTILIE ELIZABETH CAROLINE LOUISE (LINA) VON ROEDER. A BURIAL SITE WAS SET ASIDE ON THE FARM FOR FAMILY PLOTS AND IT IS SUSPECTED THAT A CHILD OF FRIEDRICH AND LINA IS BURIED UNDER AN OAK TREE. THE CEMETERY DEVELOPED FROM A FAMILY PLOT TO THE ENGELKING CEMETERY. TWO CIVIL WAR VETERANS ARE BURIED HERE. IN ADDITION TO THE 14 MARKED GRAVES, SEVEN UNMARKED GRAVES ARE KNOWN TO EXIST, INCLUDING THE BURIAL OF “UNCLE WASH,” A SLAVE WHO SAVED THE LIVES OF THE ENGELKING FAMILY FROM AN INDIAN ATTACK. THIS HISTORIC CEMETERY IS CARED FOR BY ENGELKING DESCENDANTS. HISTORIC TEXAS CEMETERY – 2003]]></description>
    <Point><coordinates>-96.2415096491381,29.8647486765479,0</coordinates></Point>
  </Placemark>
  <Placemark>
    <name>Frank Cemetery</name>
    <styleUrl>#normal</styleUrl>
    <description><![CDATA[From the courthouse in Bellville go East on Hwy 159 approximately 1.5 miles just past a grove of pine trees, cemetery is on the left<br/><br/><b>Address:</b> Bellville<br/><br/><b>Marker Text:</b> FRIEDRICH FRANK (1818-1883), BORN IN GERMANY, SAILED TO AMERICA IN 1852 ABOARD THE SOPHIA ALONG WITH THE WENDT FAMILY TO GALVESTON. UPON ARRIVAL, THEY MADE THEIR WAY TO AUSTIN COUNTY AND BOUGHT LAND. IN 1853, FRIEDRICH FRANK MARRIED FRIEDRICH WENDT’S DAUGHTER, MARIE WENDT (1826-1902). FRIEDRICH AND MARIE HAD TEN CHILDREN. FRIEDRICH, ALSO KNOWN AS “FRITZ,” LEARNED HOW TO MAKE BEER IN HIS HOME COUNTRY OF GERMANY AND BROUGHT HIS SKILLS TO TEXAS AND AUSTIN COUNTY. THE FRANK BREWERY OPERATED IN THIS PREDOMINATELY GERMAN COMMUNITY FOR SEVERAL DECADES UNDER THE LEADERSHIP OF FRITZ. LATER HIS SON, HERMAN, TOOK OVER OPERATIONS OF THE BREWERY. HERMAN ALSO OPERATED A RACETRACK ON THE PROPERTY TO PROMOTE HIS PRODUCT. PROHIBITION FORCED THE BREWERY TO CLOSE IN 1918. FRITZ AND MARIE FRANK ARE BURIED IN THIS SMALL, FAMILY CEMETERY. OTHER BURIALS INCLUDE THREE SONS, FERDINAND FRANK (1858-1893), WILHELM FRANK (1855-1928) AND MAX FRANK (1865-1928), A DAUGHTER, JANE FRANK BROCKMAN (1860-1948), A SON-IN-LAW, RUDOLPH BROCKMAN (1846-1924), AND TWO DAUGHTERS-IN-LAW, BERTHA REINECKER FRANK (1860-1939) AND MINNA CHRISTINA UECKERT FRANK (1872-1965). MARTHA FRANK FINN (1884-1903), FRITZ’S GRANDDAUGHTER, AND HER INFANT CHILD ARE BURIED HERE, ALONG WITH FRITZ’S TWO GRANDSONS, OSKAR FRANK (MAY 1891-AUG. 1891) AND WALTER FRANK (1893-1895). THE FRANK CEMETERY LANDSCAPE IS TRADITIONAL, FEATURING A NUMBER OF TREES INCLUDING CEDAR, PINE AND CREPE MYRTLES SURROUNDED BY A FENCE. DESCENDANTS OF THE FRANK FAMILY MAINTAIN THIS CEMETERY AND ARE REMINDED OF THE DETERMINATION OF IMMIGRANTS AND PIONEER FAMILIES THAT SETTLED AUSTIN COUNTY IN THE NINETEENTH CENTURY.]]></description>
    <Point><coordinates>-96.2350887070197,29.9584615851662,0</coordinates></Point>
  </Placemark>
  <Placemark>
    <name>Haynie-Embrey House</name>
    <styleUrl>#normal</styleUrl>
    <description><![CDATA[from Nelsonville, take FM 2502 northwest about 4.3 miles to J-Farms, go south about 5 miles to house<br/><br/><b>Address:</b> Nelsonville<br/><br/><b>Marker Text:</b> In 1887 Nellie Brophy Haynie (1860-1937) a widow with one son Robert (1880-1955), married Confederate Army veteran John T. Embrey (d. 1918). They built this frame Victorian house in Brenham in 1899-1900. Here they raised a family of five children. Robert Haynie and his half brother Wilford J. Embrey (1889-1975) attended law school at the University of Texas. Haynie became a prominent attorney in Abilene and a leader in the West Texas Chamber of Commerce. Embrey was Brenham city attorney for 50 years and a school board member for over 30 years. The Embrey home was moved to this site in 1975. (1978)]]></description>
    <Point><coordinates>-96.4634643705105,30.0125666242769,0</coordinates></Point>
  </Placemark>
  <Placemark>
    <name>Huebner Family Cemetery</name>
    <styleUrl>#normal</styleUrl>
    <description><![CDATA[<b>Address:</b> Hwy 105 North, 5 miles from Industry, Industry<br/><br/><b>Marker Text:</b> Established 1885 Historic Texas Cemetery – 2016]]></description>
    <Point><coordinates>-96.4878254973847,30.0060702993618,0</coordinates></Point>
  </Placemark>
  <Placemark>
    <name>Industry State Bank</name>
    <styleUrl>#normal</styleUrl>
    <description><![CDATA[Northeast Corner of Highway 159 and Highway 109<br/><br/><b>Address:</b> 16886 Fordtran Blvd., Industry<br/><br/><b>Marker Text:</b> ON FEBRUARY 11, 1911, A GROUP OF LOCAL CITIZENS TOOK THE FIRST STEPS IN FORMING A BANK TO BE CALLED FIRST GUARANTY STATE BANK OF INDUSTRY. DR. B.E. KNOLLE SERVED AS THE BANK’S FIRST PRESIDENT AND E. LINDEMANN SERVED AS FIRST VICE PRESIDENT. BY JUNE OF THAT YEAR, THE BANK OPENED FOR BUSINESS AT 1559 MAIN STREET. SHAREHOLDER AND CASHIER H.L. SCHULZE SERVED AS THE BANK’S ONLY SALARIED EMPLOYEE, WHILE HIS ASSISTANT H.H. BOELSCHE RECEIVED HOURLY PAY. IN SEPTEMBER 1919, SCHULZE’S DAUGHTER, THUSNELDE, WAS HIRED BY THE BANK AND SHE CONTINUED AS AN EMPLOYEE FOR 49 YEARS, UNTIL HER RETIREMENT IN 1968. WHEN H.L. SCHULZE DIED IN 1926, BOELSCHE WAS NAMED AS HIS REPLACEMENT. BOELSCHE MANAGED THE BANK UNTIL HIS DEATH IN 1956, WHEN ARNO KREBS BECAME THE BANK’S PRESIDENT. BECAUSE OF A CHANGE IN THE TEXAS BANKING STRUCTURE, THE BANK’S NAME WAS CHANGED TO INDUSTRY STATE BANK IN 1927. THE DEPRESSION CAUSED A DOWNTURN IN THE DEPOSITS AND INCOME OF INDUSTRY STATE BANK. WHILE DEPOSITS HAD PEAKED AT $206,000 IN 1924, THE LOW POINT FOR DEPOSITS OCCURRED AT THE END OF 1932 WHEN THEY FELL TO $95,000. DEPOSITS WOULD NOT AGAIN REACH THEIR 1924 LEVELS UNTIL 1937. A NEW BANK BUILDING WAS CONSTRUCTED AT THE MAIN STREET LOCATION IN 1957, AND BY 1962, THE BANK’S ASSETS HAD GROWN TO $1,500,000. THE BANK RELOCATED TO A NEW STRUCTURE IN 1973 AT THE CORNER OF HIGHWAY 159 AND HIGHWAY 109. INDUSTRY STATE BANK ACQUIRED ITS FIRST ADDITIONAL BANKING FACILITY, NEW ULM STATE BANK, IN 1989. THE INTEGRATION OF IMPROVED BANKING TECHNOLOGY THROUGHOUT ITS EXISTENCE HAS ENABLED INDUSTRY STATE BANK TO CONTINUE TO SERVE THE CITIZENS OF THE REGION WITH BANKING FACILITIES IN FIFTEEN COMMUNITIES.]]></description>
    <Point><coordinates>-96.5018595829493,29.97241486397,0</coordinates></Point>
  </Placemark>
  <Placemark>
    <name>John Bell Lewis Home</name>
    <styleUrl>#normal</styleUrl>
    <description><![CDATA[<b>Address:</b> 232 Masonic St., Bellville<br/><br/><b>Marker Text:</b> Influential Austin county resident John Bell Lewis (1845-1920) was born on a plantation near Coffeeville, Alabama. His grandmother Betty Washington Lewis was George Washington's sister. Lewis grew up near present Winedale, Texas, and served the Confederate army in several major Civil War battles. During Reconstruction Lewis served as sheriff of Austin County and helped restore law and order to the area. While performing the sheriff's duties as county tax collector, he saw the need for a local bank. He helped found Bellville First National Bank and Austin County State Bank. When Lewis heard that Gulf, Colorado and Santa Fe Railroad planned to bypass Bellville, he persuaded landowners to donate right-of-way for the line and was instrumental in getting the railroad through Bellville. Lewis acquired this property about 1874. The next year, architect J. J. Stopple built this home which displays a transitional style between the Greek Revival and the more ornate Victorian. Lewis shared the residence with his widowed sister and her son. In 1879 Lewis married Mollie Bell Ervin and their children grew up here. Lewis is buried in Oak Knoll Cemetery, Bellville. (1979) Recorded Texas Historic Landmark - 1979]]></description>
    <Point><coordinates>-96.2595858510759,29.9490288506389,0</coordinates></Point>
  </Placemark>
  <Placemark>
    <name>John Shelburne Cemetery</name>
    <styleUrl>#normal</styleUrl>
    <description><![CDATA[S from Bleiblerville on Industry Rd. 1.3 mi. to Begonia Ln., then NW .15 mi.<br/><br/><b>Address:</b> Bleiblerville<br/><br/><b>Marker Text:</b> John Shelburne Cemetery Nancy and John Pamplin, their eleven children, and Nancy's mother, Jane Dunkin, came to Texas from Lauderdale, Alabama in 1837. They settled here the following year and established a plantation along Mill Creek. In 1842, John and his son-in-law, Alfred Minton, joined the Republic of Texas army to turn back the invasion of Gen. Adrian Woll. The eight known graves at this site are for members of the Shelburne and Minton families, whose obelisks are the central features. The rock-lined gravesites serve as reminders of the area's pioneer settlers. Historic Texas Cemetery - 2002]]></description>
    <Point><coordinates>-96.461928,29.999,0</coordinates></Point>
  </Placemark>
  <Placemark>
    <name>Joseph L. Leshikar House</name>
    <styleUrl>#normal</styleUrl>
    <description><![CDATA[Nelsonville-New Bremen Rd., 4.5 miles south of Nelsonville off SH 159 (private)<br/><br/><b>Address:</b> 3373 Skalak Road, New Ulm<br/><br/><b>Marker Text:</b> After Rev. Josef E. Bergman of Cat Spring wrote letter praising Texas, 33 Czech families immigrated to locality, 1851-1853. This first home was built in 1854 by Josef L. Leshikar and his 4 sons. Recorded Texas Historic Landmark, 1965.]]></description>
    <Point><coordinates>-96.4054159559814,29.9380415105607,0</coordinates></Point>
  </Placemark>
  <Placemark>
    <name>Mary Theresa Juergens</name>
    <styleUrl>#normal</styleUrl>
    <description><![CDATA[from Industry, take FM 109 south about 2.4 miles then go west on Track Rd. from New Ulm, take Track Road 3.5 northwest, out west of FM 109<br/><br/><b>Address:</b> New Ulm<br/><br/><b>Marker Text:</b> (1809-October 31, 1891) German natives Conrad and Mary Theresa Hennecke Juergens came to Texas in 1833, the year of their marriage, and built a cabin near this site. In March 1836 as the Texas Revolution was raging, many Texas settlers, in fear of the advancing Mexican army, fled their homes in what became known as the Runaway Scrape. The Juergens family chose to remain, but soon were victims of a raid by Indians, thought to be members of the coastal Karankawa tribe. Conrad Juergens was wounded, and Mary and two of Conrad Juergens' young sons from a previous marriage were captured. Pregnant at the time of her kidnapping, Mary gave birth to a girl, Jane Margret, while in captivity. Months later, mother and daughter were ransomed at Coffee's Trading Post on the Red River, suggesting they were traded by the Karankawas to a nomadic tribe. The Juergens' sons were not rescued. Mary and Jane returned to Conrad, but he died within two years. After a brief second marriage to George Grimes, Mary married Samuel Redgate in 1843. They moved to Dayton, Ohio, where Mary died in 1891. Redgate and Jane Margret returned to Texas and settled in Parker county, where in 1936 the State of Texas erected a monument at their graves to honor them and Mary. (1992)]]></description>
    <Point><coordinates>-96.5329638275738,29.9097142036381,0</coordinates></Point>
  </Placemark>
  <Placemark>
    <name>McGregor Cemetery (Scottish Presbyterian Cemetery)</name>
    <styleUrl>#normal</styleUrl>
    <description><![CDATA[8.8 miles northwest of Nelsonville on FM 2502, then 0.4 miles southwest on Schoneau County Road; then 1.8 miles west on Shelby Road and 0.4 miles southeast on Zeter Road<br/><br/><b>Address:</b> Nelsonville<br/><br/><b>Marker Text:</b> A group of settlers came to this area of western Austin County from North Carolina in the early 1850s. Many of the pioneers were originally from Lismore, Argyleshire County, Scotland, and had immigrated to the United States together. Included among the group were members of the McGregor, Carmichael, McLean, McDougald, and McLeod families. Galatia Presbyterian Church was founded nearby in October 1860, but was discontinued in 1883 after most of the members moved away from the area. The church property was sold and the proceeds donated to Austin College, a Presbyterian school founded in Huntsville, but relocated to Sherman in 1878. This cemetery, which contains fifteen marked graves, was established on August 22, 1868, with the burial of Mary McGregor (1793-1861), wife of Malcolm McGregor. Two days later another Scottish settler, Peter John McLean, died and was laid to rest in the graveyard. The cemetery continued to serve the small rural community until 1900, when six-year-old Billy Boy Carmighael was the last person interred here. Maintained by an association of descendants, the McGregor Cemetery is the last physical remnant of the area's pioneer Scottish settlement. (1997)]]></description>
    <Point><coordinates>-96.5388592285103,30.0486901942223,0</coordinates></Point>
  </Placemark>
  <Placemark>
    <name>Meinecke Cemetery</name>
    <styleUrl>#normal</styleUrl>
    <description><![CDATA[<b>Address:</b> 6587 Stokes Road, Kenney<br/><br/><b>Marker Text:</b> Johann Friedrich and Sophie Koyn Meinecke established this burial ground in 1858, when two of their sons drowned in the Brazos River. The Meineckes came to Kenney after emigrating from Bremen, Germany in 1847. Johann Freidrich Meinecke purchased property from Evangelist John Welsey Kenney, the town’s namesake, and family members soon established themselves as noted area farmers, ranchers and educators. This family graveyard features vertical stones, curbing and German language inscriptions. Today, urban development has spread to the historic Kenney community, but this cemetery remains as a record of early settlement here and of the pioneering Meinecke family.]]></description>
    <Point><coordinates>-96.2931225380281,30.0311446853259,0</coordinates></Point>
  </Placemark>
  <Placemark>
    <name>Montgomery Cemetery</name>
    <styleUrl>#normal</styleUrl>
    <description><![CDATA[<b>Address:</b> 3700 Newman Road, Bellville<br/><br/><b>Marker Text:</b> Montgomery Cemetery Established 1850 Historic Texas Cemetery - 2007]]></description>
    <Point><coordinates>-96.281261,30.058329,0</coordinates></Point>
  </Placemark>
  <Placemark>
    <name>Old Roesler Place, The</name>
    <styleUrl>#normal</styleUrl>
    <description><![CDATA[From Nelsonville, take SH 159 west about 2 miles; private.<br/><br/><b>Address:</b> 12169 Hwy 59 W, Nelsonville<br/><br/><b>Marker Text:</b> August Roesler (1836-1933), who migrated to Texas from Germany during the 1850s, built a simple frame dwelling at this site in 1873. Near a busy public road, it was a frequent stopping place for travelers. In 1892, after the Roesler family had moved to a larger residence on the property, their first home burned. With help from his neighbors, Roesler then constructed this board and batten farmhouse, a replica of the earlier structure. Recorded Texas Historic Landmark - 1977]]></description>
    <Point><coordinates>-96.4375342887728,29.9758784049575,0</coordinates></Point>
  </Placemark>
  <Placemark>
    <name>On This Site Stood the Only Home Owned in Texas by Stephen F. Austin</name>
    <styleUrl>#normal</styleUrl>
    <description><![CDATA[Stephen F. Austin State Park P38 (off FM 1458) San Felipe<br/><br/><b>Address:</b> San Felipe<br/><br/><b>Marker Text:</b> On this site stood the only home owned in Texas by Stephen F. Austin. It was burned, March 29, 1836, when San Felipe was set afire by Texans to prevent its falling into the hands of the advancing Mexican army under General Santa Anna.]]></description>
    <Point><coordinates>-96.1061087226719,29.8160426670943,0</coordinates></Point>
  </Placemark>
  <Placemark>
    <name>Peters-Hacienda Schuetzenverein</name>
    <styleUrl>#normal</styleUrl>
    <description><![CDATA[Five miles north of Sealy on Hwy 36, on the cormer of  Peters - San Felipe and Trenckmann Roads  756 Trenckmann Road, Sealy, TX 77474<br/><br/><b>Address:</b> 756 Trenckmann Road, Sealy]]></description>
    <Point><coordinates>-96.1888107381033,29.8530610030209,0</coordinates></Point>
  </Placemark>
  <Placemark>
    <name>Pitts Place</name>
    <styleUrl>#normal</styleUrl>
    <description><![CDATA[SW corner Park Road 38 and Antonio Martinez St.<br/><br/><b>Address:</b> 637 Antonio Martinez St., San Felipe<br/><br/><b>Marker Text:</b> RTHL medallion only]]></description>
    <Point><coordinates>-96.102443416807,29.8061930241713,0</coordinates></Point>
  </Placemark>
  <Placemark>
    <name>Samuel Chapel Cemetery</name>
    <styleUrl>#normal</styleUrl>
    <description><![CDATA[<b>Address:</b> 9514 Korthauer Road, Bellville<br/><br/><b>Marker Text:</b> Established circa 1890 Historic Texas cemetery 2007]]></description>
    <Point><coordinates>-96.1847832326626,30.0472239168358,0</coordinates></Point>
  </Placemark>
  <Placemark>
    <name>Samuel Shelburne Cemetery</name>
    <styleUrl>#normal</styleUrl>
    <description><![CDATA[Industry, 1.3 mi. N on SH 109, then E on Mertz Lane 0.8 mi., then 250 yds NW<br/><br/><b>Address:</b> Industry<br/><br/><b>Marker Text:</b> Samuel Shelburne Cemetery Established 1863 Historic Texas Cemetery - 2003]]></description>
    <Point><coordinates>-96.4879150030316,29.9955995183956,0</coordinates></Point>
  </Placemark>
  <Placemark>
    <name>Shelburne-Reinecker House</name>
    <styleUrl>#normal</styleUrl>
    <description><![CDATA[<b>Address:</b> 402 S. Masonic St., Bellville<br/><br/><b>Marker Text:</b> This house began as a one story residence built in 1882 by prominent lawyer, stage legislator, and merchant James Henry Shelburne (1845-1904) and his wife Mary Ann Perkins. Their heirs sold the house to William and Bertha Reinecker in 1912. The Reineckers added a second story, wraparound porch, and indoor plumbing in 1913, transforming the farm house into a prairie school design-influenced bungalow. The house remained in the Reinecker family until 1981. Recorded Texas Historic Landmark - 1994]]></description>
    <Point><coordinates>-96.2610862166268,29.9468551686271,0</coordinates></Point>
  </Placemark>
  <Placemark>
    <name>Sherwood Y. Reamos</name>
    <styleUrl>#normal</styleUrl>
    <description><![CDATA[Buckhorn Cemetery, Ham Kendrick Road off FM 1456, Buckhorn<br/><br/><b>Address:</b> Buckhorn<br/><br/><b>Marker Text:</b> Detailed to guard the baggage at Harrisburg April 21, 1836. Born in South Carolina, 1812; died in 1887.]]></description>
    <Point><coordinates>-96.199959,30.035968,0</coordinates></Point>
  </Placemark>
  <Placemark>
    <name>St. James Lutheran Cemetery</name>
    <styleUrl>#normal</styleUrl>
    <description><![CDATA[marker pending<br/><br/><b>Address:</b> 10362 New Wehdem Rd, Brenham<br/><br/><b>Marker Text:</b> marker pending]]></description>
    <Point><coordinates>-96.390036,30.069188,0</coordinates></Point>
  </Placemark>
  <Placemark>
    <name>St. John Lutheran Church</name>
    <styleUrl>#normal</styleUrl>
    <description><![CDATA[<b>Address:</b> 520 N. Holland Street, Bellville<br/><br/><b>Marker Text:</b> This congregation was organized in 1896 by seven Bellville families assisted by the Rev. O. W. Hartmann, a faculty member of the Evangelical Lutheran College in Brenham (1891-1906). Early worship services were held in the Methodist church building. The Lutheran congregation acquired one acre of land for a church at this site and completed a frame building with a steeple in November 1898. The Rev. P. Gogolin was called as the congregation's first full-time minister in 1899, and remained for two years. A hurricane reached Bellville in 1900, completely destroying the German Methodist Church, and blowing the Lutheran church from its foundation. The congregation repaired the damage to the church structure. For several years the church struggled with part time pastors and a small, inactive membership, until the arrival of Pastor Hans Krause in 1911. Under his leadership the Sunday School expanded, the Ladies Aid Society was reactivated, a parsonage was built, and the church membership more than doubled. The congregation grew steadily, building a brick sanctuary in 1925. The church continues to serve the needs of its membership and the community as it has for more than 100 years. (1996)]]></description>
    <Point><coordinates>-96.2554036785775,29.955457983231,0</coordinates></Point>
  </Placemark>
  <Placemark>
    <name>[PENDING] St. John Lutheran Church</name>
    <styleUrl>#pending</styleUrl>
    <description><![CDATA[<b>⚠ PENDING — marker may not yet be installed at this location.</b><br/><br/>Marker pending<br/><br/><b>Address:</b> 218 Third Street, Wallis]]></description>
    <Point><coordinates>-96.060313,29.631476,0</coordinates></Point>
  </Placemark>
  <Placemark>
    <name>Star Hill Cemetery</name>
    <styleUrl>#normal</styleUrl>
    <description><![CDATA[3 mi. E of Industry on SH 159, then S on New Bremen Rd 3 mi<br/><br/><b>Address:</b> Industry<br/><br/><b>Marker Text:</b> War of 1812 veteran Bryan Daughtrey and his wife, Anna (Roberts), moved to Texas in 1822 as part of Stephen F. Austin's Second Colony. In 1829, they moved to land here in present Austin County. When Anna died in 1847, Bryant buried her at this site, and he later moved from the area. His sons James and Edward eventually sold the family property to Frederick W. Sternenberg. His family also used the cemetery. He buried his wife, Julia H. (Brauss), here in 1861, and Sternenberg and a grandson, Gustav, were interred at the site in 1869. In 1878, Rudolph Sternenberg sold the land to Charles Wendt, with one acre reserved for the cemetery. The local community and its burial ground, as well as a school in operation until 1928, came to be known as Star Hill, the English translation for the Sternenberg name. Star Hill community residents continue to use the early burial ground, which is maintained by an association that was formed by James Edward Huebner in 1975. It includes descendants of pioneer area settlers, as well as friends and neighbors. Among those interred here are veterans of military conflicts dating to the Civil War. Historic Texas Cemetery - 2004]]></description>
    <Point><coordinates>-96.4489879522464,29.9504816556442,0</coordinates></Point>
  </Placemark>
  <Placemark>
    <name>Travis-Pier Cemetery</name>
    <styleUrl>#normal</styleUrl>
    <description><![CDATA[<b>Address:</b> 4188 Old Highway 36, Kenney<br/><br/><b>Marker Text:</b> Travis-Pier Cemetery Established 1843 Historic Texas Cemetery – 2008]]></description>
    <Point><coordinates>-96.3350262376712,30.0126333447573,0</coordinates></Point>
  </Placemark>
  <Placemark>
    <name>Vanderwerth Family Cemetery</name>
    <styleUrl>#normal</styleUrl>
    <description><![CDATA[<b>Address:</b> Shelby]]></description>
    <Point><coordinates>-96.556131764448,30.0176965836579,0</coordinates></Point>
  </Placemark>
  <Placemark>
    <name>Waddell-Dudensing-Bering Home</name>
    <styleUrl>#normal</styleUrl>
    <description><![CDATA[<b>Address:</b> 5323 Post Oak Point Rd., New Ulm<br/><br/><b>Marker Text:</b> F.B. Waddell built the front portion and loft of this house about 1842. When German-born William Dudensing (d. 1892) bought the property in 1873, he added rooms at the back. The porch was extended across the front by others in his family who owned the house until 1956. August C. Bering, III, a descendant of Germans who emigrated to Texas in 1846, purchased (1968), enlarged, and restored the structure. Staircase features original stenciled trim. Recorded Texas Historic Landmark - 1974]]></description>
    <Point><coordinates>-96.5264031523941,29.9285291038401,0</coordinates></Point>
  </Placemark>
  <Placemark>
    <name>William Shelburne Cemetery</name>
    <styleUrl>#normal</styleUrl>
    <description><![CDATA[1.7 mi. W of Nelsonville on SH 159, then S on Zettle Rd.; cem. is .2 mi. SW of Zettle Rd.<br/><br/><b>Address:</b> Nelsonville<br/><br/><b>Marker Text:</b> William Shelburne Cemetery Established 1878 Historic Texas Cemetery - 2002]]></description>
    <Point><coordinates>-96.4337252915014,29.9675083226973,0</coordinates></Point>
  </Placemark>
  <Placemark>
    <name>Witte-Schmid Cemetery</name>
    <styleUrl>#normal</styleUrl>
    <description><![CDATA[<b>Address:</b> 2650 Witte-Schmid Road, Shelby<br/><br/><b>Marker Text:</b> This pioneer graveyard is an important reminder of the German heritage of Austin county. Following two of their sons to America, Dr. Ernst Witte (b. 1791), a native of Blomberg, Germany, and his wife Lizette (Linnemann) bought 1422 acres here in 1856. Near this site, the Wittes built a home which Witte heirs later donated to the Texas German Society. Dr. Witte died in 1869 and was buried here; Lizette died in 1883. The following year, the Wittes' heirs sold the land to Ernst and Lizette's granddaughter Emilie Sophia and her husband John Scmid. More than twenty family members are buried here. The cemetery features upright marble and granite gravestones, with some inscriptions written in German.]]></description>
    <Point><coordinates>-96.558517,30.000106,0</coordinates></Point>
  </Placemark>
  <Placemark>
    <name>Witte-Schmid House</name>
    <styleUrl>#normal</styleUrl>
    <description><![CDATA[Witte-Schmid Road, northeast of Schoenau Road and FM 1457<br/><br/><b>Address:</b> 2650 Witte-Schmid Road, Shelby<br/><br/><b>Marker Text:</b> Dr. Ernst Witte, educated as a lawyer in Hanover, Germany, prior to immigrating to Texas, purchased 1,422 acres of land in 1856, at the age of 63, and quickly improved the property value, producing cotton and adding this farmhouse around 1860. Witte died in 1869, leaving the property to his widow, Lisette. In 1884, her heirs sold the house to Emilie, grandchild to Ernst and Lisette, and John Schmid, a Swiss settler, where it remained in the Schmid family until 1986. An excellent example of rural vernacular architecture, the house was constructed with stuccoed sandstone, with interior walls of fachwerk and locally-sourced adobe. It includes a center-passage plan, asymmetrical placement of the hall with two summer beams and flat ornamental balusters, common characteristics of homes built by successful German settlers in the area in the mid-19th century. On the exterior, two of the most conspicuous Germanic details are the clipped gables, or schiefergedecktes dach, and the eyebrow windows (removed in the 1960s and restored in 2004), or dachgaube. These features were apparently inspired by Witte’s Home in Kleefeld, near Hanover. Relatively unchanged, the porch was added around 1910 by the Schmid family and the roof replaced in the 1960s and 2004. Overlooking the rolling landscape of Austin County, the Witte-Schmid house stands as a reminder of German immigration in the mid-19th century and its impact on the architectural history of Texas. Recorded Texas Historic Landmark - 2017]]></description>
    <Point><coordinates>-96.560719,30.001618,0</coordinates></Point>
  </Placemark>
</Document>
</kml>
