<?xml version="1.0" encoding="UTF-8"?>
<kml xmlns="http://www.opengis.net/kml/2.2">
<Document>
  <name>Bandera County — Unmapped Historical Markers</name>
  <description>THC markers in Bandera County without an HMDB id (isMissing excluded). 4 with THC coords; 0 geocoded from address; 2 omitted (no usable address). Orange pins are isPending=True — the marker may not be installed yet.</description>
  <Style id="normal">
    <IconStyle>
      <Icon><href>http://maps.google.com/mapfiles/ms/icons/red-dot.png</href></Icon>
    </IconStyle>
  </Style>
  <Style id="pending">
    <IconStyle>
      <color>ff00a5ff</color>
      <Icon><href>http://maps.google.com/mapfiles/ms/icons/orange-dot.png</href></Icon>
    </IconStyle>
  </Style>
  <Placemark>
    <name>Benjamin Franklin and Mary Hay Langford, Jr. Home</name>
    <styleUrl>#normal</styleUrl>
    <description><![CDATA[407 Fourteenth St<br/><br/><b>Address:</b> 407 Fourteenth St, Bandera<br/><br/><b>Marker Text:</b> Bandera's early settlers included Lyman Wight's Mormon colony, which arrived in 1854. In 1890, John and Jennie Davenport Miller bought this site from colonists George and Virgine Minear hay. George and early Bandera settler Isaac Berry Langford helped build a home for the Millers, who sold it in 1904 to children of the Hays and Langfords: Benjamin Franklin "Frank" Langford, Jr., and his bride, Mary Emma Hay. The couple added to the house over the years, converting the one-story, l-plan design into a two-story block structure. Frank and Mary were active in the community and donated land across the street for a Mormon church. The long-time Langford family home serves as a reminder of Bandera's early history. Recorded Texas Historic Landmark - 2002]]></description>
    <Point><coordinates>-99.0698921301783,29.7280729115218,0</coordinates></Point>
  </Placemark>
  <Placemark>
    <name>Jureczki House</name>
    <styleUrl>#normal</styleUrl>
    <description><![CDATA[Northwest corner of Seventh and Cypress, Bandera.<br/><br/><b>Address:</b> 607 Cypress St., Bandera]]></description>
    <Point><coordinates>-99.0753659072194,29.7205179001794,0</coordinates></Point>
  </Placemark>
  <Placemark>
    <name>Old Stanard Home</name>
    <styleUrl>#normal</styleUrl>
    <description><![CDATA[Hwy. 16, E city limits, Medina<br/><br/><b>Address:</b> Medina<br/><br/><b>Marker Text:</b> On land owned by John James, surveyor of Bandera and Castroville townsites, and by Confederate general John Bell Hood. Hostile Indians prevented construction until 1878, two years prior to founding of Medina. Owned by Standard family since 1889. Recorded Texas Historic Landmark, 1965.]]></description>
    <Point><coordinates>-99.2420964250442,29.7948623159512,0</coordinates></Point>
  </Placemark>
  <Placemark>
    <name>St. Stanislaus Catholic Church</name>
    <styleUrl>#normal</styleUrl>
    <description><![CDATA[<b>Address:</b> 703 Cypress St., Bandera<br/><br/><b>Marker Text:</b> RTHL medallion only]]></description>
    <Point><coordinates>-99.075299143922,29.7209842697402,0</coordinates></Point>
  </Placemark>
</Document>
</kml>
