<?xml version="1.0" encoding="UTF-8"?>
<kml xmlns="http://www.opengis.net/kml/2.2">
<Document>
  <name>Burnet County — Unmapped Historical Markers</name>
  <description>THC markers in Burnet County without an HMDB id (isMissing excluded). 5 with THC coords; 0 geocoded from address; 5 omitted (no usable address). Orange pins are isPending=True — the marker may not be installed yet.</description>
  <Style id="normal">
    <IconStyle>
      <Icon><href>http://maps.google.com/mapfiles/ms/icons/red-dot.png</href></Icon>
    </IconStyle>
  </Style>
  <Style id="pending">
    <IconStyle>
      <color>ff00a5ff</color>
      <Icon><href>http://maps.google.com/mapfiles/ms/icons/orange-dot.png</href></Icon>
    </IconStyle>
  </Style>
  <Placemark>
    <name>Granite Mountain</name>
    <styleUrl>#normal</styleUrl>
    <description><![CDATA[FM 1431, north side, west of CR 122 (Slaughter Mountain Road)<br/><br/><b>Address:</b> FM 1431, Marble Falls<br/><br/><b>Marker Text:</b> This 866-foot dome of solid pink granite, covering 180 acres, contains the largest quarry of its kind in the United States. This mountain, like all granite formations, was once melted rock similar to lava. As the molten rock cooled thousands of feet below the earth's surface, it hardened into large crystals of quartz, feldspar and several dark-colored minerals. Wherever strength, durability and beauty of finish are required, granite is a favored building stone. The mountain was part of a grant made to Texas colonist William Slaughter. The site became famous commercially when a dispute arose in the 1880s over the type of stone to be used in the Capitol in Austin. The issue was settled in 1885 when Governor John Ireland resisted demands to use non-native limestone. Following this decision, a special track was built to haul the granite to the rail line in Burnet. The stone was generously donated to the state by quarry owners G. W. Lacy, N. L. Norton, and W. H. Westfall. Today granite from the quarry here is shipped to all parts of Texas, the U.S. and foreign countries for use in monuments, shafts, jetties, and buildings. It has been used in the Galveston sea wall and in new state office buildings near the Capitol in Austin.]]></description>
    <Point><coordinates>-98.2763857412851,30.5609081462638,0</coordinates></Point>
  </Placemark>
  <Placemark>
    <name>Masonic Hall</name>
    <styleUrl>#normal</styleUrl>
    <description><![CDATA[308 S Main St.<br/><br/><b>Address:</b> 308 S Main St., Burnet]]></description>
    <Point><coordinates>-98.2269993383893,30.7556517926193,0</coordinates></Point>
  </Placemark>
  <Placemark>
    <name>Old Thomas Ranch House</name>
    <styleUrl>#normal</styleUrl>
    <description><![CDATA[FM 2509 (Hoover's Valley Road), 1.2 mi. SW of SH 29<br/><br/><b>Address:</b> 1604 FM 3509, Burnet<br/><br/><b>Marker Text:</b> In 1864 a log home and a "spring house" (used to cool milk) were built on this site by Frank Thomas, rancher. Present rock house, built to catch breeze, was added 1880-1882; is of limestone quarried 3 miles northeast. Fire (1910) razed log house. Recorded Texas Historic Landmark - 1968]]></description>
    <Point><coordinates>-98.2894289390238,30.751649000726,0</coordinates></Point>
  </Placemark>
  <Placemark>
    <name>Stewart Pioneer Home</name>
    <styleUrl>#normal</styleUrl>
    <description><![CDATA[off FM 243<br/><br/><b>Address:</b> Bertram<br/><br/><b>Marker Text:</b> Benjamin Hansford Stewart (d. 1932), a native of Tennessee, came to Texas in 1851. A farmer and rancher, he also served as Burnet County sheriff, 1874-75. He constructed this frame house in 1905 as a residence for his son Homer and daughter-in-law Viola. The Texas style home, similar to other area ranch houses of the early 1900s, features a chimney of hand-hewn limestone. Six generations of the B. H. Stewart family have owned and used the home. Recorded Texas Historic Landmark - 1980]]></description>
    <Point><coordinates>-97.9528377039176,30.8204134009508,0</coordinates></Point>
  </Placemark>
  <Placemark>
    <name>Watson Cemetery</name>
    <styleUrl>#normal</styleUrl>
    <description><![CDATA[14 miles south of Lampasas on Hwy 183<br/><br/><b>Address:</b> Lampasas]]></description>
    <Point><coordinates>-98.0159778893963,30.9351504223428,0</coordinates></Point>
  </Placemark>
</Document>
</kml>
