<?xml version="1.0" encoding="UTF-8"?>
<kml xmlns="http://www.opengis.net/kml/2.2">
<Document>
  <name>Callahan County — Unmapped Historical Markers</name>
  <description>THC markers in Callahan County without an HMDB id (isMissing excluded). 4 with THC coords; 0 geocoded from address; 0 omitted (no usable address). Orange pins are isPending=True — the marker may not be installed yet.</description>
  <Style id="normal">
    <IconStyle>
      <Icon><href>http://maps.google.com/mapfiles/ms/icons/red-dot.png</href></Icon>
    </IconStyle>
  </Style>
  <Style id="pending">
    <IconStyle>
      <color>ff00a5ff</color>
      <Icon><href>http://maps.google.com/mapfiles/ms/icons/orange-dot.png</href></Icon>
    </IconStyle>
  </Style>
  <Placemark>
    <name>Cross Plains Review</name>
    <styleUrl>#normal</styleUrl>
    <description><![CDATA[<b>Address:</b> 116 SE 1st Street, Cross Plains<br/><br/><b>Marker Text:</b> Belmont L. Shields founded the Cross Plains Review in April 1909, when the town was sited on Turkey Creek. He wanted the newspaper established before the railroad came to town, which occurred when the Texas central arrived in 1912 and most businesses and homes moved one mile to the new townsite. After publishing for five years, shields sold the paper to L. P. Henslee, who in 1921 sold the business to three local merchants. The Review has been an important resource for citizens and a unique chronicle, recording community development and such events as the death of writer Robert E. Howard, the 2005 wildfires, and the town’s 100th anniversary. As the oldest business in cross plains, the Review is intertwined with the history of the community.]]></description>
    <Point><coordinates>-99.16477614439,32.1251871054421,0</coordinates></Point>
  </Placemark>
  <Placemark>
    <name>Higginbotham Brothers and Company</name>
    <styleUrl>#normal</styleUrl>
    <description><![CDATA[<b>Address:</b> 100 N Main St, Cross Plains<br/><br/><b>Marker Text:</b> HIGGINBOTHAM BROTHERS AND COMPANY This location of the Higginbotham brothers and Co. was opened on Nov. 20, 1914 by brothers Rufus Wilson, Joseph Martin, and Bolivar Taylor, Jr. Original glass counters, cabinets, mirrors, stairways, floors and tin ceiling are still in use today. The first in the chain of general stores was opened in 1881 in de Leon by Joseph, Bolivar and brother-in-law Jeff Bartlett. Soon, combinations of brothers, relatives and friends opened other locations serving all aspects of customer needs, including undertaking. The funeral parlor was located on the north side of the cross plains store before being relocated. Today there are 34 Texas store locations which have served for 130 years. (2014)]]></description>
    <Point><coordinates>-99.1653128332496,32.1254965840987,0</coordinates></Point>
  </Placemark>
  <Placemark>
    <name>Hittson Ranch Headquarters on Battle Creek</name>
    <styleUrl>#normal</styleUrl>
    <description><![CDATA[from Putnam, take FM 2945 east about 4 miles (on right-of-way)<br/><br/><b>Address:</b> Putnam vicinity<br/><br/><b>Marker Text:</b> Nearby Battle Creek was given its name in 1840 by a small band of men who had traveled to this area in search of hostile Indians. A fight took place near the creek when a raiding party attacked the group. Approximately, twenty years later, cattleman John Hittson (1831-1880) established his ranch headquarters at the site of the battleground. The headquarters, used only when cattle were rounded up from surrounding lands, consisted of corrals, branding pens, and a small shelter. It is believed to be the first ranching headquarters established in Callahan County. (1984)]]></description>
    <Point><coordinates>-99.136985,32.382243,0</coordinates></Point>
  </Placemark>
  <Placemark>
    <name>Ross Cemetery</name>
    <styleUrl>#normal</styleUrl>
    <description><![CDATA[0.5 mi. W on US 283<br/><br/><b>Address:</b> Baird<br/><br/><b>Marker Text:</b> Ross Cemetery Established 1881 Historic Texas Cemetery - 2006]]></description>
    <Point><coordinates>-99.3848187753245,32.4078138986035,0</coordinates></Point>
  </Placemark>
</Document>
</kml>
