<?xml version="1.0" encoding="UTF-8"?>
<kml xmlns="http://www.opengis.net/kml/2.2">
<Document>
  <name>Cherokee County — Unmapped Historical Markers</name>
  <description>THC markers in Cherokee County without an HMDB id (isMissing excluded). 58 with THC coords; 0 geocoded from address; 19 omitted (no usable address). Orange pins are isPending=True — the marker may not be installed yet.</description>
  <Style id="normal">
    <IconStyle>
      <Icon><href>http://maps.google.com/mapfiles/ms/icons/red-dot.png</href></Icon>
    </IconStyle>
  </Style>
  <Style id="pending">
    <IconStyle>
      <color>ff00a5ff</color>
      <Icon><href>http://maps.google.com/mapfiles/ms/icons/orange-dot.png</href></Icon>
    </IconStyle>
  </Style>
  <Placemark>
    <name>Benge Cemetery</name>
    <styleUrl>#normal</styleUrl>
    <description><![CDATA[CR 1815, 100 feet E of CR 1816. Marker is near center of cemetery, 300 feet N of CR 1815. Map dot approximate.<br/><br/><b>Address:</b> CR 1815, Maydelle<br/><br/><b>Marker Text:</b> George Clinton Benge (d. 1883) established this family burial ground on his property in 1861 when his wife, Nancy (Myers), died. In 1850, George and Nancy moved here from Alabama with seven of their eight children. George worked as a farmer, blacksmith and gunsmith, and served as a justice of the peace in Old Jacksonville. Members of the Benge family buried here made vital contributions to Jacksonville and other nearby communities. Among those interred are also a number of military veterans. Today, the Benge Cemetery Association maintains this burial ground, which remains a testament to a noted Cherokee County family. Historic Texas Cemetery - 2006]]></description>
    <Point><coordinates>-95.318732796467,31.87063846022,0</coordinates></Point>
  </Placemark>
  <Placemark>
    <name>Berryman Cemetery</name>
    <styleUrl>#normal</styleUrl>
    <description><![CDATA[.6 mi E on int. of CR 2501 and FM 241<br/><br/><b>Address:</b> Alto<br/><br/><b>Marker Text:</b> James Dill, an early Anglo settler who would become the first alcalde at Nacogdoches under Mexican rule, petitioned the Spanish government in 1802 for land that included this site. He married Helena Kimble, who later divided the property among their children after his death. The tract conveyed to daughter Helena (Dill) Berryman and her husband Capt. Henry Berryman included this site. Born in Virginia, Capt. Berryman graduated from the U.S. Military Academy at West Point and was stationed in Louisiana, where he met Helena, who was attending school at Natchitoches. The two married and lived in Louisiana, later returning to Teas and building a log home called Forest Hill. Capt. Berryman encouraged farmers to settle this area. Following his death in 1859, Helena remained at Forest Hill, raising thirty orphans in addition to her three children and becoming an early contributor to the Buckner Baptist Children's Home. She passed away in 1888. Other buried here include former slaves "Aunt" Sally and "Uncle" Alex Berryman; Civil Water veteran, Alto civic leader and Cherokee County Commissioner Henry Water Berryman; and former Cleveland Indians baseball player, Carl Yowell. The earliest marked grave is that of Catherine Josephine Berryman, daughter of Helena and Henry, who died in 1849. Descendants formed the Berryman Cemetery Association to care for the burial ground. Today, the burial ground is a reminder of a pioneering Texas family vital to the development of Alto and Cherokee County. Historic Texas Cemetery – 2006]]></description>
    <Point><coordinates>-95.0234244261701,31.6879554881045,0</coordinates></Point>
  </Placemark>
  <Placemark>
    <name>Brown, W. A., Home</name>
    <styleUrl>#normal</styleUrl>
    <description><![CDATA[<b>Address:</b> 428 S. Patton Street, Jacksonville]]></description>
    <Point><coordinates>-95.274487060485,31.9596915192459,0</coordinates></Point>
  </Placemark>
  <Placemark>
    <name>Burning Bush Colony, The</name>
    <styleUrl>#normal</styleUrl>
    <description><![CDATA[US 69 right-of-way, .25 miles south of Bullard.<br/><br/><b>Address:</b> Bullard<br/><br/><b>Marker Text:</b> From 1913 until 1919 a religious community operated in this vicinity on the former Joseph Pickens Douglas Plantation. The colony was established by the Metropolitan Church Association, commonly called the Burning Bush Society, an evangelical organization founded in Chicago about 1900. This 400-member Burning Bush colony was set up to be a self-sustaining agricultural community. It operated its own school, sawmill, power plant, water system and sewage disposal facility. Unable to pay its debts, the colony disbanded after the close of World War I.]]></description>
    <Point><coordinates>-95.3099101589199,32.1280056368233,0</coordinates></Point>
  </Placemark>
  <Placemark>
    <name>Cherokee Furnace Co., C.S.A.</name>
    <styleUrl>#normal</styleUrl>
    <description><![CDATA[CR 2323, west of FM 752 and near intersection of CR 2324<br/><br/><b>Address:</b> CR 2323, Alto<br/><br/><b>Marker Text:</b> Made crude kettles, plow tools, on this site in 1864-65. Slaves fled from Louisiana's Red River Campaign battles were the workers. This county had 2 war plants working easily-mined, abundant local ore. Smelting fuel was charcoal made of timber growing nearby. A phase of manufacturing that made Texas "Storehouse of the Confederacy." (1965)]]></description>
    <Point><coordinates>-95.1699653888054,31.6820368217941,0</coordinates></Point>
  </Placemark>
  <Placemark>
    <name>Chief Samuel Benge</name>
    <styleUrl>#normal</styleUrl>
    <description><![CDATA[4.2 miles north of Jacksonville on US 69, then 5 miles west on FM 855 and 2 miles north on FM 2137 to CR 3601<br/><br/><b>Address:</b> Jacksonville vicinity<br/><br/><b>Marker Text:</b> A leader of the Cherokee Indians in Texas during the 1830s, Samuel Benge was present at the negotiations with General Sam Houston, John Cameron and John Forbes in early 1836 to secure a treaty with the Cherokee in return for neutrality during the imminent war for independence from Mexico. As a condition of the resulting Houston-Forbes Treaty, the Cherokee were to occupy specific lands in east Texas, and Chief Benge, a signer of the treaty, was required to move east across the Neches River into what is now Cherokee County. The Cherokee upheld their part of the treaty during the war, but the Republic of Texas senate later nullified the treaty, a step toward the ultimate removal of the Cherokees from Texas. (2001)]]></description>
    <Point><coordinates>-95.369221,32.100927,0</coordinates></Point>
  </Placemark>
  <Placemark>
    <name>Church Founded by Chaplain Nicholas A. Davis, C.S.A.</name>
    <styleUrl>#normal</styleUrl>
    <description><![CDATA[Corner of Nacogdoches and S. Boulton<br/><br/><b>Address:</b> 411 S Boldton St., Jacksonville<br/><br/><b>Marker Text:</b> Born in Alabama in 1824. Entered Presbyterian ministry. Moved to Texas in 1857. Farmed and preached. At start of Civil War joined the 4th Texas Infantry and went with troops to Virginia. As a Confederate chaplain had same pay and rations as a private, and no status privileges. Duties included religious services, lessons, counseling, funerals, baptisms, sick visits, removal of wounded and dead from battlefields. Handled mail, with special attention for men who could not read and write. Worked to get better troop living conditions. Established hospital wards. Because newspapers gave Virginians credit for Texas boys' victories, published 1863 in Richmond his "Campaign from Texas to Maryland." A Houston edition gave homefolk news few soldiers could tell. After war returned to farming, building churches and preaching over the state. For many years was a Trinity University trustee. Established the first commercial orchard in Jacksonville and started the development which makes the area foremost in Texas fruit growing. Pioneered use of insecticides, better farming methods and new machinery. Died in 1894 in San Antonio .]]></description>
    <Point><coordinates>-95.2728483572699,31.9607422207939,0</coordinates></Point>
  </Placemark>
  <Placemark>
    <name>Cold Springs School and Methodist Church</name>
    <styleUrl>#normal</styleUrl>
    <description><![CDATA[<b>Address:</b> 1109 FM 220 South, Alto<br/><br/><b>Marker Text:</b> In 1876, land at this site was deeded to the Methodist Episcopal Church, South, and to the County School Superintendent for the use of a church and public school. The Cold Springs Methodist Church, which takes its name from a large spring nearby, has been served by circuit ministers throughout its history. The school, which closed in 1944, employed one teacher until about 1900, after which additional teachers were hired. The sanctuary and schoolhouse at Cold Springs served for many years as a focal point for the surrounding rural area. (1985)]]></description>
    <Point><coordinates>-95.1085760178886,31.6086479220609,0</coordinates></Point>
  </Placemark>
  <Placemark>
    <name>Concord Cemetery</name>
    <styleUrl>#normal</styleUrl>
    <description><![CDATA[<b>Address:</b> 244 CR 4705, Troup<br/><br/><b>Marker Text:</b> In 1845, people settled the eastern portion of Texas because of inexpensive land and available water. In 1847, Reverend Richard Martin, an early Concord settler, and Reverend W.P. Henry established the Trinity Presbytery in the area. Both Martin and Henry provided ministers on horseback to Mound Prairie near Palestine to below Crockett. Early settlers worshipped in a brush arbor on the banks of Clear Springs Creek which is now known as Camp Ground Creek. Settlers built a permanent church that also served as a school, but around 1870 the building was destroyed by fire. A new church was built one and one-half miles north on the present location adjacent to the Concord Cemetery. Samuel Johnston donated two acres to the board of school directors to build a public school. in 1891 Wesley and Emma Martin donated acreage for the cemetery, but several graves had already existed. Additional land was deeded in 1933 by Taylor and Francis Martin and in 1967 by Elmer D. Martin. The oldest burials are located in the middle section and marked with tall vertical stones. The oldest documented grave is of William Moses who died in 1878. Many veterans who served in the Civil War, World War I and II, Korea and Vietnam are also buried in the cemetery. Notable veterans include Dr. Simeon Kee, medical corps in Galveston; Reverend Lewis Holcomb, Liken’s Texas Cavalry; and Emerson Draper, Company B, 1874th English BN. The cemetery provides a record of the area’s pioneer families and is still used by their descendants. Before the annual July meeting, it is a tradition to visit the cemetery onSaturday to make sure the graves are clean and in order, and to place flowers on the gravesites. Family members are dedicated to preserving and maintaining the cultural and historical traditions of the cemetery.]]></description>
    <Point><coordinates>-95.048545,32.071358,0</coordinates></Point>
  </Placemark>
  <Placemark>
    <name>Cook Cemetery</name>
    <styleUrl>#normal</styleUrl>
    <description><![CDATA[.49 mi. E of Alto on SH 21, 2.6 mi. N of CR 2301 / SH 21 to cemetery access road<br/><br/><b>Address:</b> Alto]]></description>
    <Point><coordinates>-95.0004452127994,31.6901043440046,0</coordinates></Point>
  </Placemark>
  <Placemark>
    <name>Corinth Baptist Church</name>
    <styleUrl>#normal</styleUrl>
    <description><![CDATA[6 mi. SE of Jacksonville at intersection of FM 678 and CR 1411<br/><br/><b>Address:</b> Jacksonville<br/><br/><b>Marker Text:</b> Corinth Baptist Church Organized in June 1881 through the efforts of Obediah Meador and his family, this congregation had 12 members when it joined the Cherokee Baptist Association in 1882. Obediah Meador's son, the Rev. John Benjamin Meador, served as first pastor. In 1894, charter members W. A. and Sallie Simpson deeded property on which the congregation built its first sanctuary about 1900. Corinth Baptist Church would later affiliate with the Baptist Missionary, American Baptist and North American Baptist Associations. Membership grew steadily throughout the first half of the 20th century. The congregation continues to worship in the building constructed in 1950 to replace the first sanctuary.  (2002)]]></description>
    <Point><coordinates>-95.1928842316495,31.9226056637572,0</coordinates></Point>
  </Placemark>
  <Placemark>
    <name>Cove Springs United Methodist Church</name>
    <styleUrl>#normal</styleUrl>
    <description><![CDATA[about 4 miles west of Jacksonville off US 175, then .5 mile on CR 3146<br/><br/><b>Address:</b> Jacksonville<br/><br/><b>Marker Text:</b> Begun in December 1856 as the Sand Hill Methodist Episcopal Church, South, this church has been in continuous operation for over 130 years. A parcel of land was purchased at Sand Hill by church trustees, and the congregation continued meeting at that location for several years. In 1879 the church moved to a ten-acre site known as "Camp Ground" about one mile south of this site. A frame sanctuary was soon erected, and a brush arbor was built for worship services during the hot summer months. The one-room church also served as a community school, where children in all grades received instruction from one teacher. In 1911 the church moved to this location. The land was purchased for $25, and another frame sanctuary was built, which served the flourishing congregation until 1955. Construction of a new brick building began in March 1955, with Mrs. John F. Rountree, a charter member of the "Camp Ground", participating in the groundbreaking ceremony. While many rural churches in Texas did not survive hard economic times over the years, this congregation has remained active and continues to be an integral part of the community.]]></description>
    <Point><coordinates>-95.3462358983564,32.0158805089937,0</coordinates></Point>
  </Placemark>
  <Placemark>
    <name>Dialville</name>
    <styleUrl>#normal</styleUrl>
    <description><![CDATA[FM 347 in Dialville, 5 miles south of Jacksonville<br/><br/><b>Address:</b> Dialville<br/><br/><b>Marker Text:</b> In 1866, Confederate John J. Dial (d.1928) joined a group of 60 wagons headed for Texas. He arrived in this area the same year and soon began farming the land. With the 1882 arrival of the Kansas and Gulf Short Line Railroad, Dial opened a general store near the rail line. The following year, Dial and his wife, Ida Mae (Jones), deeded eight acres of land to the railroad for a flag stop station. The town site he platted at the site of the station was named Dialville when the post office was established in 1885. There was little growth in Dialville until 1897, when the flourishing tomato and peach production and shipping business revitalized the area. In that year, John T. Bailey opened a store and reactivated the post office. Dialville's first school was established in 1899. C. D. Jarratt, a leading East Texas fruit and vegetable sales agent, arrived about 1900 and helped develop the town into a leading shipping point for tomatoes and peaches. Dialville was the scene of much commercial activity during the early years of the 20th century, but by the mid 1920s had begun to decline. It remains an important part of the regional and agricultural history of Cherokee County.]]></description>
    <Point><coordinates>-95.2312550280283,31.8584327068702,0</coordinates></Point>
  </Placemark>
  <Placemark>
    <name>Emmaus</name>
    <styleUrl>#normal</styleUrl>
    <description><![CDATA[FM 856 about 4 miles north of New Summerfield on US 79, then 2 miles north on FM 856<br/><br/><b>Address:</b> New Summerfield<br/><br/><b>Marker Text:</b> The small rural community of Emmaus was settled in the 1860s. By the 1870s the Emmaus Baptist Church was organized. School classes were held in the church building until 1881, when Dr. J. M. Brittain donated two acres of land for a public school. At its height, the community consisted of farms, two general stores, two churches, a school, and a cotton gin. One of the few physical reminders of the settlement, the Emmaus Cemetery dates to 1886. The area became known as New Emmaus in 1953 with the construction of the New Emmaus Baptist Church.]]></description>
    <Point><coordinates>-95.0442953838412,32.0239871595111,0</coordinates></Point>
  </Placemark>
  <Placemark>
    <name>Euclid Masonic Lodge No. 45 A.F. &amp; A.M.</name>
    <styleUrl>#normal</styleUrl>
    <description><![CDATA[marker pending<br/><br/><b>Address:</b> 552 N. Main St., Rusk<br/><br/><b>Marker Text:</b> marker pending]]></description>
    <Point><coordinates>-95.150463,31.803253,0</coordinates></Point>
  </Placemark>
  <Placemark>
    <name>First Baptist Church of Rusk</name>
    <styleUrl>#normal</styleUrl>
    <description><![CDATA[<b>Address:</b> 308 N. Barron, Rusk<br/><br/><b>Marker Text:</b> The First Baptist Church of Rusk traces its history to 1853, when a small group of worshippers led by the Rev. John C. Woolam met in the home of Mrs. Nan C. Trimble to organize a congregation. Early worship services were held in a Union Church shared with the local Presbyterian congregation. Located on Barron Street on land donated by Mrs. Joseph L. Hogg, the building housed the Baptist fellowship for almost forty years. In 1890 property was purchased on Fourth Street and two years later, under the leadership of the Rev. J. H. Thorn, a new sanctuary was erected. Also during Thorn's pastorate, this congregation was merged with that of the New Birmingham Baptist Church. The 1892 one-room church structure was moved to this site in 1910. A building fund begun in 1918 enabled the church members to replace the small sanctuary with a three-storey building in the early 1920s. Later building programs enlarged church facilities over the years. Throughout its history, the First Baptist Church has maintained an involvement in local and foreign missionary activities. It continues to be a vital part of the City of Rusk.]]></description>
    <Point><coordinates>-95.1527489458888,31.7936863064588,0</coordinates></Point>
  </Placemark>
  <Placemark>
    <name>First Baptist Church of Rusk</name>
    <styleUrl>#normal</styleUrl>
    <description><![CDATA[<b>Address:</b> 308 N. Barron, Rusk<br/><br/><b>Marker Text:</b> In 2002, First Baptist Church purchased 16 acres at this location, built a new sanctuary and moved in December 2006.]]></description>
    <Point><coordinates>-95.1527489458888,31.7936863064588,0</coordinates></Point>
  </Placemark>
  <Placemark>
    <name>Forest Hill Plantation House</name>
    <styleUrl>#normal</styleUrl>
    <description><![CDATA[FM 241, near Linwood community. Also known as Berryman Family Home.<br/><br/><b>Address:</b> Alto<br/><br/><b>Marker Text:</b> Recorded Texas Historic Landmark - 1962]]></description>
    <Point><coordinates>-95.0231124959418,31.6876246128173,0</coordinates></Point>
  </Placemark>
  <Placemark>
    <name>Friendship Baptist Church and Corine Cemetery</name>
    <styleUrl>#normal</styleUrl>
    <description><![CDATA[7 miles west of Jacksonville via CR 3055 at intersection of CR 3111 and CR 312<br/><br/><b>Address:</b> Jacksonville<br/><br/><b>Marker Text:</b> The church and cemetery nearby have served the rural Corine area for more than a century. Founded in 1872, the church held early worship services in a log building, which also housed the community school. Early baptisms were held in nearby Neches River or in Carey Lake. The church met in three locations through the years. The cemetery, which bears the name of the community, marks its origin with the burial of John Mixon in 1866. Veterans of several wars are buried here. The church and the cemetery continue to serve this part of Cherokee County.]]></description>
    <Point><coordinates>-95.3982469894259,31.9790778652657,0</coordinates></Point>
  </Placemark>
  <Placemark>
    <name>Fry's Gap</name>
    <styleUrl>#normal</styleUrl>
    <description><![CDATA[3 mi. NW at int. of CR 3305 and CR 3306<br/><br/><b>Marker Text:</b> Fry's Gap A gap in a ridge near Gum Creek headwaters made a natural trail for early travelers, including Kickapoo Indians. The Fry family settled along the creek in the 1840s. Early industry in the Fry's Gap Community included Joseph Fry's grist mill and blacksmith shop, as well as Rhome Ragsdale's brickyard, kiln, paint factory, cotton gin and corn mill. When the Texas &amp; New Orleans Railway came through in 1902, it used the old trail for the line. The depot at Fry's Gap soon became a shipping point for produce, lumber and oilfield supplies. Fry's Gap was also winter home to the J. Doug Morgan traveling tent show in the 1920s. Fry's Gap faded, but descendants of its early settlers remain. (2002)]]></description>
    <Point><coordinates>-95.345507,31.979205,0</coordinates></Point>
  </Placemark>
  <Placemark>
    <name>Gent Village</name>
    <styleUrl>#normal</styleUrl>
    <description><![CDATA[FM 2138 about 3 miles north of Maydelle<br/><br/><b>Address:</b> Maydelle<br/><br/><b>Marker Text:</b> Located on top of Gent Mountain between two creeks, the village of Gent was settled in the 1850s primarily by families from Alabama and Tennessee in search of good farmland. The early settlers quickly established religious and educational institutions, and by 1900 the village boasted several stores, mills and cotton gins as well. Construction of the Texas State Railroad from Rusk to Palestine and the founding of the town of Maydelle (1.5 mi. s.) in 1910 pulled business away from Gent. Gradually the village was abandoned, and today not a single structure remains.]]></description>
    <Point><coordinates>-95.3095434127227,31.8328236113449,0</coordinates></Point>
  </Placemark>
  <Placemark>
    <name>George Wahington Slover</name>
    <styleUrl>#normal</styleUrl>
    <description><![CDATA[Rocksprings Cemetery, .5 mile west of Dialville on FM 1910<br/><br/><b>Address:</b> Dialville<br/><br/><b>Marker Text:</b> (March 27, 1816 -- August 22, 1864) Baptist minister and carpenter. Of French descent, he was born in Jefferson County, Tennessee. Said to have built the Atlanta Hotel depicted in "Gone with the Wind", famous novel of the South during the Civil War. Moved to Cherokee County in 1848, where, on April 8, he helped found the Rocky Springs Baptist Church. He also served as pastor. On March 2, 1837, at Danridge, Tennessee, he married Adelia Wood. They had seven children.]]></description>
    <Point><coordinates>-95.2391004475883,31.855230287142,0</coordinates></Point>
  </Placemark>
  <Placemark>
    <name>Grimes Cemetery</name>
    <styleUrl>#normal</styleUrl>
    <description><![CDATA[Approx. 4 mi. N out of Jacksonville center on Elberta St.<br/><br/><b>Address:</b> Jacksonville<br/><br/><b>Marker Text:</b> Grimes Cemetery Benjamin Franklin Grimes came to Cherokee County in 1852 with his parents, Isaac and Sara Wilkinson Grimes. In 1859, Benjamin married Mary Jane Wallace, and to this union were born ten children. For a living, he operated freight wagons. He also served in the Confederate army. On April 20, 1883, Grimes buried his daughter Cassandra Gabriella here on his family's land. Her grave was the first in what became the family cemetery; several of the other Grimes children, as well as Benjamin and Mary Jane, would later be interred here. Still in use, the cemetery has more than 80 graves, including those of 12 veterans. Historic Texas Cemetery - 2002]]></description>
    <Point><coordinates>-95.2724060915542,31.9994493792777,0</coordinates></Point>
  </Placemark>
  <Placemark>
    <name>Hendrick Cemetery</name>
    <styleUrl>#normal</styleUrl>
    <description><![CDATA[about 11 miles sw of Rusk, TX. on FM 23. Turn west on CR 2313  and .1 miles north on the CR 2314<br/><br/><b>Address:</b> Rusk]]></description>
    <Point><coordinates>-95.2186696932296,31.6624092081121,0</coordinates></Point>
  </Placemark>
  <Placemark>
    <name>Henry Cemetery</name>
    <styleUrl>#normal</styleUrl>
    <description><![CDATA[1.7 miles east of Gallatin on FR 22<br/><br/><b>Address:</b> FM 22, Gallatin<br/><br/><b>Marker Text:</b> Woodson Henry and his wife Levissa Hutton Henry were part of a group of thirty-five Muskogee (Creek) indian families who came to Texas between 1832 and 1837 from Chambers County, Alabama. After claiming land in Texas, Henry returned to Alabama in 1840 to recruit additional settlers to join him in Texas. His father, Ezekiel Henry, soon packed up and took his family to the area that would become Cherokee County, Texas. Henry Cemetery was founded in 1852 when Ezekiel Henry chose the site to bury his twenty-four year old daughter, Parolee Henry Clark. The cemetery was expanded in 1853 with the burials of Ezekiel Henry and his son, Joseph Francis Henry. At least sixty-eight known descendants of the Henry family are buried in the cemetery. In 1854, neighbor Greenberry Jinkins brought his wife, Elizabeth Medford Jinkins, to be buried in the cemetery. Elizabeth’s is the oldest marked grave in the cemetery. A section of African American burials is located in the northeast corner of the cemetery. One prominent marker is that of Peter Johnson, a former slave of the Jinkins family. Johnson had been given Jinkins family property upon his emancipation. The grave of Aaron Quarll indicates that he was a veteran of World War I. The area around the cemetery was rural until 1902, when the Texas and New Orleans railroad came through, and the town of Gallatin was established. The cemetery has changed hands several times since its founding by Ezekiel Henry, but a mention of the two-acre cemetery was not made in deed records until 1943. The Henry Cemetery Association was founded in 1986, and purchased two additional acres for the cemetery in 1987. Historic texas cemetery – 2008]]></description>
    <Point><coordinates>-95.117283,31.887391,0</coordinates></Point>
  </Placemark>
  <Placemark>
    <name>Henry's Chapel Community</name>
    <styleUrl>#normal</styleUrl>
    <description><![CDATA[on FM 13, 6 miles southeast of Troup<br/><br/><b>Address:</b> Troup<br/><br/><b>Marker Text:</b> In 1848, Presbyterian minister William Porter Henry (1820-1875) moved from Alabama to northeastern Cherokee County, where he preached throughout his life. In 1854, Tennessean investors bought land near his home and platted the town of Knoxville, which thrived until 1872 when the International and Great Northern Railway bypassed it for Troup. Many Knoxville residents relocated to Troup, but some farmers in Knoxville's outlying areas chose to stay in the vicinity. Though business and commercial needs began making travel to Troup necessary, remaining residents were able to maintain a community life with the assistance of the Rev. Henry, who in 1874 donated five acres of land for the establishment of a school, church and cemetery to serve their needs. The loosely-knit community became known as Henry's Chapel in honor of its benefactor. A school, known as the Sharp Top School because of its unusually steeply pitched roof, functioned until the 1930s, and a Presbyterian church was also active here for many years. Statewide trends such as school consolidations and the development of a state highway system impeded the community's growth. The historic cemetery serves as the only physical reminder of the original community.]]></description>
    <Point><coordinates>-95.0439341943235,32.109206045632,0</coordinates></Point>
  </Placemark>
  <Placemark>
    <name>Henry's Chapel United Methodist Church</name>
    <styleUrl>#normal</styleUrl>
    <description><![CDATA[4539 FM 13 E, Troup<br/><br/><b>Address:</b> 4539 FM 13 East, Troup<br/><br/><b>Marker Text:</b> HENRY’S CHAPEL UNITED METHODIST CHURCH THE COMMUNITY OF HENRY’S CHAPEL WAS ESTABLISHED SIX MILES FROM TROUP AND NAMED FOR CUMBERLAND PRESBYTERIAN MINISTER WILLIAM HENRY. BEFORE 1914 MANY METHODISTS WORSHIPED AT BETHEL LOCATED TWO MILES NORTH OF HENRY’S CHAPEL. R.E. BARRON DONATED LAND TO THE PRESBYTERIAN CHURCH WHICH, IN TURN, WAS DONATED TO THE METHODIST CHURCH TO ESTABLISH HENRY’S CHAPEL METHODIST EPISCOPAL CHURCH SOUTH. IN 1968, THE DENOMINATION CHANGED THE CHURCH NAME TO UNITED METHODIST. CIRCUIT RIDER PREACHER JOE WELLS BECAME THE FIRST MINISTER AND SERVED OTHER CHURCHES IN THE MARSHALL DISTRICT. IN THE EARLY DAYS, THE CHURCH HOSTED SUMMER REVIVALS WHERE PRAYER MEETINGS AND SERVICES WERE CONDUCTED UNDER A BRUSH ARBOR. CHURCH MEMBERSHIP GREW DURING THE OIL BOOM OF THE 1930s AND, AS A RESULT, HENRY’S CHURCH BUILT A PARSONAGE AND HIRED REVEREND J.L. MCADAMS AS THE FIRST PERMANENT MINISTER. THE YOUTH WERE ORGANIZED IN 1932 UNDER THE NAME EPWORTH LEAGUE AND, IN 1939, CHANGED THE NAME TO METHODIST YOUTH FELLOWSHIP TO REFLECT THE MERGER OF THREE DIFFERENT FACTIONS OF METHODISTS. WOMEN ORGANIZED IN 1935 UNDER THE NAME WOMAN’S MISSIONARY SOCIETY. IN ADDITION TO GIVING SPIRITUAL GUIDANCE, THE WOMEN’S GROUP SUPPORTED MISSIONS AND RAISED FUNDS TO FINANCE THE BUILDING OF A KITCHEN, FELLOWSHIP ROOM, AND OTHER CHURCH IMPROVEMENTS. THROUGH MANY ECONOMIC AND SOCIAL CHANGES, THE CHURCH CONTINUES TO MEET THE NEEDS OF THE COMMUNITY AS A PLACE OF WORSHIP AND SPIRITUAL GROWTH AS WELL AS SOCIAL AND CIVIC EVENTS. (2012)]]></description>
    <Point><coordinates>-95.045254,32.110115,0</coordinates></Point>
  </Placemark>
  <Placemark>
    <name>Holcomb Family Reunion</name>
    <styleUrl>#normal</styleUrl>
    <description><![CDATA[<b>Address:</b> 1109 FM 220 South, Alto<br/><br/><b>Marker Text:</b> Members of the Holcomb family have been holding reunions in this location since 1897. George Creagor Holcomb moved to Texas from Arkansas in 1842 and later brought his father Joseph and uncle Zachariah Holcomb and their families to Texas. The Holcomb family acquired land in Cherokee County and soon became active in local churches and communities. A family reunion was organized in 1897 to honor Joseph and Zachariah Holcomb and to allow kin to renew acquaintances with long absent family members. Held at Cold Springs near Alto, the first reunion was attended by about 200 Holcombs. They arrived by horse and buggy and camped out in tents at the site. The reunion continued year after year and drew more family members from near and far. In the 1950s family members contributed to the construction of a pavilion and changed the Tuesday through Thursday meeting to a Saturday and Sunday schedule. Held the second week in July, the Holcomb family reunion has met for six generations and more than 100 years to share food and entertainment along with the events and accomplishments of its members. (1997)]]></description>
    <Point><coordinates>-95.1089825031176,31.6087439545474,0</coordinates></Point>
  </Placemark>
  <Placemark>
    <name>Isaac Lee</name>
    <styleUrl>#normal</styleUrl>
    <description><![CDATA[Shiloh Cemetery, FM 752 about 3 miles northwest of Alto<br/><br/><b>Address:</b> Alto<br/><br/><b>Marker Text:</b> (February 8, 1788 -- October 4, 1880) A native of Georgia, Isaac Lee lived in Mississippi and Arkansas before coming to Texas in 1828. He settled first at present San Augustine and later near Nacogdoches. He was a participant in the Battle of Nacogdoches in 1832 and served in the Republic of Texas Army. He and his wife, Mary, were the parents of four children. Lee moved to a farm near Alto to live with his daughter, Mary Ann Anderson, in 1870 and died there ten years later.]]></description>
    <Point><coordinates>-95.1146577677599,31.6649017540067,0</coordinates></Point>
  </Placemark>
  <Placemark>
    <name>Jarratt Cemetery</name>
    <styleUrl>#normal</styleUrl>
    <description><![CDATA[about 4.5 miles southeast of Jacksonville on FM 22 then south on cemetery road<br/><br/><b>Address:</b> Jacksonville<br/><br/><b>Marker Text:</b> In 1850 Devereux and Polly Ann Jarratt of Virginia settled in this area. In 1858 their sons Henry Morris Jarratt and Wade Jarratt set aside the original cemetery plot for family and public burial. The first burial was a transient worker, Mr. Watts, in 1858. Additional land was acquired later from contributions of many. An association was formed in 1961 and a permanent foundation fund incorporated in 1963. Original members of both boards: Dave Cole, Troy D. Haws, Gordon Sharp, J. J. Cole, Bruce Bounds, Dave Josey, John Ousley, Fred Thompson, A. C. Jenkins, Buck Fling, Earl Morton, and M. D. Arrington. Descendants, friends, neighbors and the public have joined to make this a hallowed resting place for loved ones.]]></description>
    <Point><coordinates>-95.212806929353,31.9120066497701,0</coordinates></Point>
  </Placemark>
  <Placemark>
    <name>Knoxville</name>
    <styleUrl>#normal</styleUrl>
    <description><![CDATA[about 7 miles north of New Summerfield off SH 10 down CR 4706<br/><br/><b>Address:</b> New Summerfield<br/><br/><b>Marker Text:</b> In 1854 Thomas Norman (1812-1859), a native of Tennessee, sold 2/3 interest in a 30-acre tract to William A. Pope and Archibald Carmichael. They sold town lots for Knoxville and in 1856, they gave 3/4 acre for a community church. Soon mercantile stores, a mill, distillery, blacksmith shop and a new school opened. Knoxville never had a saloon although all the stores sold whiskey. In 1872 the International Railroad Company opened the Palestine-Troup line. Businesses moved to Troup and Knoxville declined. The Knoxville cemetery is all that remains.]]></description>
    <Point><coordinates>-95.0859603608522,32.0970322000786,0</coordinates></Point>
  </Placemark>
  <Placemark>
    <name>Lone Star</name>
    <styleUrl>#normal</styleUrl>
    <description><![CDATA[4 miles southwest of New Summerfield on FM 235. MARKER REPORTED DAMAGED AND UNDER REPAIR NOV. 2011.<br/><br/><b>Address:</b> New Summerfield<br/><br/><b>Marker Text:</b> The ante bellum community of Lone Star, a center of trade, education and culture in the 1880s, experienced its greatest growth after the Civil War. Known first as "Skin Tight," it was named Lone Star when a post office opened in 1883. The town once had several businesses, a public school, four churches, two lodges and the Lone Star Institute. The town began to decline after a disastrous fire in 1893. Decline continued when the T &amp; N O Railroad bypassed Lone Star. Hope for the community's revival died when two oil field discoveries did not prove to be profitable.]]></description>
    <Point><coordinates>-95.0388648478267,31.9499142236727,0</coordinates></Point>
  </Placemark>
  <Placemark>
    <name>Lowe's Chapel Cemetery</name>
    <styleUrl>#normal</styleUrl>
    <description><![CDATA[<b>Address:</b> 1908 CR 1309, Rusk<br/><br/><b>Marker Text:</b> New settlers arriving primarily from the southern states arrived in this section of Cherokee County by the late 1840s, and Lowe’s Chapel Cemetery was begun soon after. Local tradition holds that as a wagon train passed through in the early 1850s, a child died and was buried here in a grave marked by a pile of rocks. The oldest legible gravestones record burials from the 1860s. James Lowe was overseer of the road leading to Lowe’s Chapel from Rusk to Henderson. The historic road led from Johnson’s Mill past Lowe’s Chapel and Lowe’s Farm on to Stafford’s Ferry on Mud Creek. E. H. Lowe deeded land for the cemetery to the Methodist Episcopal Church, south, who had a church adjacent to the burial ground. The deed for five acres was recorded in 1882, with the land conveyed to trustees J. O. Cawthon, J. H. Wilson and W. L. Manning. Area families buried here include Andress, Bagley, Baxter, Blankinship, Brown, Cannon, Cawthon, Christopher, Copeland, Davis, Gifford, Grammer, Hall, Irwin, Jones, Manion, Mcdonald, Richey, Riggs, Roberts, Sanders, Parsons, Sherrard, Stafford, Summers, Thompson, Tosh, Waldrup, Watson, Wilkins and Wortham. A number of veterans are buried here, from the Civil War, World War I, World War II, Korea and Vietnam. There are also several woodmen of the world and masonic gravestones. In the older part of the cemetery, there are illegible sandstone markers and two plots enclosed by wrought iron fences. The Lowe’s Chapel Cemetery Association dates back to the early 1900s. An annual homecoming has been held here for more than 80 years, ensuring that this historic community burial ground remains a significant and treasured place of heritage and memory. HISTORIC TEXAS CEMETERY – 2016]]></description>
    <Point><coordinates>-95.0943781755388,31.8466297559114,0</coordinates></Point>
  </Placemark>
  <Placemark>
    <name>McDonald Cemetery</name>
    <styleUrl>#normal</styleUrl>
    <description><![CDATA[SH 110, 1 mi. south New Summerfield<br/><br/><b>Address:</b> New Summerfield<br/><br/><b>Marker Text:</b> Located on the original homestead of William and Clarissa Johnson and their family, this community cemetery began in the 1850s. Although there may have been earlier interments (possibly including William Johnson) the earliest documented burials, those of two young daughters of Dr. and Mrs. J. C. Privett, took place in 1856. Dr. Privett died in 1857 and was buried next to his daughters. After Clarissa Johnson married Thomas McDonald in 1858, her homestead became known as the McDonald Farm. By 1870 the small graveyard on Clarissa's farm had become a community burial ground known as McDonald Cemetery, although it was not formally designated as such in deed records until 1930. Among those buried in the McDonald Cemetery are members of the Johnson and McDonald families. There are over 550 documented burials, as well as a number of unmarked graves. The original one-acre plot of land set aside for the graveyard was enlarged in later years by additional land acquisitions. For well over a century, the McDonald Cemetery has served as a reminder of Cherokee County's pioneer heritage. It remains one of the area's important cultural resources.]]></description>
    <Point><coordinates>-95.0939518140537,31.9714215428997,0</coordinates></Point>
  </Placemark>
  <Placemark>
    <name>Mixon Cemetery</name>
    <styleUrl>#normal</styleUrl>
    <description><![CDATA[at the intersections of Highway 135,  FM 177 and FM 3052<br/><br/><b>Address:</b> Jacksonville<br/><br/><b>Marker Text:</b> MIXON CEMETERY SETTLERS FROM TENNESSEE, ALABAMA, GEORGIA AND THE CAROLINAS, INCLUDING THE BLANTON, BRALY, DICKEY, LANGSTON, LONG, MUSICK, SHAW, STOCKTON AND THOMAS FAMILIES, ESTABLISHED PINE SPRINGS COMMUNITY (LATER MIXON) IN THE 1850s. IN 1853, JOSIAH THOMAS DEDICATED 9.7 ACRES OF LAND ON THE WESTERN SIDE OF HIS TWO-THIRDS LEAGUE OF A HEADRIGHT FOR CHURCHES AND RELIGIOUS PURPOSES. AFTER THE LAND CHANGED HANDS SEVERAL TIMES, A MAY 22, 1883 DEED CONVEYED THE TRACT FROM S. A. AND F. M. BRALY TO THREE TRUSTEES, S. K. BRALY, MOSES LANGSTON, AND L. T. WILLINGHAM, REPRESENTING THE LOCAL CHURCHES – METHODIST EPISCOPAL SOUTH, CUMBERLAND PRESBYTERIAN AND MISSIONARY BAPTIST. THE OLDEST MARKED GRAVE IN MIXON CEMETERY IS FOR OCTAVIO BRALY (APR. 11, 1853 – JUN. 12, 1854). MANY OF THE OLDEST BURIAL SITES ARE MARKED WITH LOCAL RED IRON ORE ROCK. TRADITION STATES THERE ALSO MAY BE UNMARKED GRAVES FOR MEMBERS OF LOCAL INDIAN TRIBES. MORE THAN 125 VETERANS HAVE MARKED GRAVES, INCLUDING SOLDIERS FROM THE WAR OF 1812 TO PRESENT. MANY OF THE 22 CONFEDERATE SOLDIERS BURIED HERE SERVED IN COMPANY G, 22ND REGIMENT OF THE TEXAS INFANTRY. GRAVESTONE MATERIALS INCLUDE LIMESTONE AND GRANITE. MANY LARGE OBELISKS AND WOODMEN OF THE WORLD MARKERS ARE PROMINENT. IN THE 1940s, BRICK COLUMNS AND A METAL ARCHWAY WERE PLACED ALONG THE PERIMETER. THE LANDSCAPE WAS SCRAPED EARTH UNTIL THE 1950s, AND HAS BEEN MOWED GRASS SINCE THAT TIME. THE MIXON CEMETERY ASSOCIATION BOARD ENSURES THAT THE TRADITIONS OF THE FOUNDERS CONTINUE WHILE ACTIVE BURIALS OCCUR. A MEMORIAL SERVICE AND DINNER ARE HELD YEARLY. MIXON CEMETERY CONTINUES TO BE USED AND REMAINS A TESTAMENT TO THE PIONEERING MEN AND WOMEN OF THE COMMUNITY.]]></description>
    <Point><coordinates>-95.2100347932165,32.0898508424558,0</coordinates></Point>
  </Placemark>
  <Placemark>
    <name>Morrill Orchard Company</name>
    <styleUrl>#normal</styleUrl>
    <description><![CDATA[3.7 mi. S of Alto on FM 1911<br/><br/><b>Address:</b> Alto<br/><br/><b>Marker Text:</b> Morrill Orchard Company Peach farmer Roland Morrill (1852-1923) came to Texas from his native Michigan with W. W. McFarland in 1901 to start a large-scale peach farm. They purchased acreage in this area near a rail line and began the Morrill Orchard Company. A community known as Morrill grew up around the orchard operation and included a school, commissary, post office and worker housing. The panic of 1907, followed by a blight in 1914, killed the peach orchards, but the company continued in operation with other produce until the economic collapse of 1929 signaled its demise. At the turn of the 21st century, the superintendent's house stood as the only visible reminder of this part of the county's agricultural history. (2002)]]></description>
    <Point><coordinates>-95.0645129712435,31.5904685685988,0</coordinates></Point>
  </Placemark>
  <Placemark>
    <name>Mount Zion United Methodist Church and Cemetery</name>
    <styleUrl>#normal</styleUrl>
    <description><![CDATA[4 miles northeast of Alto on FM 241<br/><br/><b>Address:</b> Alto<br/><br/><b>Marker Text:</b> Although few written records of this church exist before 1871, it is thought that the congregation was organized just prior to the outbreak of the Civil War. In 1871 the fellowship built a sanctuary at this site during the pastorate of the Rev. Jehu John Allen. The Mount Zion Church has produced several Methodist ministers from its membership. Part of the land deeded to the church by William Collier in 1871, by Wiley P. Cole in 1872, and by H. N. Lusk in 1882 has served the area as a public cemetery. The earliest marked grave, that of Hester Cole, is dated 1874.]]></description>
    <Point><coordinates>-95.0826865344247,31.7146496916132,0</coordinates></Point>
  </Placemark>
  <Placemark>
    <name>Murphy Home</name>
    <styleUrl>#normal</styleUrl>
    <description><![CDATA[5 miles east of Alto on SH 21, then 3 miles south of Linwood<br/><br/><b>Address:</b> Alto<br/><br/><b>Marker Text:</b> No text.]]></description>
    <Point><coordinates>-94.9735850614323,31.6270972664013,0</coordinates></Point>
  </Placemark>
  <Placemark>
    <name>Myrtle Springs Cemetery</name>
    <styleUrl>#normal</styleUrl>
    <description><![CDATA[3 miles south of New Summerfield on rural road between FM 235 and FM 2274<br/><br/><b>Address:</b> New Summerfield<br/><br/><b>Marker Text:</b> Begun during the 1860s, this cemetery served as a burial ground for citizens of the town of Lone Star as well as other scattered settlements in the area. Many homesteads were located nearby, and a union church was attended by many families until the 1920s. The cemetery is located on land deeded to the Myrtle Springs Church by area pioneer Thomas Garrison. Though several hand-cut sandstone markers are illegible or contain only initials, the earlier marked grave is that of Martha C. Wallace, born in 1852, and buried here in 1866. At least fifteen veterans of the Civil War are interred here, and more are believed to rest in unmarked graves. In October 1950, an additional tract for land was added to the original cemetery plot. In 1963 a group of area citizens formed a cemetery association for the care of the burial ground. The state of Texas granted a perpetual care charter ot the association in 1967. Although the settlement of Lone Star became a ghost town, the cemetery has served a widespread rural community, including the town of Ponta and area farms and homesteads. Texas Sesquicentennial 1836 - 1986]]></description>
    <Point><coordinates>-95.0612798562206,31.9362129460349,0</coordinates></Point>
  </Placemark>
  <Placemark>
    <name>New Summerfield Public School</name>
    <styleUrl>#normal</styleUrl>
    <description><![CDATA[New Summerfeld Public Schools campus<br/><br/><b>Address:</b> New Summerfield<br/><br/><b>Marker Text:</b> Public education in the Union Chapel community, which developed here at the junction of the old Tyler-Rusk and Jacksonville- Henderson roads, began in the 1850s. Early classes were held in the Union Chapel Church, an ecumenical worship facility and community center. A one-room schoolhouse was built in 1895, and after an U.S. post office was established in 1897 under the name Summerfield, the school name changed from Union Chapel School to Summerfield School. The post office closed in 1905. As new facilities were built, surrounding schools began to consolidate with the Summerfield School. A two-room structure built in 1906 was destroyed in a 1920 windstorm. It was replaced that year by a new brick building, the first brick structure in Summerfield. By 1929 the Summerfield Independent School District was formed. A new post office for the community was established in 1938. Because another Texas town was named Summerfield, this became New Summerfield. Throughout its history, the New Summerfield School has been the center of scholastic and social activities. It continues to serve as the focal point of the community.]]></description>
    <Point><coordinates>-95.0949664310327,31.98113021505,0</coordinates></Point>
  </Placemark>
  <Placemark>
    <name>Old Rusk Tramway</name>
    <styleUrl>#normal</styleUrl>
    <description><![CDATA[FM 347 4.5 miles south of Jacksonville<br/><br/><b>Address:</b> Jacksonville<br/><br/><b>Marker Text:</b> Equipped with pine rails that warped out of shape and running at a speed often exceeded by mule wagons, the Rusk tram began operations in 1875. Bypassed two years earlier by another railroad, citizens rejoiced over the tram. Rolling stock included a used streetcar, three flatcars and a steam engine called the "Cherokee". Passengers often had to help replace the train on its tracks before it reached the end of its 16-mile line at Jacksonville. In 1879 the tram was sold. It had fostered growth by helping attract industry to the area.]]></description>
    <Point><coordinates>-95.2528928295188,31.9127788309495,0</coordinates></Point>
  </Placemark>
  <Placemark>
    <name>Pleasant Grove Missionary Baptist Church</name>
    <styleUrl>#normal</styleUrl>
    <description><![CDATA[1 mile north of  Maydelle on US 84<br/><br/><b>Address:</b> Maydelle<br/><br/><b>Marker Text:</b> This congregation was organized in 1854 and represents one of Cherokee County's oldest Baptist churches. The Rev. G. W. Slover served as first pastor. The first church building, erected here on land donated by Green B. Hill, was replaced with a frame sanctuary after the Civil War. Sunday School and other church facilities have been added over the years. Several early church members and their descendants are buried in the nearby Pleasant Grove Cemetery. The church, whose past membership has included several area civic leaders, continues to provide spiritual guidance for the area.]]></description>
    <Point><coordinates>-95.3236392558037,31.8030529759108,0</coordinates></Point>
  </Placemark>
  <Placemark>
    <name>Primitive Baptist Church of Wells</name>
    <styleUrl>#normal</styleUrl>
    <description><![CDATA[FM 1247 in Wells<br/><br/><b>Address:</b> Wells<br/><br/><b>Marker Text:</b> Alabama native Francis Marion Sessions is credited with the organization of the Primitive Baptist Church of Wells. Prior to his 1890 arrival in the town, Primitive Baptists traveled to Angelina County to worship in the Old Sand Hill Primitive Baptist Church. Although a formal organization date for the Wells church is unrecorded, Sessions and others began meeting in their homes and in the public schoolhouse and in 1918 purchased this school building and property for use as a permanent place of worship. Early leaders in the church included members of the Childers, Wilson and McAdams families. Often in attendance at the monthly services were residents of Angelina, Nacogdoches and Trinity counties. Hymns were sung in special arrangements without the accompaniment of musical instruments, a tradition in rural America known as sacred harp singing. The Old School Primitive Baptist Church, as it came to be known, often served as a gathering place for area harp singers. Sessions' death in 1930 was followed by that of other older members of the church, and the congregation eventually ceased to meet. Although the Primitive Baptist Church no longer exists in Wells, the church building still stands as a reminder of its history.]]></description>
    <Point><coordinates>-94.9427119108412,31.487777358245,0</coordinates></Point>
  </Placemark>
  <Placemark>
    <name>Robert Graves Stadler</name>
    <styleUrl>#normal</styleUrl>
    <description><![CDATA[Fitch Cemetery, Blackjack Cmmunity,  12 miles northeast of Jacksonville east of FM 2750 and SH 110 intersection<br/><br/><b>Address:</b> New Summerfield<br/><br/><b>Marker Text:</b> Born in Granville County, North Carolina, Robert Graves Stadler was a veteran of the War of 1812 and the Texas War of Independence. He purchased land in this area in 1845 and settled near the already established community of Griffin (2 mi, SE). By 1853, Stadler had encouraged relatives from North Caroline to make their homes here. He died just as the Civil War began, having laid the foundation for what became the farming community of Blackjack.]]></description>
    <Point><coordinates>-95.0966359416222,32.0437482594053,0</coordinates></Point>
  </Placemark>
  <Placemark>
    <name>Rocky Springs Missionary Baptist Church</name>
    <styleUrl>#normal</styleUrl>
    <description><![CDATA[.5 mile west of Dialville on FM 1910<br/><br/><b>Address:</b> Dialville<br/><br/><b>Marker Text:</b> Organized April 8, 1848, by a group of settlers from this area, in the home of Thomas J. Lindsey, under Elder Walter Ross. The known charter members included Minerva Crenshaw, Frances Halbert, John Halbert, Sally Margaret Halbert, Stephen Halbert, John Harris (an ordained deacon), Lucy Johnston, Thomas Johnston, Bathsheba Lindsey, Elizabeth Lindsey, J. J. Lindsey, Thomas J. Lindsey, Isaac Sheppard, Seary Sheppard, and Wylie Thomason. True pioneers, these people had immigrated to the area just three years earlier, when Texas was admitted to the Union. The Rev. George Washington Slover, said to have built the Atlanta Hotel depicted in the Civil War novel "Gone with the Wind", was the first pastor. Soon after the organizational meeting, a log cabin was erected on the present site to serve as a place of worship. The bubbling springs here and at the Lindsey home probably inspired the church name. The cemetery originated in the early days of the church; the oldest legible headstone is dated 1849. The original log church building was replaced in a few years by the present structure and in 1950, Sunday School rooms were added to it.]]></description>
    <Point><coordinates>-95.2400203575477,31.8554588093334,0</coordinates></Point>
  </Placemark>
  <Placemark>
    <name>Rusk Penitentiary Building</name>
    <styleUrl>#normal</styleUrl>
    <description><![CDATA[Rusk State Hospital, Ave. A, W side between Austin and Baker streets on restricted access property. Marker reported in storage Feb. 2020 pending new construction. Map dot approximate.<br/><br/><b>Address:</b> 805 N. Dickinson Dr., Rusk<br/><br/><b>Marker Text:</b> The abundance of iron ore for use in manufacturing prompted a commission appointed by Gov. Richard Coke in 1875 to select this region for a state penitentiary. In 1877 this 19,000-acre tract was purchased form T. Y. T. Jamison and his wife. Contractors Kanmacher and Denig of Columbus, Ohio, built this structure the following year. The walls are of two-and-a-half foot thick sandstone. The administrative offices, a hospital, chapel, dining area, and cells were housed here. The prisoners helped construct the Texas State Railroad from Rusk to Palestine. They built the "Old Alcalde" iron ore smelting furnace adjacent to this structure. The furnace produced iron products for construction throughout the United States and for use in the erection of many state buildings. Convict labor was used in the area at contract prices. In 1917 the Texas Legislature changed the facility to a state hospital for the mentally ill. The building was renovated and ready for occupancy by 1919 and operated under the name of Rusk State Hospital. The Department of Mental Health and Mental Retardation was designated as the governing body in 1963. This structure became the administrative center for the hospital. (1979)]]></description>
    <Point><coordinates>-95.1568935951969,31.8083732024736,0</coordinates></Point>
  </Placemark>
  <Placemark>
    <name>Samuel Smith Homesite</name>
    <styleUrl>#normal</styleUrl>
    <description><![CDATA[SH 110, Blackjack Community, 4 miles north of New Summerfield<br/><br/><b>Address:</b> New Summerfield<br/><br/><b>Marker Text:</b> Samuel Smith (1800-1873), a native of Switzerland, came to Knox County, Tennessee, at the age of 19. In 1823, he married Oney Karnes and received his United States citizenship four years later. In 1849, the Smiths joined a group of immigrants from North Carolina and Tennessee who journeyed to Texas and founded the town of Knoxville in northeast Cherokee County. Samuel and Oney Smith brought six of their seven children with them to Texas. They purchased land three miles southwest of Knoxville in the Blackjack community. Smith built a farmhouse at this site in 1859, and the homestead remained in the family until 1874. As the patriarch of a family that made significant contributions to the rural Blackjack community, Samuel Smith is an important figure in the context of northeastern Cherokee County history. Members of the Smith family deeded land for the church and cemetery, operated the first blacksmith shop in the settlement, and were associated with the International and Great Northern Railroad when it came through the area in 1872.]]></description>
    <Point><coordinates>-95.1064814426014,32.0422727901007,0</coordinates></Point>
  </Placemark>
  <Placemark>
    <name>Sardis Baptist Church</name>
    <styleUrl>#normal</styleUrl>
    <description><![CDATA[Sardis Baptist Church. From Rusk, 9.5 mi. SW on FM 1857, 0.6 mi. N of CR 2218.<br/><br/><b>Address:</b> 7868 FM 1857, Rusk<br/><br/><b>Marker Text:</b> Members of the Baptist Church of Christ at Salem and other area churches in the Edgefield District of South Carolina traveled together to Texas in 1846-48 and settled in what became the Sardis community of Cherokee County. Early settlers included members of the Berry, Martin, Coleman, Nickolson and Jennings families. In 1854, they officially organized the Sardis Baptist Church with J. W. Carter as the first ordained minister and petitioned for membership in the Judson Baptist Association. Throughout its history, the church has been the focus of this small rural community. Members were added through baptism, often after revival meetings. Early baptisms took place in the Neches River or in Box's Creek. Not much is known about the congregation's first church building, but the second structure was a two-story building that was also used as a community school. The Woodmen of the World fraternal organization occupied the upper floor. A third building was used solely for church activities. After the Sardis school consolidated with the Rusk schools in 1948, the school district traded property and buildings with the church, and the congregation began worshipping in the former Sardis schoolhouse. When the population of this rural area declined, so, too, did church membership. A reflection of the community's heritage, Sardis Baptist Church is an important reminder of Texas' rural past. (2002)]]></description>
    <Point><coordinates>-95.252497649818,31.7065983084693,0</coordinates></Point>
  </Placemark>
  <Placemark>
    <name>Sardis-Edgefield Cemetery</name>
    <styleUrl>#normal</styleUrl>
    <description><![CDATA[Sardis-Edgefield Cemetery, CR 2218, 0.1 mi. W of FM 1857<br/><br/><b>Address:</b> CR 2218, Rusk<br/><br/><b>Marker Text:</b> Several families came to this area from Edgefield District, South Carolina, where they were members of the Church of Christ in Salem. Among these settlers were the Berry, Martin, Coleman, Nickolson and Jennings families. They established the Edgefield community in 1848 and the Sardis Baptist Church in 1854. The landscape in this vicinity reminded them of their home, and most of those buried here are early settlers and their descendants. The earliest burials on this site may have taken place during the measles epidemic of 1857. The first marked burial was that of Rebecca Bolton Neal (1791-1873). The cemetery was known as Meazle Cemetery for a time because William Meazle purchased the property in 1866. His heirs, Elizabeth Meazle and George Masters, sold the land in 1899 but made provision for the graveyard in the deed. Other graves of interest include that of Peter Berry (1818-1898). Berry, a great-grandson of one of the signers of the U. S. Declaration of Independence, was a veteran of the Seminole Indian War in the Florida Territory and was a member of the Texas State Troops during the Civil War. There are at least two other Confederate veterans and several veterans of later wars interred here. The Sardis-Edgefield Cemetery Association was chartered in 1982. By 1999 there were more than 323 marked graves in the cemetery. There are a number of unmarked graves, believed to be those of early settlers and slaves. The Sardis-Edgefield Cemetery continues to serve the people of Cherokee County and remains a chronicle of its early settlement. (1999)]]></description>
    <Point><coordinates>-95.2531925808787,31.6983092586511,0</coordinates></Point>
  </Placemark>
  <Placemark>
    <name>Shiloh Methodist Church and Cemetery</name>
    <styleUrl>#normal</styleUrl>
    <description><![CDATA[FM 752, 3 miles northwest of Alto<br/><br/><b>Address:</b> Alto<br/><br/><b>Marker Text:</b> The burial of a child, James W. Rozelle, was allowed on this wooded rise in 1850 by land owners Edwin and Martha Harry. In 1854 the Harrys allotted one acre at this site for a Methodist church, called Shiloh after the popular biblical place name. The original trustees were David Byrd, Edwin Harry, Daniel Henderson, Jesse Hill, and Thomas Singletary, all buried here. The congregation first met in a log building until a frame structure was erected in 1870. In 1912 church members built the present sanctuary on the first site. The church was active until 1954.]]></description>
    <Point><coordinates>-95.1149830881747,31.6648590647478,0</coordinates></Point>
  </Placemark>
  <Placemark>
    <name>Site of Ferguson-Ford Mill</name>
    <styleUrl>#normal</styleUrl>
    <description><![CDATA[FM 1248 at CR 2103, 4 mi. W of Rusk<br/><br/><b>Address:</b> Rusk<br/><br/><b>Marker Text:</b> In November 1847, James Ferguson, a land speculator, bought 1,600 acres including this site and built a mill. He successfully operated it for several years, employing five workers by 1852. He lost the property in a legal judgement, and it changed ownership several times in the next seventeen years. Charles E. Ford, a New England Quaker, brought his family to Cherokee County in 1869 and purchased the mill with 335 acres of creek bottom land for $442.50. An entrepreneur and inventor, Ford modernized the mill and reopened it in 1872 to grind corn, saw lumber and repair machinery. The mill's value by 1880 was $1,250. "Miller" Ford's fortune expanded to include 14 cotton gins and grist mills in the county. His son continued the mill's operation until 1917. All that remains is the mill pond and vestiges of the mill race. (1999)]]></description>
    <Point><coordinates>-95.2264398402348,31.7824540838053,0</coordinates></Point>
  </Placemark>
  <Placemark>
    <name>Site of Griffin</name>
    <styleUrl>#normal</styleUrl>
    <description><![CDATA[about 4 miles north of Summerfield on SH 110<br/><br/><b>Address:</b> New Summerfield<br/><br/><b>Marker Text:</b> Founded by settlers who came from Griffin, Georgia. In the early 1850s became a flourishing town. Birthplace of John Benjamin Kendrick (1857-1933), Texas cowboy who settled in Wyoming in 1879 after going up the trail for years with herds of cattle. He served in Wyoming State Senate, 1910-1914, Governor, 1914-1916, then as U.S. Senator, 1916-1933. Town of Griffin gradually lost people and businesses to railroad towns after 1872. Last store here was closed 1930.]]></description>
    <Point><coordinates>-95.0760960731097,32.0377083510157,0</coordinates></Point>
  </Placemark>
  <Placemark>
    <name>Taylor and Lucy Dirden Farm</name>
    <styleUrl>#normal</styleUrl>
    <description><![CDATA[914 S. Pineda St<br/><br/><b>Address:</b> 914 S. Pineda St, Jacksonville<br/><br/><b>Marker Text:</b> Taylor Dirden (1848-1910) was born into slavery in Pike County, Alabama. After Emancipation, he moved to Texas, settling in Jacksonville to engage in sharecropping on Joseph Turney’s farm. He met Jacksonville native Lucy Grimes (1856-1935) and the two married on August 21, 1875. Recognizing the importance of land ownership, the couple purchased from Turney the 22.8 parcel of land they had sharecropped, including a small home on the parcel, on May 7, 1880. In the years that followed, Taylor and Lucy welcomed five children: Will (1882-1954); George Elijah (1888-1971), US Army, World War I; Mary Netta (1892-1929), who passed away from disease leaving four children; John Bill (1894-1919), US Army World War I; and Beulah (1896-1978). 
  On their farm, the family grew fruits and vegetables such as tomatoes, peas, corn, okra, peaches and watermelon and raised animals for sale at local markets. They also sold timber from their property. The profits from these ventures eventually allowed the Dirdens to purchase additional property in the area. The Dirdens were active in the community and members of Old Sweet Union Baptist Church, one of the oldest Baptist congregations in Jacksonville. After the deaths of Taylor and Lucy, Will and Beulah lived on the Dirden family farm for the rest of their lives, during which time the farm did not have 20th century amenities such as running water, electricity or phone access.
  Purchased as a means of self-determination and escape from the sharecropping lifestyle, the Dirden family farm, which is still owned by Dirden descendants, is a testimony to the diligence and resilience of Taylor and Lucy and their family for over one hundred years. (2023)]]></description>
    <Point><coordinates>-95.287676,31.950832,0</coordinates></Point>
  </Placemark>
  <Placemark>
    <name>Tecula Cemetery</name>
    <styleUrl>#normal</styleUrl>
    <description><![CDATA[<b>Address:</b> Jacksonville<br/><br/><b>Marker Text:</b> Tecula Cemetery, established c. 1894]]></description>
    <Point><coordinates>-95.1988584801171,32.0283161920009,0</coordinates></Point>
  </Placemark>
  <Placemark>
    <name>Thompson Cemetery</name>
    <styleUrl>#normal</styleUrl>
    <description><![CDATA[About ½ mile from Forest at the south end
of CR 2754.<br/><br/><b>Address:</b> Forest<br/><br/><b>Marker Text:</b> Thompson Cemetery Wiley (1799-1866) and Cynthia Ann Suttle (1811-1884) Thompson brought their eight children and a number of slaves to this area from Alabama in 1847. They purchased a 636-acre tract of land along Larrison Creek where they built a log home on a hill overlooking the creek bottomland. The community that developed nearby became known as Forest and included a store, saloon, mills and cotton gin owned by the family. Four more offspring were born here to the Thompsons, but around 1850, two of their children died and the family reportedly buried them in the corner of the yard where the house once stood. These first burials that began this cemetery are now among the more than thirty that are unmarked; the earliest dated grave is that of Mrs. L.N. Williams, who died in 1863. Those laid to rest here include veterans of the Civil War, World War I, World War II, Korea and Vietnam. Descendants of the Thompsons and families of the forest community continue to contribute to the care and upkeep of this burial ground. The original Thompson home and other early structures are gone, but this cemetery remains as a chronicle of the pioneers and generations who settled and developed this area of Cherokee County. Historic Texas Cemetery-2002]]></description>
    <Point><coordinates>-95.01914,31.504099,0</coordinates></Point>
  </Placemark>
  <Placemark>
    <name>Town of Craft</name>
    <styleUrl>#normal</styleUrl>
    <description><![CDATA[junction of US 69 and FM 22 on NW corner<br/><br/><b>Address:</b> Craft<br/><br/><b>Marker Text:</b> Known first as Independence, the town of Craft grew up in the 1890s on the railroad. When a post office was established in 1891, the name Craft was chosen to honor Thomas J. Craft, first postmaster and community leader. In 1896, C. D. and S. H. Jarrat and W. R. Stout began commercial tomato growing and production here. By 1917, 90 percent of Texas' tomatoes were shipped from this area. The town declined in the 1930s but is important for its early role in the East Texas tomato growing and shipping industry.]]></description>
    <Point><coordinates>-95.236005,31.918519,0</coordinates></Point>
  </Placemark>
  <Placemark>
    <name>Union Grove Cemetery</name>
    <styleUrl>#normal</styleUrl>
    <description><![CDATA[FM 2138 (Maydelle Highway), 5 mi. south of Jacksonville<br/><br/><b>Address:</b> 5537 Maydelle Highway, Jacksonville<br/><br/><b>Marker Text:</b> Established in 1868 with burial of Mary Ann Patton, the first wife of John F. Patton (1829-1900). He was Jacksonville postmaster, Confederate Army officer during Civil War (1861-65). In 1871 he deeded this land to the Union School and Church. Kept up by gifts, cemetery is still in use. (1971)]]></description>
    <Point><coordinates>-95.2886312319195,31.8689616709136,0</coordinates></Point>
  </Placemark>
  <Placemark>
    <name>Walker's Chapel Cemetery</name>
    <styleUrl>#normal</styleUrl>
    <description><![CDATA[3 mi. NW on CR 4404, W of FM 235<br/><br/><b>Address:</b> Reklaw<br/><br/><b>Marker Text:</b> This cemetery has historic ties to Walker's Chapel Methodist Episcopal Church, South, founded by and named for John Walker, who moved to this vicinity by 1839. Harvey N. Cooper later conveyed this site to the church and its trustees in 1879. The church became the heart of a rural community known as Walker (Walker's) Chapel. The oldest legible marked grave in the community cemetery dates to 1879. There are also several other marked graves from the late 19th century. A number of veterans are buried here, including those who served in military conflicts dating back to the Civil War. Noteworthy features in the cemetery include vertical stones and curbed plots in the older section. By 1965, an association formed for the care of the cemetery and grounds. An annual memorial service is held here each July. Today, although many reminders of the community are gone, the cemetery continues to chronicle the lives of early settlers of Walker Chapel. Historic Texas Cemetery - 2004]]></description>
    <Point><coordinates>-95.010591,31.898675,0</coordinates></Point>
  </Placemark>
</Document>
</kml>
