<?xml version="1.0" encoding="UTF-8"?>
<kml xmlns="http://www.opengis.net/kml/2.2">
<Document>
  <name>Coleman County — Unmapped Historical Markers</name>
  <description>THC markers in Coleman County without an HMDB id (isMissing excluded). 5 with THC coords; 0 geocoded from address; 3 omitted (no usable address). Orange pins are isPending=True — the marker may not be installed yet.</description>
  <Style id="normal">
    <IconStyle>
      <Icon><href>http://maps.google.com/mapfiles/ms/icons/red-dot.png</href></Icon>
    </IconStyle>
  </Style>
  <Style id="pending">
    <IconStyle>
      <color>ff00a5ff</color>
      <Icon><href>http://maps.google.com/mapfiles/ms/icons/orange-dot.png</href></Icon>
    </IconStyle>
  </Style>
  <Placemark>
    <name>Camp Colorado Cemetery</name>
    <styleUrl>#normal</styleUrl>
    <description><![CDATA[]]></description>
    <Point><coordinates>-99.257999,31.884098,0</coordinates></Point>
  </Placemark>
  <Placemark>
    <name>D. A. Parker House</name>
    <styleUrl>#normal</styleUrl>
    <description><![CDATA[2 miles west of Novice on FM 1770, then 1 mile south on CR 488<br/><br/><b>Address:</b> Novice<br/><br/><b>Marker Text:</b> A native of Ohio, David Absalom Parker (b. 1849) came to Coleman County in 1876 with his wife, Nannie Rachel (Atkinson). Soon after, they constructed this two-story stone residence. Parker became a prominent area cattleman and helped establish the town of Novice when rail lines were built to the area in 1910. The owner of a general store and cotton gin, he was instrumental in the formation of school, church, and post office. Recorded Texas Historic Landmark - 1983]]></description>
    <Point><coordinates>-99.65842,31.968686,0</coordinates></Point>
  </Placemark>
  <Placemark>
    <name>Glen Cove Cemetery</name>
    <styleUrl>#normal</styleUrl>
    <description><![CDATA[From Coleman go west on Hwy 153 12 miles. Turn south on CR 444 for 1 mile. Turn right (west) at Glen Cove Cemetery sign. Go west 0.2 miles which runs into the cemetery.<br/><br/><b>Address:</b> Coleman]]></description>
    <Point><coordinates>-99.6249906988907,31.849573639286,0</coordinates></Point>
  </Placemark>
  <Placemark>
    <name>Trickham Cemetery</name>
    <styleUrl>#normal</styleUrl>
    <description><![CDATA[RR 1176 at CR 216<br/><br/><b>Address:</b> Trickham<br/><br/><b>Marker Text:</b> Trickham Cemetery Established c. 1870s Historic Texas Cemetery - 2004]]></description>
    <Point><coordinates>-99.23527,31.589479,0</coordinates></Point>
  </Placemark>
  <Placemark>
    <name>Western Trail Marker</name>
    <styleUrl>#normal</styleUrl>
    <description><![CDATA[Courthouse square, Walnut at Commerce<br/><br/><b>Address:</b> Coleman<br/><br/><b>Marker Text:</b> This tablet commemorates the Western Trail that passed through Coleman in 1867-1895. D.A.R. Seal. Head of longhorn. "Up the Trail". Erected by the Captain Wm. Buckner Chapter of The Daughters of the American Revolution.]]></description>
    <Point><coordinates>-99.423175862604,31.8312095334592,0</coordinates></Point>
  </Placemark>
</Document>
</kml>
