<?xml version="1.0" encoding="UTF-8"?>
<kml xmlns="http://www.opengis.net/kml/2.2">
<Document>
  <name>Collin County — Unmapped Historical Markers</name>
  <description>THC markers in Collin County without an HMDB id (isMissing excluded). 18 with THC coords; 0 geocoded from address; 6 omitted (no usable address). Orange pins are isPending=True — the marker may not be installed yet.</description>
  <Style id="normal">
    <IconStyle>
      <Icon><href>http://maps.google.com/mapfiles/ms/icons/red-dot.png</href></Icon>
    </IconStyle>
  </Style>
  <Style id="pending">
    <IconStyle>
      <color>ff00a5ff</color>
      <Icon><href>http://maps.google.com/mapfiles/ms/icons/orange-dot.png</href></Icon>
    </IconStyle>
  </Style>
  <Placemark>
    <name>Bowman Cemetery</name>
    <styleUrl>#normal</styleUrl>
    <description><![CDATA[<b>Address:</b> 2700 Oak Grove, Plano<br/><br/><b>Marker Text:</b> GPS updated]]></description>
    <Point><coordinates>-96.6752576280791,33.0407590558186,0</coordinates></Point>
  </Placemark>
  <Placemark>
    <name>Buckner Cemetery</name>
    <styleUrl>#normal</styleUrl>
    <description><![CDATA[<b>Address:</b> McKinney]]></description>
    <Point><coordinates>-96.6676903741785,33.2188774537365,0</coordinates></Point>
  </Placemark>
  <Placemark>
    <name>[PENDING] Buckner Cemetery</name>
    <styleUrl>#pending</styleUrl>
    <description><![CDATA[<b>⚠ PENDING — marker may not yet be installed at this location.</b><br/><br/><b>Address:</b> US 380, McKinney]]></description>
    <Point><coordinates>-96.6676903741785,33.2188774537365,0</coordinates></Point>
  </Placemark>
  <Placemark>
    <name>Collin McKinney Home</name>
    <styleUrl>#normal</styleUrl>
    <description><![CDATA[Finch Park off S. Benge Street,   McKinney<br/><br/><b>Address:</b> McKinney<br/><br/><b>Marker Text:</b> Texas patriot and statesman one of committee of five that wrote the Texas Declaration of Independence, one of its fifty-nine signers, March 2, 1836. Served in House of Representatives, Republic of Texas. In recognition of his distinguished service the county and county seat of Collin County bear his name. Born in New Jersey, April 17, 1766. Died in this house, September 9, 1861.]]></description>
    <Point><coordinates>-96.6185335019489,33.1911611156829,0</coordinates></Point>
  </Placemark>
  <Placemark>
    <name>Cottage Hill Methodist Church and Cemetery</name>
    <styleUrl>#normal</styleUrl>
    <description><![CDATA[4 mi East of Celina on FM 455. then South about 2 miles on 2478 to cemetery on E. Side of Rd (church and marker are behind cemetery)<br/><br/><b>Address:</b> Celina<br/><br/><b>Marker Text:</b> According to local tradition this Methodist Church traces its origin to pioneer religious gatherings organized by the Rev. John Culwell and held in the home of his brother, Andrew J. Culwell, about 1846, and to the establishment of Methodist campground meetings held at nearby Honey Creek about 1848. The first documentary mention of Cottage Hill Methodist Church is contained in the minutes of the Trinity Conference held in Plano in 1874. A church structure was built on land donated by F.F. Morrill at this site in 1881; H.H. Sullivan served as pastor. The sizable number of early headstones bearing the name Culwell and the many unmarked graves surrounding the gravesite of Martha Culwell (d.1870), the cemetery's earliest recorded interment, suggests that the Cottage Hill Cemetery began as a family cemetery. Although located adjacent to each other and believed to have been connected as part of land deeded to the Cottage Hill Church during the 1880s and 1890s, the church and cemetery have not been formally associated since the establishment of the Cottage Hill Cemetery Association in 1890. The church structure, renovated in 1946, continues to serve the Cottage Hill Methodist Church.]]></description>
    <Point><coordinates>-96.7108327029336,33.3102346383365,0</coordinates></Point>
  </Placemark>
  <Placemark>
    <name>Dallas Depot of the H. &amp; T. C.</name>
    <styleUrl>#normal</styleUrl>
    <description><![CDATA[Museum of the American Railroad. Moved from Fair Park, Dallas, in 2012.<br/><br/><b>Address:</b> 8004 N. Dallas Pkwy #400, Frisco<br/><br/><b>Marker Text:</b> In July 1872 the Houston &amp; Texas Central became the first railroad to reach Dallas. This frame depot was constructed for the H. &amp; T.C. and the Texas &amp; New Orleans in 1903, when both lines were part of the Southern Pacific system. Originally located on Eakin Street (1.25 mi. W), this structure served as a passenger station until 1918 and as yardmasters office until 1963. Threatened with demolition, it was then moved to this site. Recorded Texas Historic Landmark - 1979]]></description>
    <Point><coordinates>-96.8340062108618,33.1436370824061,0</coordinates></Point>
  </Placemark>
  <Placemark>
    <name>First Baptist Church of Plano</name>
    <styleUrl>#normal</styleUrl>
    <description><![CDATA[Coords Updated<br/><br/><b>Address:</b> 1300 E. 15th St., Plano<br/><br/><b>Marker Text:</b> This congregation, established as the Spring Creek Baptist Church in 1852, built its first sanctuary on Spring Creek about two miles south of here of land owned by Jacob Routh. Formally organized in 1853, the congregation joined several area churches in 1854 to form the Elm Fork Baptist Association. Plano's emergence after the railroad reached town in 1872 prompted Spring Creek to change its name to Plano Baptist Church and build a new sanctuary here in 1875. Plano Baptist became a charter member of the Collin Baptist Association in 1886. A new sanctuary was built here in 1898, and prior to 1900 Plano Baptist organized a Young People's Union and Aid Societies for older women and young ladies. About 1936 the congregation changed its name to First Baptist Church to acknowledge its status as the first Baptist church established in Plano. Growth in church membership mirrored that of Plano in the 1960s, and in 1970 a new sanctuary was built at this site. First Baptist helped establish the Prairie Creek Baptist Church and a Chinese mission in 1972, Hunter's Glen Baptist Church in 1976, and Hillside Baptist Church in 1982. The church continues its global missionary efforts and its many local outreach programs.** (1994)***]]></description>
    <Point><coordinates>-96.696200837302,33.0195368557639,0</coordinates></Point>
  </Placemark>
  <Placemark>
    <name>Frankford Cemetery</name>
    <styleUrl>#normal</styleUrl>
    <description><![CDATA[Coords Updated<br/><br/><b>Address:</b> 17400 Muirfield Dr., Dallas<br/><br/><b>Marker Text:</b> In the early days of settlement, this area served as a stop for cattle drives and for travelers on the Preston Road. Later the community of Frankford, the site of a post office until the early 1900s, was located nearby. This community cemetery was used as early as 1862, when area pioneer Eliga M. Yaeger was interred here. The earliest marked grave is that of John T. Coit (1829-1872), a lawyer who moved here from South Carolina. During the Civil War he raised a regiment in the Dallas area and served as a colonel. Originally buried on a bluff of the Trinity River, he was later reinterred at this site. Another early burial was that of Margaret McKamy (1786-1873), who came to Texas with her son William C. McKamy, later a prominent area landowner. Also buried here are Sidney Noell, founder of the early town of Noell Junction, now Addison (1 mile southwest), and Addison Robertson, for whom it was later named. Since the 1870s the cemetery has been associated with the White Rock Masonic Lodge No. 234, started at Walnut Grove in 1858. A lodge hall, built here in 1872, also served as a church and school. Lodge members serve on the Cemetery Association Board. (1981) Historic Texas Cemetery medallion added 2013.]]></description>
    <Point><coordinates>-96.8231184672373,32.9887940855259,0</coordinates></Point>
  </Placemark>
  <Placemark>
    <name>Fred Schimelpfenig Building</name>
    <styleUrl>#normal</styleUrl>
    <description><![CDATA[Possibly missing. I don’t see anything on Google StreetView<br/><br/><b>Address:</b> 1017 E 15th Street, Plano<br/><br/><b>Marker Text:</b> This building was built in 1884 by the Sanger Brothers and was made into the most prosperous dry goods store in Plano by Frederick Schimelpfenig. Schimelpfenig ran the store until the fire of 1895 and was mayor of Plano from 1902-1908. In 1896, J.H. Gulledge bought the building and operated a dry goods business until 1918. In 1946, it was sold to Westway Sportswear and has held subsequent businesses such as Plano furniture, Nooks ‘n Krannies and several tea rooms. The building is a one-story brick mercantile building and retains its original size.]]></description>
    <Point><coordinates>-96.7001828302228,33.0197582097267,0</coordinates></Point>
  </Placemark>
  <Placemark>
    <name>[PENDING] Granville Lively</name>
    <styleUrl>#pending</styleUrl>
    <description><![CDATA[<b>⚠ PENDING — marker may not yet be installed at this location.</b><br/><br/>marker pending<br/><br/><b>Address:</b> 500 Throckmorton St, McKinney<br/><br/><b>Marker Text:</b> marker pending]]></description>
    <Point><coordinates>-96.608406,33.201806,0</coordinates></Point>
  </Placemark>
  <Placemark>
    <name>John Elias and Ida May Herrington House</name>
    <styleUrl>#normal</styleUrl>
    <description><![CDATA[<b>Address:</b> 1425 Lone Star Road, Celina<br/><br/><b>Marker Text:</b> Missouri native John Elias Herrington (1863-1926), and his wife, Ida May (Douglas) (1870-1951), built this Queen Anne house in 1902 in the Lone Star community. John raised wheat, corn and cotton on this Blackland Prairie farm and dealt in real estate. In 1894, he gave one acre of land to built the Lone Star School. In 1919, the Herringtons moved to Van Alstyne, where John was a banker. The home remained in the family until 1979; it features a wrapped porch, bracketed posts and hipped roof with shingled gables. Recorded Texas Historic Landmark - 2007]]></description>
    <Point><coordinates>-96.67991,33.372624,0</coordinates></Point>
  </Placemark>
  <Placemark>
    <name>Melissa Cemetery</name>
    <styleUrl>#normal</styleUrl>
    <description><![CDATA[<b>Address:</b> 422 Melissa Rd. East, Melissa<br/><br/><b>Marker Text:</b> HTC Medallion only]]></description>
    <Point><coordinates>-96.5871009477098,33.2867396516453,0</coordinates></Point>
  </Placemark>
  <Placemark>
    <name>Old City Cemetery</name>
    <styleUrl>#normal</styleUrl>
    <description><![CDATA[Coords Updated<br/><br/><b>Address:</b> 12th St at H Ave, Plano<br/><br/><b>Marker Text:</b> HTC Medallion HTC - 2002]]></description>
    <Point><coordinates>-96.7034783989557,33.0152146911559,0</coordinates></Point>
  </Placemark>
  <Placemark>
    <name>Old Union Cemetery</name>
    <styleUrl>#normal</styleUrl>
    <description><![CDATA[<b>Address:</b> Corner of Texas and W. FM 455, J.K. Rice Survery, Abst., 767, Tract 36, Celina<br/><br/><b>Marker Text:</b> Established 1877 Historic Texas Cemetery – 2016]]></description>
    <Point><coordinates>-96.7795419644435,33.3234621382245,0</coordinates></Point>
  </Placemark>
  <Placemark>
    <name>Site of Collin McKinney Homestead</name>
    <styleUrl>#normal</styleUrl>
    <description><![CDATA[2 miles north of Anna on SH 5<br/><br/><b>Address:</b> Anna<br/><br/><b>Marker Text:</b> Collin McKinney, a delegate to the General Convention at Washington-on-the-Brazos who helped draft the Texas Declaration of Independence from Mexico and later the Constitution of the Republic of Texas, settled in this area about 1846. On July 10, 1848, McKinney bought the Rob Whitaker survey around this site from Anna Whitaker, paying $500 for 640 acres. The McKinney family was active in the the region: they were instrumental in building the Mantua Road and the organization of the town of Mantua and the Van Alstyne Christian Church. Collin McKinney divided his land among his heirs in 1857. He died in 1861. The McKinney family gave his house to the city of McKinney in 1936. The structure burned in 1980. Collin McKinney's legacy continues to influence the history of north Texas. (2000)]]></description>
    <Point><coordinates>-96.5578231507132,33.3847004997134,0</coordinates></Point>
  </Placemark>
  <Placemark>
    <name>W. D. McFarlin Building</name>
    <styleUrl>#normal</styleUrl>
    <description><![CDATA[Possibly missing. I don’t see anything on Google StreetView<br/><br/><b>Address:</b> 1011 E. 15th Street, Plano<br/><br/><b>Marker Text:</b> This building was purchased by W.D. McFarlin in 1885 and is considered one of the oldest brick buildings in Plano. A fire in 1895 destroyed the original building and McFarlin rebuilt the building out of brick. One year later, Schoolfield Drugs moved into the building. E.A. Carpenter bought the business and operated a drug store here until 1908 when it was sold to Allen Brothers Drug Store. The building remained in the McFarlin family for 65 years until it was sold in 1950. This building served as a grocery store, a dry goods store, drug store and other businesses.]]></description>
    <Point><coordinates>-96.7004774245412,33.019757007379,0</coordinates></Point>
  </Placemark>
  <Placemark>
    <name>Wilson Creek House</name>
    <styleUrl>#normal</styleUrl>
    <description><![CDATA[<b>Address:</b> 1727 Choate Pkwy., Celina<br/><br/><b>Marker Text:</b> In 1901 W. W. Wilson (1859-1937), an employee of the Cotton Belt Railroad system, moved to Plano. He married Alice Bell (d. 1945) the following year. In 1903 Wilson had this home built on Avenue K in Plano. The turn-of-the-century house features fish scale shingling and other Victorian details. The Wilsons and their three children occupied this home. After the Wilsons died, the structure changed owners several times until 1976 when it was moved to this site. Recorded Texas Historic Landmark - 1979]]></description>
    <Point><coordinates>-96.7552083016107,33.2902304521033,0</coordinates></Point>
  </Placemark>
  <Placemark>
    <name>Yates-Strickland House</name>
    <styleUrl>#normal</styleUrl>
    <description><![CDATA[marker pending<br/><br/><b>Address:</b> 504 W. Main St., Celina<br/><br/><b>Marker Text:</b> marker pending]]></description>
    <Point><coordinates>-96.789031,33.323356,0</coordinates></Point>
  </Placemark>
</Document>
</kml>
