<?xml version="1.0" encoding="UTF-8"?>
<kml xmlns="http://www.opengis.net/kml/2.2">
<Document>
  <name>Cooke County — Unmapped Historical Markers</name>
  <description>THC markers in Cooke County without an HMDB id (isMissing excluded). 8 with THC coords; 0 geocoded from address; 1 omitted (no usable address). Orange pins are isPending=True — the marker may not be installed yet.</description>
  <Style id="normal">
    <IconStyle>
      <Icon><href>http://maps.google.com/mapfiles/ms/icons/red-dot.png</href></Icon>
    </IconStyle>
  </Style>
  <Style id="pending">
    <IconStyle>
      <color>ff00a5ff</color>
      <Icon><href>http://maps.google.com/mapfiles/ms/icons/orange-dot.png</href></Icon>
    </IconStyle>
  </Style>
  <Placemark>
    <name>[PENDING] Cooke County Poor Farm</name>
    <styleUrl>#pending</styleUrl>
    <description><![CDATA[<b>⚠ PENDING — marker may not yet be installed at this location.</b><br/><br/>This marker could not be found, so assuming it is still pending.<br/><br/><b>Address:</b> 2718 W. Hwy 82, Gainesville<br/><br/><b>Marker Text:</b> As part of a county effort to improve the lives of its rapidly growing population, on April 23, 1880, Cooke County Judge J.P. Hall purchased 100 acres out of the Adam Dozier survey to establish a farm for the county’s indigent citizens. Living quarters were built soon after. Under the direction of overseers contracted by the county, an average of 12 residents managed production of cotton and consumable crops as well as raising livestock including hogs, chickens and cattle. In 1888, necessity dictated the creation of a cemetery. The poor farm site remained active until 1915, when the farm was relocated to a ten-acre tract of land on rice avenue, near Old Denton Road. (2023)]]></description>
    <Point><coordinates>-97.114127,33.643306,0</coordinates></Point>
  </Placemark>
  <Placemark>
    <name>[PENDING] Early Gainesville Railroads</name>
    <styleUrl>#pending</styleUrl>
    <description><![CDATA[<b>⚠ PENDING — marker may not yet be installed at this location.</b><br/><br/>marker pending<br/><br/><b>Address:</b> 605 E. California St., Gainesville<br/><br/><b>Marker Text:</b> marker pending]]></description>
    <Point><coordinates>-97.139611,33.624348,0</coordinates></Point>
  </Placemark>
  <Placemark>
    <name>[PENDING] Early Jewish Community of Gainesville</name>
    <styleUrl>#pending</styleUrl>
    <description><![CDATA[<b>⚠ PENDING — marker may not yet be installed at this location.</b><br/><br/>This marker could not be found, so assuming it is still pending.<br/><br/><b>Address:</b> 701 Fair Avenue, Gainesville<br/><br/><b>Marker Text:</b> marker pending]]></description>
    <Point><coordinates>-97.127145,33.630588,0</coordinates></Point>
  </Placemark>
  <Placemark>
    <name>First Cooke County Surveyor Daniel Montague (1798-1876)</name>
    <styleUrl>#normal</styleUrl>
    <description><![CDATA[From Gainesville take US 82 west about 7.3 miles to roadside park on south side of road.<br/><br/><b>Marker Text:</b> Born in Massachusetts. Moved to Texas 1836. Accepted post of Surveyor, Fannin Land District, helping settlers locate claims and fight Indians. Joined Snively Expedition to capture Mexican traders trespassing in Republic of Texas, 1843. Captain of Company in Mexican War, 1846. When Cooke County was created, 1848, Montague was named County Surveyor. Like most surveyors, took land as pay for duty that called for constant risk of life. Rifles to stand off Indians were in field kits. Like Surveyor-Senator John H. Reagan, Montague was honored in having a county named for him. (1968)]]></description>
    <Point><coordinates>-97.280215,33.639212,0</coordinates></Point>
  </Placemark>
  <Placemark>
    <name>[PENDING] Lt. Col. Thadd Blanton</name>
    <styleUrl>#pending</styleUrl>
    <description><![CDATA[<b>⚠ PENDING — marker may not yet be installed at this location.</b><br/><br/>This marker could not be found, so assuming it is still pending.<br/><br/><b>Address:</b> 710 Fair Avenue, Gainesville]]></description>
    <Point><coordinates>-97.126998331103,33.630746289785,0</coordinates></Point>
  </Placemark>
  <Placemark>
    <name>Sam Callis Cemetery</name>
    <styleUrl>#normal</styleUrl>
    <description><![CDATA[<b>Address:</b> Callisburg<br/><br/><b>Marker Text:</b> Established 1867 Historic Texas Cemetery – 2007]]></description>
    <Point><coordinates>-97.0304091213508,33.7170532261198,0</coordinates></Point>
  </Placemark>
  <Placemark>
    <name>Sivells Bend United Methodist Church</name>
    <styleUrl>#normal</styleUrl>
    <description><![CDATA[CR 437 at FM1201<br/><br/><b>Address:</b> Sivells Bend<br/><br/><b>Marker Text:</b> This congregation formed in 1868 as Sivells Bend Methodist Episcopal Church, South. Brothers William W. and Addison Y. Gunter conveyed two acres to church trustees E. L. Allen, WM. Midkiff and George Dillard in 1880. A large two-story church, school and masonic lodge burned in 1893. W. W. Gunter deeded the current site in 1910. The present frame church has had continuous services since its 1912 construction. During WWII, families taught Sunday school even without a supplied pastor. Later, Sivells Bend shared pastors with other Methodist churches, but has had its own pastors since 1950. Community involvement and regular worship shows a continuing focus on the true spirit of God.]]></description>
    <Point><coordinates>-97.230401,33.843868,0</coordinates></Point>
  </Placemark>
  <Placemark>
    <name>Van Slyke Cemetery</name>
    <styleUrl>#normal</styleUrl>
    <description><![CDATA[N on FM 1199, W on CR 446, N on CR 453, 5 mi. NW of Lindsay<br/><br/><b>Address:</b> Lindsay<br/><br/><b>Marker Text:</b> Van Slyke Cemetery Established 1883 Historic Texas Cemetery - 2005]]></description>
    <Point><coordinates>-97.277133,33.695378,0</coordinates></Point>
  </Placemark>
</Document>
</kml>
