<?xml version="1.0" encoding="UTF-8"?>
<kml xmlns="http://www.opengis.net/kml/2.2">
<Document>
  <name>Cottle County — Unmapped Historical Markers</name>
  <description>THC markers in Cottle County without an HMDB id (isMissing excluded). 1 with THC coords; 0 geocoded from address; 0 omitted (no usable address). Orange pins are isPending=True — the marker may not be installed yet.</description>
  <Style id="normal">
    <IconStyle>
      <Icon><href>http://maps.google.com/mapfiles/ms/icons/red-dot.png</href></Icon>
    </IconStyle>
  </Style>
  <Style id="pending">
    <IconStyle>
      <color>ff00a5ff</color>
      <Icon><href>http://maps.google.com/mapfiles/ms/icons/orange-dot.png</href></Icon>
    </IconStyle>
  </Style>
  <Placemark>
    <name>Cottle County</name>
    <styleUrl>#normal</styleUrl>
    <description><![CDATA[From Paducah, take US 70 about 7 miles east to Roadside Park<br/><br/><b>Address:</b> Paducah<br/><br/><b>Marker Text:</b> Formed From Young and Bexar territories created August 21, 1876, organized January 11, 1892. Named in honor of George Washington Cottle a private who died at the Alamo. Paducah, the County Seat.]]></description>
    <Point><coordinates>-100.201688991287,34.0530542305685,0</coordinates></Point>
  </Placemark>
</Document>
</kml>
