<?xml version="1.0" encoding="UTF-8"?>
<kml xmlns="http://www.opengis.net/kml/2.2">
<Document>
  <name>Dimmit County — Unmapped Historical Markers</name>
  <description>THC markers in Dimmit County without an HMDB id (isMissing excluded). 3 with THC coords; 0 geocoded from address; 0 omitted (no usable address). Orange pins are isPending=True — the marker may not be installed yet.</description>
  <Style id="normal">
    <IconStyle>
      <Icon><href>http://maps.google.com/mapfiles/ms/icons/red-dot.png</href></Icon>
    </IconStyle>
  </Style>
  <Style id="pending">
    <IconStyle>
      <color>ff00a5ff</color>
      <Icon><href>http://maps.google.com/mapfiles/ms/icons/orange-dot.png</href></Icon>
    </IconStyle>
  </Style>
  <Placemark>
    <name>Dimmit County</name>
    <styleUrl>#normal</styleUrl>
    <description><![CDATA[not located<br/><br/><b>Address:</b> Carrizo Springs<br/><br/><b>Marker Text:</b> Created February 1, 1858; organized November 2, 1880 Named in honor of Philip Dimmitt, a pioneer trader and captain in the Texas Army who died in 1841. Carrizo Springs, The County Seat (3.7 mi. N Carrizo Springs, US Hwy. 83)]]></description>
    <Point><coordinates>-99.8610288094892,28.522425812299,0</coordinates></Point>
  </Placemark>
  <Placemark>
    <name>Espantosa Lake</name>
    <styleUrl>#normal</styleUrl>
    <description><![CDATA[FM 1433 at Dam at south end of lake, marker damaged missing star &amp; wreath 12.2020<br/><br/><b>Address:</b> Carrizo Springs<br/><br/><b>Marker Text:</b> Most famous camping ground on Presidio Road. Earliest route between Texas and Coahuila. Many legends center about the lake. Here in 1876 Texas Rangers killed a band of desperadoes.]]></description>
    <Point><coordinates>-99.8099084487754,28.583600589648,0</coordinates></Point>
  </Placemark>
  <Placemark>
    <name>First Baptist Church</name>
    <styleUrl>#normal</styleUrl>
    <description><![CDATA[706 Houston St.<br/><br/><b>Address:</b> 706 Houston St., Carrizo Springs<br/><br/><b>Marker Text:</b> First church built by Texas Baptists west of Nueces River. Organized May 27, 1878. Building constructed 1888-1891 on land donated by Levi and Matilda English. Designed by pastor, Rev. R. H. Brown. Congregation and other citizens furnished labor to burn brick and lime, haul the lumber from Cotulla, and put up the building. Of the seven charter members, two were former Methodists and one man was an ex-slave. Recorded Texas Historic Landmark, 1966]]></description>
    <Point><coordinates>-99.8618993200438,28.5229907874464,0</coordinates></Point>
  </Placemark>
</Document>
</kml>
