<?xml version="1.0" encoding="UTF-8"?>
<kml xmlns="http://www.opengis.net/kml/2.2">
<Document>
  <name>Fannin County — Unmapped Historical Markers</name>
  <description>THC markers in Fannin County without an HMDB id (isMissing excluded). 25 with THC coords; 0 geocoded from address; 6 omitted (no usable address). Orange pins are isPending=True — the marker may not be installed yet.</description>
  <Style id="normal">
    <IconStyle>
      <Icon><href>http://maps.google.com/mapfiles/ms/icons/red-dot.png</href></Icon>
    </IconStyle>
  </Style>
  <Style id="pending">
    <IconStyle>
      <color>ff00a5ff</color>
      <Icon><href>http://maps.google.com/mapfiles/ms/icons/orange-dot.png</href></Icon>
    </IconStyle>
  </Style>
  <Placemark>
    <name>Biard Home</name>
    <styleUrl>#normal</styleUrl>
    <description><![CDATA[<b>Address:</b> 905 N. Main St., Bonham<br/><br/><b>Marker Text:</b> Built 1857 by hemp factory owner Z. K. Sims. Later owned by Thomas R. Williams, industrialist who brought to Bonham Dr. Charles Carlton, founder of Carlton College; Col. James Q. Chenoweth, first auditor of the U.S. Treasury; Judges James C. Clark and R. M. Lusk. Biard residence since 1909. RTHL - 1964]]></description>
    <Point><coordinates>-96.179353927513,33.5820271329048,0</coordinates></Point>
  </Placemark>
  <Placemark>
    <name>Blanton Chapel Methodist Church</name>
    <styleUrl>#normal</styleUrl>
    <description><![CDATA[from Leonard take SH 78 west 3 miles to FM 981; then north on FM 981 1.5 miles<br/><br/><b>Address:</b> 1025 FM 981, Leonard<br/><br/><b>Marker Text:</b> supplemental plaque: Blanton Chapel founded 1872 by Benjamin J. Blanton]]></description>
    <Point><coordinates>-96.293532154678,33.3971540995198,0</coordinates></Point>
  </Placemark>
  <Placemark>
    <name>Dial United Presbyterian Church</name>
    <styleUrl>#normal</styleUrl>
    <description><![CDATA[across from Dial Cemetery on FM 824<br/><br/><b>Address:</b> 8491 FM 824, Dial<br/><br/><b>Marker Text:</b> Successor to Bethel Society, founded with 26 charter members in 1846 as first Presbyterian church in Bethel (present Dial) community. Early services were held in a one-room log school shared by all denominations. The first Sunday School was organized on January 27, 1874. The first church building was dedicated in 1900 on land given by James Dial, prominent citizen. In 1958 "United" was added to name after two branches of the Presbyterian church throughout America were united. The present church was built in 1925, using materials from first structure. RTHL - 1969]]></description>
    <Point><coordinates>-95.869788,33.498132,0</coordinates></Point>
  </Placemark>
  <Placemark>
    <name>First Baptist Church of Trenton</name>
    <styleUrl>#normal</styleUrl>
    <description><![CDATA[<b>Address:</b> 302 N. 2nd St., Trenton<br/><br/><b>Marker Text:</b> On January 7, 1877, Trenton Baptists began worshiping in the Burns school house. The church body organized as Smyrna Baptist Church of Christ, with Martin W. Gentry as the first pastor. In 1886, the church called their second pastor in Jno. William Connelly. The church entered into fellowship with the Sister Grove Association in 1878 until the Fannin County Baptist Association formed in 1889. In 1897, under the leadership of Rev. J. M. Harder, the church built a frame building on the present site. A fire in November 1953 completely destroyed the sanctuary. The congregation met in the high school auditorium until a new church was completed in July 1954. The church continues to support global missions and community needs. (2013)]]></description>
    <Point><coordinates>-96.33772728665,33.43166791763,0</coordinates></Point>
  </Placemark>
  <Placemark>
    <name>First Fannin County Settlement</name>
    <styleUrl>#normal</styleUrl>
    <description><![CDATA[from Elwood take FM 2554 west 4.5 miles to R.O.W.<br/><br/><b>Address:</b> Elwood<br/><br/><b>Marker Text:</b> (1 mile east of landing) Established April 1836 by five pioneers moving to Texas on the "Rover," one of few steamboats to pass around snags and bends of Red River to this area. The colonists -- from four states of the "Old South" -- were Richard Locke, Dr. Daniel Rowlett, Daniel Slack, Edward and John Stephens. They were soon joined by Jabez Fitzgerald and Mark Roberts and families, who traveled overland. Leader of settlers was Rowlett, planter and lawyer as well as doctor, instrumental in creation of Fannin County, 1837; he served Republic of Texas in army and in 2nd, 4th and 8th Congresses.]]></description>
    <Point><coordinates>-96.136622,33.799744,0</coordinates></Point>
  </Placemark>
  <Placemark>
    <name>Fry Homestead</name>
    <styleUrl>#normal</styleUrl>
    <description><![CDATA[<b>Address:</b> 395 FM 2456, Ladonia<br/><br/><b>Marker Text:</b> Built 1854 by Abraham K. Fry on land bought in 1844 in Texas Republic. Continuously owned by Fry family to present time.]]></description>
    <Point><coordinates>-95.9348247362331,33.4151078273092,0</coordinates></Point>
  </Placemark>
  <Placemark>
    <name>Galbraith House</name>
    <styleUrl>#normal</styleUrl>
    <description><![CDATA[<b>Address:</b> 506 CR 3425, Honey Grove<br/><br/><b>Marker Text:</b> Marshall A. Galbraith (1829-1918) came to Texas from Kentucky in 1847 and settled here. He joined Confederate Army, 1862, serving in Col. Alexander's regiment, 34th Texas Cavalry. A prominent farmer and businessman, Galbraith built this Greek revival house about 1870. Although several alterations and additions have occurred over the years, the house still retains its late 19th century character. House is still occupied by Galbraith descendants. RTHL - 1973]]></description>
    <Point><coordinates>-95.9557410908601,33.5718630513216,0</coordinates></Point>
  </Placemark>
  <Placemark>
    <name>Haden House</name>
    <styleUrl>#normal</styleUrl>
    <description><![CDATA[Richard &amp; Bonham Sts.<br/><br/><b>Address:</b> 603 W. Bonham St., Ladonia<br/><br/><b>Marker Text:</b> Built 1894 by craftsmen Martin and Krause for local merchant, J. B. Haden, and wife Elizabeth. Remained in Haden family until 1963. Cypress construction with ornate gingerbread trim. Interior has fine woodwork. Late Victorian architecture. RTHL - 1966]]></description>
    <Point><coordinates>-95.9526879804938,33.4261817373977,0</coordinates></Point>
  </Placemark>
  <Placemark>
    <name>Home of T. H. Sears</name>
    <styleUrl>#normal</styleUrl>
    <description><![CDATA[from Whitewright, FM 151 S one mi. to site<br/><br/><b>Address:</b> 6694 FM 151, Whitewright<br/><br/><b>Marker Text:</b> Colonial style home built by T. H. Sears, son of Christopher C. Sears, pioneer. Situated on part of original land grant. Show place since 1909. Recorded Texas Historic Landmark - 1967]]></description>
    <Point><coordinates>-96.3733573362969,33.5122108495785,0</coordinates></Point>
  </Placemark>
  <Placemark>
    <name>James Fowler Biggers</name>
    <styleUrl>#normal</styleUrl>
    <description><![CDATA[from Bailey take SH 78 north approx. 1.5 miles to FM 1553; then west on 1553 approx. .8 miles to CR 4245; then north on 4245 approx. 1 mile to gravel road going west; go west on gravel road .8 miles.<br/><br/><b>Address:</b> Bailey<br/><br/><b>Marker Text:</b> (January 21, 1829 - October 26, 1914) A native of South Carolina, James Fowler Biggers grew up in Mississippi. In 1869 he and other members of his family traveled to Texas by wagon train and settled in Fannin County. Biggers helped establish the White Rock Primitive Baptist Church and often serve the congregation as a lay preacher. He was also instrumental in organizing a school in the church building and in establishing the White Rock Community Cemetery.]]></description>
    <Point><coordinates>-96.1933254394437,33.4744322013072,0</coordinates></Point>
  </Placemark>
  <Placemark>
    <name>Joseph F. Fenner</name>
    <styleUrl>#normal</styleUrl>
    <description><![CDATA[from Leonard take FM 1553 north 3.5 miles to Grove Hill Cemetery<br/><br/><b>Address:</b> Leonard<br/><br/><b>Marker Text:</b> Star and Wreath Texas War for Independence veteran. Member Shackelford's Company, Colonel Fannin's command, 1836. Erected by the State of texas, 1962]]></description>
    <Point><coordinates>-96.219024078555,33.4323199193338,0</coordinates></Point>
  </Placemark>
  <Placemark>
    <name>McClellan-Cunningham House</name>
    <styleUrl>#normal</styleUrl>
    <description><![CDATA[<b>Address:</b> 304 W. 7th Street, Bonham<br/><br/><b>Marker Text:</b> McCLELLAN-CUNNINGHAM HOUSE DISTRICT JUDGE EUGENE DAVID McCLELLAN AND HIS WIFE, CARLTON COLLEGE PIANO TEACHER ALICE (HUNT), BUILT THIS HOME IN 1879. IN 1907, THE McCLELLANS’ DAUGHTER CORNELIA MARRIED ATTORNEY HENRY ALLEN CUNNINGHAM, AND THE COUPLE MOVED INTO THE HOUSE, WHICH STAYED IN THE FAMILY UNTIL THE 1960s. THE EXTERIOR OF THE TWO-STORY QUEEN ANNE-STYLE HOUSE FEATURES A PROJECTING BAY AND FULL-GALLERY VERANDA PORCHES WITH ELABORATE JIGSAWN TRIM. DORMERS AND GABLES ARE PROMINENT, AS ARE PATTERNS OF FISH-SCALE SHINGLES AND SUNBURST DESIGNS IN THE GABLES, BACK PORCH AND INTERIOR STAIRWAY. RECORDED TEXAS HISTORIC LANDMARK – 2011]]></description>
    <Point><coordinates>-96.1817366129225,33.5802187840426,0</coordinates></Point>
  </Placemark>
  <Placemark>
    <name>McCraw's Chapel</name>
    <styleUrl>#normal</styleUrl>
    <description><![CDATA[from Honey Grove take SH 34 south 3.5 miles to McCraw's Chapel Cemetery Rd.; then west on cemetery road 1.5 miles<br/><br/><b>Address:</b> Honey Grove<br/><br/><b>Marker Text:</b> Methodist Church and Cemetery Settlers farming the blackland prairie in this area gathered in the home of Ezekiel Phillips Warren (1828-1903) in 1859 to organize a Methodist congregation. Warren, a native of Tennessee who moved here in 1856, hosted the group for several years. In 1877 two acres of land for a church and cemetery were donated by William Bain McCraw (1841-1878) and others. The Rev. N. A. Keen was then minister for the Dodd City Circuit, which included the church here. McCraw, a native of Kentucky who served in the Confederate Army, was the first to be buried in the cemetery. An additional four acres adjacent to the church grounds were purchased in 1887. In the late 19th century, 10-day-long camp meetings were held on the church grounds in August. John M. Raiden taught school in the church building during the same years. A tornado destroyed the structure in 1918, and meetings were held in the nearby schoolhouse. A new building was erected in 1919, serving as an anchor for the congregation and the community. Membership fell from 170 in 1933 to 38 in 1963, and the church was disbanded in 1966. The building was razed in 1983, but the grounds continue to host an annual community homecoming on the first Sunday in May. Texas Sesquicentennial 1836 - 1986]]></description>
    <Point><coordinates>-95.9570907142878,33.5268479079074,0</coordinates></Point>
  </Placemark>
  <Placemark>
    <name>Old Baldwin Home</name>
    <styleUrl>#normal</styleUrl>
    <description><![CDATA[<b>Address:</b> 708 Main St., Windom<br/><br/><b>Marker Text:</b> Mid-Victorian architecture; built 1890s by John Baldwin. His cotton gin patrons -- 70 or 80 per day -- were guests at meals in the home. During early 1940s many legislators, two governors -- Coke Stevenson, W. L. O'Daniel -- were entertained here. RTHL - 1967]]></description>
    <Point><coordinates>-96.0014827372739,33.5646792430689,0</coordinates></Point>
  </Placemark>
  <Placemark>
    <name>Old Kirkpatrick Home</name>
    <styleUrl>#normal</styleUrl>
    <description><![CDATA[from Whitewright take FM 151 east .5 miles<br/><br/><b>Address:</b> 1008 FM 151, Whitewright<br/><br/><b>Marker Text:</b> Victorian architecture. Built 1899 by family of Rev. W. A. Kirkpatrick. Still has original cypress roof, bois d'Arc foundation, some of first furnishings. Center, social life old Grayson College, and Presbyterian community. RTHL - 1967]]></description>
    <Point><coordinates>-96.3802853218917,33.5126695688815,0</coordinates></Point>
  </Placemark>
  <Placemark>
    <name>Old W. W. Brownlee Home</name>
    <styleUrl>#normal</styleUrl>
    <description><![CDATA[<b>Address:</b> 220 W. 6th, Bonham<br/><br/><b>Marker Text:</b> Built 1872 with lumber hauled from Jefferson. Second story was added later. Bought 1946 by Alex Longmire. RTHL - 1968]]></description>
    <Point><coordinates>-96.1811445426292,33.5793169528671,0</coordinates></Point>
  </Placemark>
  <Placemark>
    <name>Portland</name>
    <styleUrl>#normal</styleUrl>
    <description><![CDATA[from Bailey take SH 78N .5 miles to FM 1552;then east on FM 1552 1.5 miles to R.O.W.<br/><br/><b>Address:</b> Portland<br/><br/><b>Marker Text:</b> The earliest known settler in the Portland community was Jesse Green London (1843-1875). A native of Missouri and a Confederate veteran who brought his family here in 1873. Other early settlers included members of the Tefteller, Cline, Bell, Henderson, Goin, and Biggerstaff families. The small farming community boasted several business establishments, including a blacksmith shop and a wood shop by the late 1880s.The six-grade Portland School opened in 1879 and met in a one-room log building until the school district was consolidated with two other area schools in 1898. The grocery store served as a residence and post office as well. Founded at the end of the 19th century, the Portland Congregational Methodist Church worshiped in the old log schoolhouse until 1909 when a sanctuary was built at this site. The opportunity for Portland to grow and prosper was denied when the rail line was laid south of the settlement. Although a few homes and this church building are all that remain of the community, the settlers left a rich heritage for their descendants, many of whom still live in the area.]]></description>
    <Point><coordinates>-96.1468368882289,33.4453757556787,0</coordinates></Point>
  </Placemark>
  <Placemark>
    <name>Rehobeth Cemetery Chapel</name>
    <styleUrl>#normal</styleUrl>
    <description><![CDATA[from Ladonia take FM 34 west 4.7 miles to Rehobeth Cemetery Rd.; then south 1.3 miles<br/><br/><b>Address:</b> 1666 CR 3900, Ladonia<br/><br/><b>Marker Text:</b> First house of worship in this part of Fannin county. Place for camp meetings, burials, annual reunions since 1840. Chapel built 1850 was ruined by tornado and rebuilt in 1885. Recorded Texas Historic Landmark - 1964]]></description>
    <Point><coordinates>-96.023501540674,33.3966673471173,0</coordinates></Point>
  </Placemark>
  <Placemark>
    <name>Sam Rayburn Library and Museum</name>
    <styleUrl>#normal</styleUrl>
    <description><![CDATA[<b>Address:</b> 800 West Sam Rayburn Drive, Bonham<br/><br/><b>Marker Text:</b> Speaker Sam Rayburn and Dallas architect Roscoe DeWitt designed this facility to house Sam Rayburn's archives, books and artifacts. Rayburn served Fannin and surrounding counties for more than 55 years as state legislator and U.S. Congressman, including 17 years as Speaker of the House. The library, built in 1955-57, reflects the Classical Revival architecture of federal buildings in Washington, D.C. The steel construction building features a marble façade, copper roof, and Ionic columns supporting an entablature at the main entrance. The building also includes an exact replica of the Speaker's office. Recorded Texas Historic Landmark - 2008]]></description>
    <Point><coordinates>-96.1874099210809,33.5763271314632,0</coordinates></Point>
  </Placemark>
  <Placemark>
    <name>Site of Dial Schools</name>
    <styleUrl>#normal</styleUrl>
    <description><![CDATA[north side of town on FM 824<br/><br/><b>Address:</b> Dial<br/><br/><b>Marker Text:</b> School in this community was held 1840-80 in a log cabin used also for church and community activities. Cotton gin and grist mill of Dial family attracted settlers. Dial Post Office opened May 24, 1880. In July 1880 a site was provided for academy which gained renown under a superior educator, Robert W. Lane (1825-91), a Confederate veteran. One of later (1903-05) teachers in Dial community was the Hon. Sam Rayburn (1882-1961), United States Congressman from Texas 1913-61, who set a record of 17 years as Speaker of the House of Representatives.]]></description>
    <Point><coordinates>-95.869519,33.496813,0</coordinates></Point>
  </Placemark>
  <Placemark>
    <name>Site of Fort Lyday</name>
    <styleUrl>#normal</styleUrl>
    <description><![CDATA[FM 904, north of CR 3625<br/><br/><b>Address:</b> FM 904, Ladonia<br/><br/><b>Marker Text:</b> Early Texas pioneer Isaac Lyday built a fort in this area soon after settling here in 1836. The compound, located .75 mi. E. and .5 mi. N. of the old Lyday Crossing on the North Sulphur River, consisted of living quarters, storerooms, and a large community well. Many local families gathered inside the fort during Indian raids. Due to an increase in these raids, the area was almost abandoned by Anglo settlers until Texas Ranger Captain William B. Stout arrived in 1838 to organize a Ranger force. Lyday was elected captain of the company and served until 1839. Fort Lyday continued to shelter settlers until the raids subsided ca. 1843, and the fort was eventually abandoned. (1983)]]></description>
    <Point><coordinates>-95.876905464054,33.4738305794117,0</coordinates></Point>
  </Placemark>
  <Placemark>
    <name>Site of Hockaday Homestead</name>
    <styleUrl>#normal</styleUrl>
    <description><![CDATA[.5 miles east of FM 904 and FM 64 intersection on FM 64. Marker reported damaged and in storage Jul. 2015.<br/><br/><b>Address:</b> Pecan Gap<br/><br/><b>Marker Text:</b> After a noted career as an educator and founder of Giles Academy (4 mi. east), Virginia-born Thomas Hart Benton Hockaday (1835-1918) bought more than 280 acres in this area in 1870. He farmed the land and built and operated a cotton gin. He later sold much of the property but maintained an eighty-acre homestead on this site for his wife Maria and their seven children. Following Maria's death in 1881, he married Misouri Bird in 1892. Hockaday sold his property to Laurence Pickard in 1916 and moved to Ladonia (4.5 mi. west) where he spent the remaining two years of his life. Pickard moved the Hockaday house in 1921 and divided it into rent houses for the farm's employees. Although the house itself is gone, the existing barn was constructed from Hockaday's cotton gin. T. H. B. Hockaday's youngest child, Ela (1875-1956), followed her father's footsteps into education. In 1913, at the peak of a teaching career that began at age eighteen, she established the Hockaday School in Dallas. In the thirty-three years she was with the institution, the Hockaday School earned national recognition as an excellent college preparatory school for girls. Ela Hockaday was instrumental in the founding of the Hockaday Alumnae Association which continues to carry on the Hockaday tradition. (1981, 1998)]]></description>
    <Point><coordinates>-95.869072,33.43726,0</coordinates></Point>
  </Placemark>
  <Placemark>
    <name>Site of Steger Opera House</name>
    <styleUrl>#normal</styleUrl>
    <description><![CDATA[NE corner of N. Center &amp; 6th<br/><br/><b>Address:</b> 207 E 6th St, Bonham<br/><br/><b>Marker Text:</b> 1890-1920 An opera house was constructed at this site in 1890 by a stock company headed by Benjamin Dabney. Two years later it was purchased by Ed D. Steger. Under his direction, the Steger Opera House became a popular spot for early residents of the Bonham area. It was the scene of many theater productions, traveling shows, civic activities and local talent events. the opera house later briefly served as a motion picture theater and then was used by a variety of commercial establishments. A landmark in the town for many years, it was razed in 1980.]]></description>
    <Point><coordinates>-96.177862992211,33.5791073659157,0</coordinates></Point>
  </Placemark>
  <Placemark>
    <name>Trinity Episcopal Church</name>
    <styleUrl>#normal</styleUrl>
    <description><![CDATA[<b>Address:</b> Bonham]]></description>
    <Point><coordinates>-96.1818678574218,33.5799756796779,0</coordinates></Point>
  </Placemark>
  <Placemark>
    <name>Wheeler House</name>
    <styleUrl>#normal</styleUrl>
    <description><![CDATA[from Honey Grove take SH 56 west 3 miles<br/><br/><b>Address:</b> Honey Grove<br/><br/><b>Marker Text:</b> First Classic Revival house in area. Has unusual stairway. Built 1852-1854, with slave labor. Fifth house on Bonham-Paris stagecoach road. Chimney stones and lumber hand-hewn. Joists were pegged rather than nailed. Sold in 1884 by Wiley Hulsey, builder, to confederate veteran Peyton wheeler and wife Martha Jane Hamil. Their descendants have erected this marker. Recorded Texas Historic Landmark - 1965]]></description>
    <Point><coordinates>-95.9599271586791,33.5762301362239,0</coordinates></Point>
  </Placemark>
</Document>
</kml>
