<?xml version="1.0" encoding="UTF-8"?>
<kml xmlns="http://www.opengis.net/kml/2.2">
<Document>
  <name>Garza County — Unmapped Historical Markers</name>
  <description>THC markers in Garza County without an HMDB id (isMissing excluded). 1 with THC coords; 0 geocoded from address; 2 omitted (no usable address). Orange pins are isPending=True — the marker may not be installed yet.</description>
  <Style id="normal">
    <IconStyle>
      <Icon><href>http://maps.google.com/mapfiles/ms/icons/red-dot.png</href></Icon>
    </IconStyle>
  </Style>
  <Style id="pending">
    <IconStyle>
      <color>ff00a5ff</color>
      <Icon><href>http://maps.google.com/mapfiles/ms/icons/orange-dot.png</href></Icon>
    </IconStyle>
  </Style>
  <Placemark>
    <name>Verbena Community Church</name>
    <styleUrl>#normal</styleUrl>
    <description><![CDATA[From Post, take Hwy. 380 East about 10 miles, then take Hwy. 2008 about 5 miles north<br/><br/><b>Address:</b> Post<br/><br/><b>Marker Text:</b> Named for Mrs. J. B. Cotton, a charter member. Built 1904, replacing brush arbor used by all denominations in summertime services. Became shelter from blizzards. Only duty of a refugee here was replacement of wood burned. Each must chop enough to warm next distress party. Recorded Texas Historic Landmark, 1964.]]></description>
    <Point><coordinates>-101.383794119876,33.192074433765,0</coordinates></Point>
  </Placemark>
</Document>
</kml>
