<?xml version="1.0" encoding="UTF-8"?>
<kml xmlns="http://www.opengis.net/kml/2.2">
<Document>
  <name>Gonzales County — Unmapped Historical Markers</name>
  <description>THC markers in Gonzales County without an HMDB id (isMissing excluded). 25 with THC coords; 0 geocoded from address; 13 omitted (no usable address). Orange pins are isPending=True — the marker may not be installed yet.</description>
  <Style id="normal">
    <IconStyle>
      <Icon><href>http://maps.google.com/mapfiles/ms/icons/red-dot.png</href></Icon>
    </IconStyle>
  </Style>
  <Style id="pending">
    <IconStyle>
      <color>ff00a5ff</color>
      <Icon><href>http://maps.google.com/mapfiles/ms/icons/orange-dot.png</href></Icon>
    </IconStyle>
  </Style>
  <Placemark>
    <name>African American Education in Gonzales</name>
    <styleUrl>#normal</styleUrl>
    <description><![CDATA[Southeast corner of School and Kleine streets. Marker is inside Edwards School.<br/><br/><b>Address:</b> Gonzales<br/><br/><b>Marker Text:</b> Education for American Negro citizens of Gonzales began in the 1870s at the home of Myrtle Moses Mathis. More formalized instruction took place in the 1890s when the school occupied a 2-story community building. A brick schoolhouse was erected about 1914 on land donated by W.M. Fly and Josephine K. Peck. It was named George Edwards High School in 1922 and served 300 students and 8 teachers by 1940. Edwards High School was closed in 1964 as schools were desegregated in compliance with the federal Civil Rights Act. The school was sold in the 1970s. (1997)]]></description>
    <Point><coordinates>-97.440699,29.50995,0</coordinates></Point>
  </Placemark>
  <Placemark>
    <name>Augustus H. Jones</name>
    <styleUrl>#normal</styleUrl>
    <description><![CDATA[100 of 1870 Cemetery corner of Water St. and Cowe St., Gonzales<br/><br/><b>Address:</b> Gonzales<br/><br/><b>Marker Text:</b> Star and Wreath He fought for Texas Independence at Goliad and at the Storming of Bexar, 1835. Erected by the State of texas, 1962]]></description>
    <Point><coordinates>-97.4601186027575,29.5108073263812,0</coordinates></Point>
  </Placemark>
  <Placemark>
    <name>Battle of Gonzales</name>
    <styleUrl>#normal</styleUrl>
    <description><![CDATA[St. Louis and St. Joseph, Gonzales.<br/><br/><b>Address:</b> Gonzales<br/><br/><b>Marker Text:</b> The first battle of the Texas Revolution, fought on the west side of the Guadalupe River about four miles above Gonzales on October 2, 1835, came to be known as the Lexington of Texas. The incident grew out of Col. Domingo de Ugartechea's demand late in September for a cannon given to the settlement for defense against Indians. When the colonists refused to deliver the cannon, Ugartechea sent 150 Dragoons to demand the weapon. Alcalde Andrew Ponton, in the meantime, sent word to other colonists that he had refused to surrender the cannon, which on September 29 was buried in George W. Davis' peach orchard. From September 30 to October 2, the number of defenders at Gonzales had grown from 18 to about 160. Under command of John H. Moore and J. W. E. Wallace they dug up the cannon, mounted it on ox-cart wheels, filled it with chains and scrap iron, crossed the river and marched toward the enemy. When the Texan scouts discovered the Mexican forces early October 2 they fired their pieces and retired with the Mexicans in pursuit. A discharge from the six-pounder caused the latter to retreat. When the Texans opened with their artillery and charged the enemy his force was driven back in the direction of San Antonio.]]></description>
    <Point><coordinates>-97.4531216617646,29.5006923921583,0</coordinates></Point>
  </Placemark>
  <Placemark>
    <name>Braches House</name>
    <styleUrl>#normal</styleUrl>
    <description><![CDATA[From Gonzales, take U.S. 90 a E about 10 mile, go .5 miles W. on County Road 361.<br/><br/><b>Marker Text:</b> Bartlett McClure and his wife Sarah Ann built a log cabin and settled here in 1831 McClure, the first chief justice of Gonzales County, was a member of the convention of Texas in 1833. This house was built in 1842-43. After Judge McClure's death in 1842, Sarah Ann married Charles Braches, a member of the Republic of Texas Congress. The site of many events in early Texas history, the Braches house is a vernacular interpretation of the Greek revival style. Recorded Texas Historic Landmark - 1962]]></description>
    <Point><coordinates>-97.308098,29.475944,0</coordinates></Point>
  </Placemark>
  <Placemark>
    <name>Branecky School</name>
    <styleUrl>#normal</styleUrl>
    <description><![CDATA[<b>Address:</b> Waelder<br/><br/><b>Marker Text:</b> BRANECKY SCHOOL IN THE MID-1930s, AREA RESIDENTS COMPLETED A FRAME SCHOOL BUILDING AT THIS LOCATION. THE STRUCTURE REPLACED A SMALLER BUILDING NAMED CEDAR SPRINGS SCHOOL. THE NEW SCHOOL WAS NAMED BRANECKY SCHOOL, FOR COMMUNITY LEADERS JOHN AND PAULINA (MACHAC) BRANECKY. THE COUPLE SETTLED IN THIS AREA IN 1896 AND DONATED THIS PROPERTY FOR EDUCATIONAL USE. THE SCHOOL WAS A CENTER FOR COMMUNITY EVENTS, HOSTING MEETINGS, SOCIALS AND DANCES, IN ADDITION TO SCHOOL ACTIVITIES. THE BRANECKY SCHOOL SERVED THE AREA UNTIL 1950, WHEN WAELDER INDEPENDENT SCHOOL DISTRICT ANNEXED BRANECKY SCHOOL DISTRICT #56. THE SCHOOL BUILDING WAS LATER RAZED. (2008)]]></description>
    <Point><coordinates>-97.172737597672,29.6584392681817,0</coordinates></Point>
  </Placemark>
  <Placemark>
    <name>Brown House</name>
    <styleUrl>#normal</styleUrl>
    <description><![CDATA[834 Mitchell St<br/><br/><b>Address:</b> 834 Mitchell St, Gonzales]]></description>
    <Point><coordinates>-97.4446438479682,29.4981181939207,0</coordinates></Point>
  </Placemark>
  <Placemark>
    <name>Bundick Cemetery</name>
    <styleUrl>#normal</styleUrl>
    <description><![CDATA[<b>Address:</b> Nixon]]></description>
    <Point><coordinates>-97.6603259599402,29.2712506133591,0</coordinates></Point>
  </Placemark>
  <Placemark>
    <name>Chenault House (DEMOLISHED)</name>
    <styleUrl>#normal</styleUrl>
    <description><![CDATA[<b>Address:</b> 324 St. Paul St., Gonzales]]></description>
    <Point><coordinates>-97.450716663067,29.500070935345,0</coordinates></Point>
  </Placemark>
  <Placemark>
    <name>Community of Pilgrim</name>
    <styleUrl>#normal</styleUrl>
    <description><![CDATA[from Gonzales, take Hwy. 97 S about 2.25 miles, then take FM 1116 south about 15.2 miles.<br/><br/><b>Address:</b> Pilgrim<br/><br/><b>Marker Text:</b> Named in honor of Thomas J. Pilgrim (1804-1877), noted pioneer educator. Born in Connecticut, he came in 1828 to Texas, where in 1829 he organized a school at San Felipe, in Stephen F. Austin's Colony. Also started first Sunday School in Texas. In 1838 he received a land grant of 1,476 acres (including this site) from Texas Republic. Settled in Gonzales in 1840; started a Sunday School and was superintendent until 1871. Community became a prominent trading post in early 1840s and a hideout of famous gunman John Wesley Hardin in 1870s.]]></description>
    <Point><coordinates>-97.521397,29.296014,0</coordinates></Point>
  </Placemark>
  <Placemark>
    <name>Community of Wrightsboro</name>
    <styleUrl>#normal</styleUrl>
    <description><![CDATA[FM 108,Wrightsboro<br/><br/><b>Address:</b> Wrightsboro<br/><br/><b>Marker Text:</b> Founded in 1851 by L. C. "Jack" Wright. Fellow settlers with a sense of humor gave town name because Wright's burro (donkey) roamed the area at will. A native of Alabama, Wright (1820-1905) was a noted marksman. He served in Confederate Army in Civil War (1861-65), then returned to stock raising here. Was also a county commissioner 10 years. At peak, Wrightsboro boasted many stores and a solid grain and cotton-based economy. Grew to be trade and social center. Local Masonic Lodge, Shuler No. 317, has operated from 1869 to 1915 and 1920 to the present.]]></description>
    <Point><coordinates>-97.56478,29.373128,0</coordinates></Point>
  </Placemark>
  <Placemark>
    <name>David L. Kokernot</name>
    <styleUrl>#normal</styleUrl>
    <description><![CDATA[(private propety) from Gonzales, take US 90-A SE 13 mile to FM 443; go South about 1.5 mile<br/><br/><b>Address:</b> Gonzales<br/><br/><b>Marker Text:</b> Star and Wreath A soldier, officer, scout and courier in the Texas War for Independence, 1835-36. Erected by the State of Texas, 1962]]></description>
    <Point><coordinates>-97.2620789546238,29.4410194693155,0</coordinates></Point>
  </Placemark>
  <Placemark>
    <name>Edward Dickinson</name>
    <styleUrl>#normal</styleUrl>
    <description><![CDATA[Masonic Cemetery, US 183 (Water St.), Gonzales<br/><br/><b>Address:</b> Gonzales<br/><br/><b>Marker Text:</b> Star and Wreath A citizen soldier and volunteer in the San Jacinto Campaign, 1836.]]></description>
    <Point><coordinates>-97.4575996453879,29.5088726445156,0</coordinates></Point>
  </Placemark>
  <Placemark>
    <name>Fleming T. Wells</name>
    <styleUrl>#normal</styleUrl>
    <description><![CDATA[from Gonzales, take 90 A West about 13.25 miles. Private-no access.<br/><br/><b>Address:</b> Gonzales<br/><br/><b>Marker Text:</b> Star and Wreath Born in Orange County; purser in the Texas Navy. Secretary to Captain Jeremiah Brown of the Invincible, died June 2, 1844. Erected by the State of texas, 1962]]></description>
    <Point><coordinates>-97.3085077491752,29.4784523580378,0</coordinates></Point>
  </Placemark>
  <Placemark>
    <name>Gonzales College</name>
    <styleUrl>#normal</styleUrl>
    <description><![CDATA[<b>Address:</b> 820 St. Louis St., Gonzales]]></description>
    <Point><coordinates>-97.4467968955315,29.5019787577412,0</coordinates></Point>
  </Placemark>
  <Placemark>
    <name>Hutson B. Littlefield</name>
    <styleUrl>#normal</styleUrl>
    <description><![CDATA[from Gonzales, take 90-A SE about 13 mile, then go south on FM 443 about two miles.<br/><br/><b>Address:</b> Gonzales<br/><br/><b>Marker Text:</b> Star and Wreath A volunteer soldier who fought in the Texas War for Independence lies here. Erected by the State of Texas, 1962]]></description>
    <Point><coordinates>-97.2620789546238,29.4410194693155,0</coordinates></Point>
  </Placemark>
  <Placemark>
    <name>Kerr's Settlement</name>
    <styleUrl>#normal</styleUrl>
    <description><![CDATA[FM 146 W side of Kerr Creek, near E. city limits, (in gazebo structure), Gonzales<br/><br/><b>Address:</b> Gonzales<br/><br/><b>Marker Text:</b> --]]></description>
    <Point><coordinates>-97.4310856753503,29.5080224124341,0</coordinates></Point>
  </Placemark>
  <Placemark>
    <name>Miller's Store</name>
    <styleUrl>#normal</styleUrl>
    <description><![CDATA[Hwy. 90 W, Waelder.<br/><br/><b>Address:</b> Waelder<br/><br/><b>Marker Text:</b> Erected 1900-1901 by R. L. Miller and Sons. Now owned by 4th generation of family. First store established 1866. Unique bannister features wooden balls carved by the contractor "Cap" Smith. Bullet holes in awning testify to rowdy early era. Recorded Texas Historic Landmark, 1968.]]></description>
    <Point><coordinates>-97.2979825098744,29.6930135656387,0</coordinates></Point>
  </Placemark>
  <Placemark>
    <name>Ottine Cemetery</name>
    <styleUrl>#normal</styleUrl>
    <description><![CDATA[Ottine, FM 1586, approx. 0.5 mi. from intersection with Park Road 11<br/><br/><b>Address:</b> Ottine<br/><br/><b>Marker Text:</b> In 1879, Adolph Otto moved to this area with his wife, Theresia, and their eleven children. He and his sons, John August, Louis, Henry and Albert, constructed the family home, as well as a water-powered grist mill and gin. Due to declining health, Adolph moved to San Antonio, where he died and was buried in 1890. John August (J.A.) resumed the responsibility of building a town here. A bridge built across the river attracted new settlers, and the Otto brothers assisted others with establishing businesses in the new town, named Ottine in 1892. Community members used this site as a burial ground, and the first marked grave dates to 1888. J.A. officially deeded the property to the public in 1929, and the cemetery was in continuous use as the town grew in the first half of the 20th century with a rail line and a brief oil boom. After the 1950s, as people moved into larger cities nearby, the cemetery was neglected and fell into a state of disrepair. A cemetery association formed in 1987 began restoration, upkeep, protection and research, and the old Ottine school bell was moved to the site. Today, the cemetery is in use again, and the numerous tombstones serve to memorialize the Ottine community and its families. Historic Texas Cemetery - 2001]]></description>
    <Point><coordinates>-97.589223,29.596008,0</coordinates></Point>
  </Placemark>
  <Placemark>
    <name>Pilgrim Presbyterian Church</name>
    <styleUrl>#normal</styleUrl>
    <description><![CDATA[from Gonzales, take SH 97 about 2.25 S to Fm 1116 and follow South about 16.2 miles then go SE at Candy Road about 1.25 miles.<br/><br/><b>Address:</b> Gonzales<br/><br/><b>Marker Text:</b> The early Gonzales County settlement of Pilgrim was named in honor of Thomas J. Pilgrim, a noted area educator who had received a Republic of Texas land grant here in 1838. In 1881 residents of the pioneer community established a Union Sunday School in a nearby schoolhouse (1.5 miles S). Early members of the congregation represented the Presbyterian, Baptist, Methodist and Quaker faiths. On November 23, 1883, several Union Church members formed this congregation under the direction of the Rev. J. J. Hodges of Wrightsboro. Begun as a Cumberland Presbyterian Fellowship with the congregational name of Pilgrim Lake, it was an early member of the Guadalupe Presbytery of San Antonio and Austin. A sanctuary was built here in 1886 on land donated by Crawford Burnett. Church members were assisted by local residents in construction and furnishing the building, which became the site of many early camp meetings and summer revivals. Despite a declining area population, the Pilgrim Presbyterian Church has remained active and now serves as a focal point of the surrounding rural region and as a reminder of the pioneer settlers whose descendants still live here.]]></description>
    <Point><coordinates>-97.5168795577396,29.2830447569733,0</coordinates></Point>
  </Placemark>
  <Placemark>
    <name>Reese Family Home (DEMOLISHED)</name>
    <styleUrl>#normal</styleUrl>
    <description><![CDATA[<b>Address:</b> 518 St. Francis St., Gonzales]]></description>
    <Point><coordinates>-97.451889,29.503954,0</coordinates></Point>
  </Placemark>
  <Placemark>
    <name>River Crossing</name>
    <styleUrl>#normal</styleUrl>
    <description><![CDATA[<b>Address:</b> 200 Water St., Gonzales]]></description>
    <Point><coordinates>-97.45451,29.497414,0</coordinates></Point>
  </Placemark>
  <Placemark>
    <name>Salt Flats of Pilgrim Lake</name>
    <styleUrl>#normal</styleUrl>
    <description><![CDATA[from Gonzales, take SH 97 S about 2.25 miles to FM 1116 South. Follow about 13.75 miles S. to roadside area.<br/><br/><b>Marker Text:</b> Long before the arrival of Spaniards or Anglo-Americans, this natural salt source was probably utilized by native Indians. Although not produced in great quantities, salt was processed here by pioneers in the 1800s. In damp weather, salty "dew" forms on the flats.]]></description>
    <Point><coordinates>-97.506043,29.317518,0</coordinates></Point>
  </Placemark>
  <Placemark>
    <name>Site of Hopkinsville</name>
    <styleUrl>#normal</styleUrl>
    <description><![CDATA[FM 196, 5 miles North of Welder.<br/><br/><b>Address:</b> Gonzales<br/><br/><b>Marker Text:</b> Once a thriving pioneer community. Founded by D. S. Hopkins (1819-1917), farmer who settled here in 1852. Located in farm-ranch area. Herds started here, bound for Chisholm trail. Abandoned 1873 when the citizens moved south and founded town of Waelder on newly built railroad.]]></description>
    <Point><coordinates>-97.3117147024024,29.7572251551406,0</coordinates></Point>
  </Placemark>
  <Placemark>
    <name>St. James Missionary Baptist Church</name>
    <styleUrl>#normal</styleUrl>
    <description><![CDATA[7231 FM 532, Gonzalez<br/><br/><b>Address:</b> 7231 FM 532, Gonzales<br/><br/><b>Marker Text:</b> Founded in 1867 on Brasco Lake in nearby Dilworth, Gonzales County, St. James Missionary Baptist Church was a staple of the early Peach Creek Community. Under the leadership of the Reverend Boyd James (1826-1916), the congregation of local formerly enslaved people worshipped under a brush arbor structure until 1879 when they began meeting at a newly-built school. In 1892, St. James bought land of their own. A church was built and rebuilt in 1962. The land has been used for church and community events such as Juneteenth celebrations. For more than 150 years, St. James has been a place of hope, enriching the community through veterans services, youth groups and spiritual guidance. (2022)]]></description>
    <Point><coordinates>-97.309728,29.550665,0</coordinates></Point>
  </Placemark>
  <Placemark>
    <name>Women of the Confederacy</name>
    <styleUrl>#normal</styleUrl>
    <description><![CDATA[<b>Address:</b> 411 St. Lawrence Street, Gonzales]]></description>
    <Point><coordinates>-97.4524512475876,29.502259085518,0</coordinates></Point>
  </Placemark>
</Document>
</kml>
