<?xml version="1.0" encoding="UTF-8"?>
<kml xmlns="http://www.opengis.net/kml/2.2">
<Document>
  <name>Henderson County — Unmapped Historical Markers</name>
  <description>THC markers in Henderson County without an HMDB id (isMissing excluded). 50 with THC coords; 0 geocoded from address; 8 omitted (no usable address). Orange pins are isPending=True — the marker may not be installed yet.</description>
  <Style id="normal">
    <IconStyle>
      <Icon><href>http://maps.google.com/mapfiles/ms/icons/red-dot.png</href></Icon>
    </IconStyle>
  </Style>
  <Style id="pending">
    <IconStyle>
      <color>ff00a5ff</color>
      <Icon><href>http://maps.google.com/mapfiles/ms/icons/orange-dot.png</href></Icon>
    </IconStyle>
  </Style>
  <Placemark>
    <name>Allen Cemetery</name>
    <styleUrl>#normal</styleUrl>
    <description><![CDATA[<b>Address:</b> Murchison<br/><br/><b>Marker Text:</b> This burial ground has served the residents of Murchison since the late 1800s. The Murchison Community, named for confederate officer T.F. Murchison, developed as a station on the Texas and St. Louis railway. A number of individuals and families migrated to Murchison from other states, and the town soon boasted a school, post office, cotton gin, and several businesses and churches. Most area residents were farmers who grew crops including corn, cotton and peaches. Around 1902, Gideon F. Dodson moved to Murchison from Tennessee, joining his son, Hubert, who was already living here. He was joined by his wife, Molly (McCarver), and his children. Dodson was a large landowner and farmer, and served as a unity school board trustee. He purchased land bordering Kickapoo Creek and donated acreage for this cemetery, which was already in use. The oldest marked grave here is of James Mack Pettiet, dating to 1890. Another early interment is of J.C. Allen (d. 1893), whose family is the namesake of this burial ground. The Hardin, Slaton, McGlaun, Caldwell, Adams and Perry families are among other early pioneers represented here. Also interred are community leaders, farmers, ranchers and veterans from conflicts dating to the civil war. The Allen Cemetery association cares for the burial ground, which features vertical stones and fraternal organization markers. Today, Allen Cemetery continues to serve as a reminder of pioneers.]]></description>
    <Point><coordinates>-95.7562312976343,32.3200821526253,0</coordinates></Point>
  </Placemark>
  <Placemark>
    <name>Antioch Cemetery</name>
    <styleUrl>#normal</styleUrl>
    <description><![CDATA[2 mi. SW of Malakoff on CR 1300. Marker reported damaged Aug. 2021, being repaired by cemetery association.<br/><br/><b>Address:</b> CR 1300, Malakoff<br/><br/><b>Marker Text:</b> Located on a two-acre site purchased in 1883 by the trustees of the New Hope Methodist Episcopal Church from J. Thomas and Oma Henry, this cemetery has long served the Black farming community of Antioch. The earliest marked grave is that of Allen Delorah, who died in 1894. The cemetery contains numerous unmarked graves of early settlers and ministers. One of the earliest graveyards in this part of Henderson County, Antioch Cemetery is the burial site for many of the area's pioneers. (1984)]]></description>
    <Point><coordinates>-96.0345402436205,32.1398375305132,0</coordinates></Point>
  </Placemark>
  <Placemark>
    <name>Arthur C. Horton, M.D.</name>
    <styleUrl>#normal</styleUrl>
    <description><![CDATA[4 mi. west of Brownsboro on SH 31, then .4 mi. south on CR 3621<br/><br/><b>Address:</b> Brownsboro<br/><br/><b>Marker Text:</b> (August 27, 1873 - June 6, 1946) A native of Mississippi, Arthur Columbus Horton came to Texas with his family in 1876. He studied medicine at Barnes Medical College in St. Louis, Missouri and the University of Dallas Medical College (later Baylor University College of Medicine). Dr. Horton married Sallie Belle Worsham in 1899, and opened a medical practice in Henderson County, where he served the public for four decades. After the death of his first wife in 1905, Horton married Vinnie Lee Scott in 1906, and they moved from Leagueville to Murchison where he practiced medicine, served as county health officer and, as a member of the school board, was instrumental in the consolidation of local rural schools. He also was active in the local Masonic Lodge, Methodist church, and Red Cross. He later moved his family and practice to Brownsboro, where he remained until his death. Among Dr. Horton's professional accomplishments was his instrumental role in the eradication of malaria from East Texas. He volunteered for medical service during two of Texas' most devastating disasters, the 1900 Galveston storm and the 1937 New London School explosion.]]></description>
    <Point><coordinates>-95.6940565812356,32.2831395002048,0</coordinates></Point>
  </Placemark>
  <Placemark>
    <name>Barker Cemetery</name>
    <styleUrl>#normal</styleUrl>
    <description><![CDATA[5 mi. E of Athens on US 175; 1.25  N on CR 4705<br/><br/><b>Address:</b> Athens<br/><br/><b>Marker Text:</b> Hester (Stovall) and Armstead R. Barker struggled to buy the lands they worked for their former masters, W. C. Larkin and Nat Coleman. When Mrs. Barker died in 1893, her husband set aside 4 previous acres of land to be used as a cemetery by the settlers of the Gum Creek community and their descendants. Although Hester was the first person to be interred on this land, several earlier graves were relocated from their original sites. John Ellick, originally buried on the Barker farm in 1866, is the oldest of these. During the Depression, Lazarus Barker was forced to offer the four acres for sale. Concerned citizens of the Gum Creek and Lease Springs communities formed the Barker Cemetery Association in August of 1933, and by December Barker deeded the land to the association. Others donated land for a driveway to the road. Cemetery maintenance proved difficult for the farming families of the area, but in 1958 the Barker Cemetery Improvement Club sparked new development. A chain link fence, an organized list of graves, and a brick entrance were all completed by 1985. In 1997, over 300 graves had been counted in Barker Cemetery. Still in use, the site is a monument to the vision of Hester and Armstead Barker. (1997)]]></description>
    <Point><coordinates>-95.7730771122257,32.1832147445615,0</coordinates></Point>
  </Placemark>
  <Placemark>
    <name>Beck's Chapel Cemetery</name>
    <styleUrl>#normal</styleUrl>
    <description><![CDATA[<b>Address:</b> 3960 CR 1114, Athens<br/><br/><b>Marker Text:</b> As the final resting place for many of the area’s nineteenth century pioneers, the Beck’s Chapel Cemetery was established near Beck’s Chapel and Beck’s Chapel School, deeded from Stonewall Riddlesperger in 1901. The first recorded burial in the cemetery is that of Nancy Jane (Sherwood) Ward (1848-1900), the first wife of pioneer James “John Henry” Ward (1847-1941). Many of John Henry’s descendants are also buried here. The first son of 1850s pioneer William H. Beck, Robert Lee Beck (1867-1925), and his wife, Josephine (Anding) Beck (1865-1935), are buried here. Robert Beck and the Beck family were farmers in the area and supported the Beck’s Chapel for the community as well as education. A frame schoolhouse existed on the property until 1946. Robert went on to serve as justice of the peace for five terms between 1909 and 1924 and was involved in education as a school trustee. Another pioneer family buried here is the Anding family. Bud David “Buddie” Anding (1887-1946), a school trustee and school board member, and his wife, Lillie (Mills) Anding (1883-1956), are buried here along with family. In addition to pioneer families and civic leaders, there are also veteran burials and woodmen of the world burials and markers. The Beck’s Chapel Cemetery Association formed in 1997 to care for the Cemetery. Situated among the crepe myrtle trees and a large magnolia tree, this historic cemetery is a reminder of the pioneer families of Henderson County and their descendants, citizens dedicated to their families and community. Historic Texas Cemetery – 2016]]></description>
    <Point><coordinates>-95.9201006811996,32.056471753303,0</coordinates></Point>
  </Placemark>
  <Placemark>
    <name>Black Jack Cemetery</name>
    <styleUrl>#normal</styleUrl>
    <description><![CDATA[Off FM 1803, south of CR 3704, west side of the highway. The cemetery and marker are about 800 feet west of FM 1803.<br/><br/><b>Address:</b> FM 1803, Murchison<br/><br/><b>Marker Text:</b> This burial ground has served this area of eastern Henderson county since the mid-1800s, when the Black Jack community was established. Cradled between the towns of Brownsboro and Murchison, Black Jack became a desirable place to settle due to the area’s rich soil, and abundance of water and timber. By the 1870s, community members organized a church. The church building was also used as a schoolhouse. William A. Burns (1819-1880), an area settler, donated land for church and a cemetery, which was already in use. The earliest dated burial is of Susan Adelaide Page, who died in 1869. She was the wife of Holly Page, a noted community and church leader. Among those interred here are pioneers and leaders of the Black Jack community, including confederate veteran, property owner and school trustee W.A. Smith (1844-1926); William F. (1837-1875) and temperance hatton (1833-1899); and William’s brother, confederate veteran James M. Hatton (1835-1877). Other burials include farmers, teachers, veterans of conflicts and other vital members of the Black Jack community. Features in this cemetery include grave slabs, woodmen of the world gravestones, vertical stones, interior fencing and curbing. Today, descendants of the interred continue to care for this burial ground. The cemetery continues to serve the area and remains as a record of the pioneers of the Black Jack community.]]></description>
    <Point><coordinates>-95.710672,32.245591,0</coordinates></Point>
  </Placemark>
  <Placemark>
    <name>Bush W. Wofford Home</name>
    <styleUrl>#normal</styleUrl>
    <description><![CDATA[<b>Address:</b> 1601 Patterson Rd., Athens<br/><br/><b>Marker Text:</b> (RTHL medallion only)]]></description>
    <Point><coordinates>-95.8794735975966,32.2125687272531,0</coordinates></Point>
  </Placemark>
  <Placemark>
    <name>Bushrod W. J. Wofford</name>
    <styleUrl>#normal</styleUrl>
    <description><![CDATA[East Texas Arboretum and Botanical Society<br/><br/><b>Address:</b> 1601 Patterson Rd., Athens<br/><br/><b>Marker Text:</b> Bushrod William John "Bush" Wofford was born in February 1832 to William M. and Mariah Frances Johnston Wofford in Madison County, Alabama. He grew up an only child in Tippah County, Mississippi. His parents died when he was a young man, and he came to Texas in the early 1850s. In 1852, Wofford married Martha A. Miller of Anderson County, Texas. The following year, he bought 320 acres of the Matthew Goliher Survey near Fincastle (25 mi. SE). He built a house, using hand-hewn logs, handmade bricks and, perhaps, an existing cabin structure. His first son, George M. Wofford, was born in February; Martha died a few months later. Wofford remarried to Frances Eliza Ayres of Tippah County in 1855, bringing her to his Fincastle home. It is believed she initiated additions to the cabin, including a long, front gallery porch, two log rooms and a dog run, and clapboard siding. Between 1855 and 1878, Bush and Eliza had nine children, many of whom lived to become successful residents of Henderson County. During his long life, Wofford worked as a farmer and owned a Fincastle mercantile business, called Wofford &amp; Son. He also served as a lieutenant in a reserve unit from Fincastle during the Civil War. Eliza and Bush moved to Athens in 1890. He died in 1891, and he is buried with Eliza at the Athens City Cemetery. The house remained in Fincastle until 2001, when the family donated it for relocation to this site. Wofford descendants provided funds for the restoration of the house and its use as a museum. (2002)]]></description>
    <Point><coordinates>-95.8795791279378,32.2127976940792,0</coordinates></Point>
  </Placemark>
  <Placemark>
    <name>Carroll Springs Cemetery</name>
    <styleUrl>#normal</styleUrl>
    <description><![CDATA[12 mi. S on SH 19, then E on CR 4600 1.8 mi.<br/><br/><b>Address:</b> SH 19, CR 4600, Athens<br/><br/><b>Marker Text:</b> The Carroll Springs Methodist Church and a school began meeting at this site in 1883. The following year, A.M. Carroll, who owned property in Henderson and Anderson counties, set aside nearly five acres here to be used for a school, church and cemetery. The community, which derived its name from the Carroll family and nearby springs, began using this site for burials as early as 1859. The earliest marked grave is that of John Buck Hogg, who died in March 1859, although several others are believed to date to that same year. Generations of area pioneer families are buried in the cemetery, which is also the final resting place of veterans of American conflicts dating to the Civil War. Other area residents buried in Carroll Springs Cemetery include ministers and schoolteachers. Although the Carroll Springs School consolidated with the Athens district in 1947, the Methodist Church continues to serve the area. Today, the cemetery is maintained as a perpetual care burial ground, and members and friends of the community gather annually to remember those who have passed on. Historic Texas Cemetery - 2003]]></description>
    <Point><coordinates>-95.7674751641321,32.0490179135847,0</coordinates></Point>
  </Placemark>
  <Placemark>
    <name>Carroll Springs Methodist Church</name>
    <styleUrl>#normal</styleUrl>
    <description><![CDATA[take SH 19 11.6 mi. south to CR 4600, go east 1.8 mi.<br/><br/><b>Address:</b> Athens<br/><br/><b>Marker Text:</b> This congregation traces its history through several Henderson County Methodist churches. Earliest worship services in Carroll Springs were held in private homes, with the Rev. William D. Sansom occasionally leading them. Worshipers went to county line after a Methodist church was organized there in 1859. The church was moved to New Hope in 1865 with the Rev. Joseph Franklin Lambright as pastor. He continued as the minister when the congregation moved to Coolsprings in 1872. In 1883, the Methodist congregation relocated to Carroll Springs, where it has remained since that time. The forty charter members were served by J. F. Lambright until his resignation in 1891. Other pastors have included his son, the Rev. J. M. M. Lambright, and the Rev. R. E. Gibbs. Carroll Springs Methodist Church traditionally has held a revival under the brush arbor beginning the first Sunday in August. An important part of this rural community, the church continues to reflect the ideals and traditions of its founders. Descendants of many of the charter members still worship here.]]></description>
    <Point><coordinates>-95.7671520879707,32.0487557612192,0</coordinates></Point>
  </Placemark>
  <Placemark>
    <name>Cockerell Hospital</name>
    <styleUrl>#normal</styleUrl>
    <description><![CDATA[NW corner Front and Meredith streets<br/><br/><b>Address:</b> 217 E. Front Street, Eustace<br/><br/><b>Marker Text:</b> In 1929, Dr. Lonnie Lee Cockerell (1879-1969) bought second-story building space on the northeast corner of the Eustace city square. The next year, he opened the first hospital in Henderson County. Dr. Cockerell offered a wide variety of services, ranging from vaccinations to dental work to surgery. Eustace residents came to the hospital for both acute and chronic health issues, and Dr. Cockerell accepted all patients, regardless of their ability to pay for services. In 1937, Dr. Cockerell began construction on a new hospital in Athens. He maintained the Eustace location until completion of the new structure. Although Cockerell Hospital closed in 1937, the physician continued to care for his Eustace patients. (2008)]]></description>
    <Point><coordinates>-96.005634635429,32.3064895964341,0</coordinates></Point>
  </Placemark>
  <Placemark>
    <name>Corporal David Brady Shelton American Legion Post No. 173</name>
    <styleUrl>#normal</styleUrl>
    <description><![CDATA[At the Adult Education Building, in the southwest corner of the Trinity Valley Community College campus. On Park Drive, to the right,  just before you get to the Athens County Club entrance.<br/><br/><b>Address:</b> 412 Park Drive, Athens]]></description>
    <Point><coordinates>-95.8612568804681,32.1944273836003,0</coordinates></Point>
  </Placemark>
  <Placemark>
    <name>Davis Cemetery</name>
    <styleUrl>#normal</styleUrl>
    <description><![CDATA[CR 4511, S side, 0.8 mi. W of CR 4513<br/><br/><b>Address:</b> CR 4511, Larue<br/><br/><b>Marker Text:</b> This burial ground, named for the pioneering Davis family, has served this rural section of Henderson County since the mid-1800s. It was established in the early 1870s on property deeded by J.J. Deupree in 1883. The Baxter community, officially established by 1901 when it became a station for the Texas and New Orleans Railroad, is particularly represented here. Shortly after its founding, the community had a post office, stores, churches, cotton gins and a school. John L. Davis (d. 1873) came to Texas with his wife, Dorcas (Holland) (d. 1874), and their family by 1850. They settled in Henderson County before the Civil War. One of their sons, Archibald Mallard Davis, served as Henderson County sheriff. Others buried here include school trustee and community leader Willie E. Johnson (d. 1960); constable Morton G. Jepson (d. 1941); and Henderson County chief justice Samuel Tyne Owen (d. 1856), who has the earliest marked grave in the cemetery. Owen was reinterred here from another graveyard. The earliest interment in Davis Cemetery is of an infant, Ezra Davis (d. 1872). Also buried here are community leaders and veterans of conflicts dating to the Civil War. Additional property was added to the burial ground in 1952, 1989 and 1994. Cemetery features include vertical stones, curbing, unmarked graves and Woodmen of the World markers. In 1991, the Davis Cemetery Association incorporated to care for the burial ground and establish a trust fund. Today, Davis Cemetery endures as a record of the pioneering families that settled and lived in this portion of Henderson County. Historic Texas Cemetery – 2006]]></description>
    <Point><coordinates>-95.772937,32.142303,0</coordinates></Point>
  </Placemark>
  <Placemark>
    <name>Durham Avant</name>
    <styleUrl>#normal</styleUrl>
    <description><![CDATA[Tool Cemetery, chruch Rd. (CR 2436) off SH 274<br/><br/><b>Address:</b> Tool<br/><br/><b>Marker Text:</b> (1798-1862) A native of North Carolina, Durham Avant came to Texas in 1834 with his wife, Susan (Winsett), and after a time they settled in present day Henderson County. Avant served as a Texas Ranger and in 1850 helped survey and determine a central location for the Henderson County Seat. He later opened a hotel in the new county seat of Athens. His death came shortly after he enlisted in the Confederate army with his son William.]]></description>
    <Point><coordinates>-96.1783219088248,32.2730466828381,0</coordinates></Point>
  </Placemark>
  <Placemark>
    <name>Echols Cemetery on Jennings Mountain</name>
    <styleUrl>#normal</styleUrl>
    <description><![CDATA[Travel hwy 31 east of Athens to Brownsboro; turn right on Ingram Street. Travel about 4 miles. This turns into CR 3600.  Cemetery located to the left side of road. It winds up to the top of Jennings Mountain.<br/><br/><b>Address:</b> 9700 C.R. 3600, Brownsboro<br/><br/><b>Marker Text:</b> Located on the C.B. Jennings survey and atop Jennings Mountain, the four-acre Echols Cemetery was established as a local burial ground for settlers in Brownsboro. Richard O. Echols (1851-1905) and Margaret Ann (Williams) Echols (1859-1939) settled here in 1877 and farmed the land. Echols was a large property owner and civic-minded. He served his community as a school trustee and credit lender. Children Ira Armister Echols (1897-1977), a Henderson County Commissioner (1935-1942), Joe Lee Echols (1892-1943), Callie Eastes (1890-1979) and four infants are buried at Echols Cemetery with their parents. After Richard’s death in 1905, Margaret went on to establish a bank in Brownsboro, focusing on agricultural financing, and became a successful businesswoman. On March 8, 1926, she officially deeded the 37-acre cemetery to the community as a burial ground. The first burial in the cemetery was that of Agnes Merit Hall Hopson (1813-1870), wife of William Hopson. Other burials include John Chambers Barton (1850-1919), the oldest son of Jeremiah Barton, an 1850s settler, along with the burials of John’s first wife, Catherine C. Echols (1850-1876), and their infant (1876). John’s brother, Ruben Cook Barton (1857-1899), and many other Barton descendants rest on the mountain, including lifelong resident, Isaac Anderson Barton (1860-1951), who was a mason, farmer, ginner, and the first mayor of Brownsboro. Many veterans are buried here. An association formed in 1958 to care for this historic cemetery. Historic Texas Cemetery – 2016]]></description>
    <Point><coordinates>-95.6200605236512,32.2763302651386,0</coordinates></Point>
  </Placemark>
  <Placemark>
    <name>Evans Chapel Cemetery</name>
    <styleUrl>#normal</styleUrl>
    <description><![CDATA[<b>Address:</b> Chandler]]></description>
    <Point><coordinates>-95.504527850256,32.2178267551061,0</coordinates></Point>
  </Placemark>
  <Placemark>
    <name>Fincastle</name>
    <styleUrl>#normal</styleUrl>
    <description><![CDATA[approx. 4 mi. N. of Poyner, on FM 315 at CR 4230<br/><br/><b>Address:</b> Poynor<br/><br/><b>Marker Text:</b> One of the earliest settlements in Henderson County, Fincastle developed during the early 1850s. At that time, this part of the state was a center of economic activity with a growing number of plantations and farms. In 1851 John Tindel (1796-1864) purchased 1091 acres in the Juan Jose Martinez survey and later platted the community townsite. He laid out fourteen lots, measuring 60 feet long and 70 yards deep. The community attracted farmers, tradesmen, professional people, and other settlers who came to Texas. Fincastle was the scene of much activity during the Civil War, as Capt. William H. ("Howdy") Martin came in 1861 to raise troops. In addition, a quartermaster and commissary department was established here. By 1880 Fincastle had several stores, a blacksmith shop, cotton gins, saloons, a combination drugstore and doctor's office, several churches, and a school. Farmers from surrounding areas came here to sell their cotton and produce and to buy supplies for their homes and farms. About 1900, most of the members of the settlement moved to the county seat of Athens, and Fincastle declined. A church, the Pioneer Cemetery, and the nearby home of John Tindel are all that remain of this early trade center.]]></description>
    <Point><coordinates>-95.5678743116525,32.1288648625227,0</coordinates></Point>
  </Placemark>
  <Placemark>
    <name>First Baptist Church of Malakoff</name>
    <styleUrl>#normal</styleUrl>
    <description><![CDATA[<b>Address:</b> 220 W. Mitcham St., Malakoff<br/><br/><b>Marker Text:</b> The St. Louis and Southwestern Railroad built a line through Malakoff in 1880. In 1883 a Union church organized by the Reverend Hezekiah Mitcham, which served both Baptist and Methodists, relocated to a site near the railroad. According to local legend, denominational differences which occurred within the church established by Mitcham resulted in thirty-six of its members establishing this Baptist church in 1884. They called themselves the Missionary Baptist Church of Christ. A church building was erected in early 1885 on a town lot owned by W. L. Evans and in 1891 a Sunday School was organized. The sanctuary also served as a community center and provided classroom space on a temporary basis. A new sanctuary was erected at this site in 1894 on land donated by W. A. Martin of Missouri. Membership in the congregation had grown to 152 by 1917, and in 1918 a new frame church building was erected here. The congregation established a Hispanic mission in 1925. The 1918 church building was replaced with a new brick sanctuary in 1954. The congregation added a parsonage in 1964, an education building in 1971, an auditorium in 1982 and homes for a Hispanic mission in 1990. The church continues to serve the community with various programs and activities. (1995)]]></description>
    <Point><coordinates>-96.0145847607643,32.1694394850244,0</coordinates></Point>
  </Placemark>
  <Placemark>
    <name>Goodgame Cemetery</name>
    <styleUrl>#normal</styleUrl>
    <description><![CDATA[6 mi SW on CR 1510<br/><br/><b>Address:</b> 6 mi SW of Athens on CR 1510, Athens<br/><br/><b>Marker Text:</b> This cemetery, named for the pioneering Goodgame family, has served the area since the Civil War era. Purchasing acreage in 1857, Floyd Crockett Goodgame (b. 1807) migrated from Alabama to Henderson County with family including his wife, Hulda Crowson (Fulton) and his two sons, James Allen (b. 1829) and John Anderson (b. 1832). The two sons served in the Civil War, becoming officers in the Confederate army. James Allen and Floyd Crockett Goodgame both passed away in 1869. John Anderson Goodgame, a schoolteacher before entering military service, continued to teach after returning from combat. He married Martha Malinda Chandler (b. 1836), with whom he raised ten children. He was also a determined civic leader, vital to the establishment of the community of Turkey Creek. One of John Goodgame's daughters, Mary Ann, died while he was at war. Hers is the first recorded burial (1863) in this cemetery. In 1901, Goodgame officially deeded two acres of land here for one dollar to three cemetery trustees: Benjamin McGee, E.B. Stokes and Levi Trammell. Among those interred in Goodgame Cemetery are veterans of military conflicts, including the Civil War, World War I, World War II and the Korean War. The cemetery features curbing, interior fencing, grave slabs and Woodmen of the World gravestones. The Goodgame Cemetery Association cares for the burial ground. Today, this cemetery continues to serve the community and carries on as a reminder of the hardworking pioneers of Henderson County. Historic Texas Cemetery – 2006]]></description>
    <Point><coordinates>-95.9223971432869,32.1539508745533,0</coordinates></Point>
  </Placemark>
  <Placemark>
    <name>Goshen Cemetery</name>
    <styleUrl>#normal</styleUrl>
    <description><![CDATA[from Eustace, N 4 mi. on FM 316, then west 2 mi. on CR 2938<br/><br/><b>Address:</b> CR 2938, Eustace<br/><br/><b>Marker Text:</b> The community of Goshen was established after the Civil War. Named for the Biblical "land of milk and honey," the town of Goshen served the rural farms and communities as a marketing center. It was also a rest stop for trail drivers herding cattle on the Chisholm Trail from East Texas. Goshen existed through the latter part of the 19th century when the railroad was built through this area. Merchants moved their businesses to nearby Eustace, a settlement on the new rail line. Goshen Cemetery remains as the last physical reminder of the once-thriving trading center. According to local legend, the cemetery was founded when a nomadic cowboy became sick and died while working on a nearby ranch. A large grave and stone fence mark the burial place of the cowboy. Although many graves are unmarked, the first documented burial is that of Benjamin G. Hooker in 1869. Among the more than 450 marked graves are burials for several infants and children, pioneer settlers and their descendants, and veterans of America's various wars. The cemetery is managed by the Goshen Cemetery Association and continues to serve the area. (1996)]]></description>
    <Point><coordinates>-96.0132649521713,32.3531332058823,0</coordinates></Point>
  </Placemark>
  <Placemark>
    <name>Ham (Pauline)</name>
    <styleUrl>#normal</styleUrl>
    <description><![CDATA[From Eustace, 2 mi. NW on US 175, then 0.4 mi. W on SH 334, then 0.1 mi. S on Pecan Rd (CR 2928)<br/><br/><b>Address:</b> 162 Pecan Rd., Eustace<br/><br/><b>Marker Text:</b> By 1900, a community had developed here on property owned by the Texas and New Orleans Railroad, which laid tracks through the area to create a more direct path to Dallas. The company purchased land in 1898 from attorney Marshal Hamlet "Ham" Gossett. The new town was named Ham in his honor.The settlement grew as many residents moved here to take advantage of the area's land, which was well suited for ranching and farming. By the early years of the 20th century, Ham had three general merchandise stores, a cotton gin, a school and a church building which was used for worship servies, town meetings and social events. The local school was housed in a one-room structure before residents added a second room to accommodate a growing population. In the 1930s, the school consolidated with Eustace School District. Also during that decade, a cannery opened in the community.From its early years, Ham also had a post office; one of the earliest postmasters in the settlement was Henry M. Faulk. Town lore indicates that Faulk made a request to rename the town to Pauline in an attempt to win the admiration of Pauline Riddle, a schoolteacher. The community officially changed its name to Pauline in 1912. By the 1930s, a number of factors, including poor economic conditions and several typhoid fever outbreaks, led to the slow decline of the Pauline community. In 1976, the railroad removed its area tracks and rerouted. Today, few vestiges remain of Pauline, which is remembered as a once-thriving community whose pioneering residents endured trying circumstances. (2008)]]></description>
    <Point><coordinates>-96.0528513712004,32.3281844159255,0</coordinates></Point>
  </Placemark>
  <Placemark>
    <name>Leagueville Baptist Church</name>
    <styleUrl>#normal</styleUrl>
    <description><![CDATA[0.8 miles east of Athens city limits<br/><br/><b>Address:</b> 12081 FM 317, Murchison]]></description>
    <Point><coordinates>-95.6557153009694,32.2307928334533,0</coordinates></Point>
  </Placemark>
  <Placemark>
    <name>Leagueville Cemetery</name>
    <styleUrl>#normal</styleUrl>
    <description><![CDATA[<b>Address:</b> 12081 FM 317, Murchison<br/><br/><b>Marker Text:</b> The Leagueville community developed out of the Aaron York survey. Tradition holds this cemetery began west of an early schoolhouse located on land donated by B.T. and Annie Roberts. The community's pioneer schoolhouse also provided space for religious services, and in 1880 the congregation that would eventually become Leagueville Baptist Church organized there. The oldest marked grave in the burial ground is that of Alabama native Jacob Colvin, who died in 1863. There are many unmarked early graves as well. Among the area pioneer families associated with the graveyard are the Reagans, Adairs, Tindels, Colvins, Bartons and Parkers, and many of their descendants are interred here, as are veterans of military service dating to the Civil War. Over the years, the Rev. Malachiah Reeves, Wes Adair, S.D. Smith and their families donated land to the cemetery. Since the early days of Leagueville community, residents and family members have held homecomings to gather and remember their common heritage that centers on historic Leagueville. The Leagueville Cemetery Association maintains the burial ground. Historic Texas Cemetery - 2004]]></description>
    <Point><coordinates>-95.6560164540992,32.230909119072,0</coordinates></Point>
  </Placemark>
  <Placemark>
    <name>Lollar Cemetery</name>
    <styleUrl>#normal</styleUrl>
    <description><![CDATA[10 miles N of Athens on SH 19 ; right on FM 1861 for .5 mi. Cemetery is located south of FM 1861.<br/><br/><b>Address:</b> Athens<br/><br/><b>Marker Text:</b> THE FIRST DOCUMENTED BURIAL AT THIS SITE WAS THE 1867 INTERMENT OF SAMUEL AND ELIZABETH PARTIN’S INFANT SON, JOHN S. PARTIN. AT THE TIME OF THE CEMETERY’S INITIAL USE, THE PROPERTY WAS OWNED BY ASA DALTON. IT IS BELIEVED THAT THE CEMETERY WAS NAMED AFTER JOHN LOLLAR, A NEIGHBOR WHOSE PROPERTY WAS SITUATED JUST ACROSS THE VAN ZANDT COUNTY LINE, ALTHOUGH WHETHER HE IS BURIED HERE IS UNKNOWN. ADDITIONAL FAMILIES REPRESENTED IN THE CEMETERY INCLUDE FANCHER, BRANNAN, DRIVER, AND LEWIS. THE CEMETERY WAS USED BY AREA FAMILIES FOR MORE THAN SEVENTY-FIVE YEARS; THE LAST BURIAL, OF ELI LOLLAR FANCHER, OCCURRED IN 1944.]]></description>
    <Point><coordinates>-95.839031,32.357155,0</coordinates></Point>
  </Placemark>
  <Placemark>
    <name>Malakoff</name>
    <styleUrl>#normal</styleUrl>
    <description><![CDATA[Municipal Park, N. Terry St. (FM 90 right-of-way)<br/><br/><b>Address:</b> N. Terry St. (FM 90 right-of-way), Malakoff<br/><br/><b>Marker Text:</b> Malakoff began as a settlement known as Caney Creek about one-and-one-half miles north of the present-day town. One of the earliest settlers in the area was a widow from Alabama, Jane Irvine, whose grist mill on Caney Creek became the center of the small community that developed. It came to be known as Mitcham Chapel after a Methodist church by the same name was organized by the Rev. Hezekiah Mitcham in 1852. The name Malakoff was chosen when the post office was established in 1855, since the name Mitcham already had been used for a Texas postal station. Malakoff was a Russian town that had gained attention during the Crimean War (1853-1855). After the railroad was completed through Henderson County in 1880, a new townsite, closer to the rail line, was platted on the Peter Tumlinson survey. "New Malakoff" experienced much commercial growth during the early 1900s with the founding of two banks, a newspaper, telephone service, and other businesses. Lignite coal was discovered near Malakoff in 1912, and the subsequent mining operations came to be Henderson County's largest industry. With its settlement dating to the 1830s, Malakoff is one of Henderson County's oldest towns.]]></description>
    <Point><coordinates>-96.0149465786113,32.1768831837319,0</coordinates></Point>
  </Placemark>
  <Placemark>
    <name>Meredith Campground and Tabernacle</name>
    <styleUrl>#normal</styleUrl>
    <description><![CDATA[take SH 19 9 miles north to CR 3900; go west and north 3 mi. to CR 3901; go west on CR 3901 to marker<br/><br/><b>Address:</b> Athens<br/><br/><b>Marker Text:</b> North Carolina native Eber Meredith, his wife Caroline (Ross), and their four children moved to this area of Henderson County in the 1850s. Eber Meredith bought 320 acres of land in 1859 and purchased an additional 160 acres four years later. In 1875 a schoolhouse was built near the Meredith home. A Methodist church was organized under a brush arbor near the schoolhouse in 1876, and in 1878 Eber Meredith officially deeded ten acres of land for the church. An open-air tabernacle was built that same year, and the first annual camp meeting was held in the summer. The church and camp meeting became known throughout East Texas, and in some years attracted crowds of as many as 2,000 people. One of the area's early settlers, W. A. Barber, died on August 16, 1876, and was buried at the campground. His was the first grave in the cemetery, which eventually grew to include the burials of many early settlers, including Eber and Caroline Meredith and their descendants, as well as veterans of the Civil War, World War I, World War II, and Vietnam. The present tabernacle was erected in 1890. It features a hipped roof with changes in pitch capped by a cupola. Drop shutters cover openings on each side. Recorded Texas Historic Landmark - 1991]]></description>
    <Point><coordinates>-95.871735674787,32.3445897053,0</coordinates></Point>
  </Placemark>
  <Placemark>
    <name>Moorehead-Melton Cemetery</name>
    <styleUrl>#normal</styleUrl>
    <description><![CDATA[from Eustace, 2 mi. NE on CR 2904, E side between CR 2902 and CR 2906<br/><br/><b>Address:</b> 12450 CR 2904, Eustace<br/><br/><b>Marker Text:</b> Located in the Elizabeth Washburn Survey on land owned by Andrew and Nancy Moorehead, this site first served as a burial ground for members of their extended family. Natives of South Carolina, the Mooreheads migrated west and settled in Alabama before moving to Texas by the 1850s. In 1884, Tennessee native Elias Melton and his first wife, Anna (Capps), bought the surrounding farmland. In 1920, Elias and son Charles D. formally set aside land for the community cemetery. Gravesites here predate the founding of nearby Eustace by decades. The earliest marked grave is that of James Weakes, who died in 1870. Others buried here include pioneer area settlers and veterans of military service dating to the Civil War. There are also many early unmarked graves. In 1979, Melton family descendants gave another donation of land, and the site became known as the Moorehead-Melton Cemetery. Maintained by an association, the graveyard is the site of an annual memorial service and business meeting, where area residents, family members and others gather in honor of their common heritage. Historic Texas Cemetery - 2004]]></description>
    <Point><coordinates>-95.986512983242,32.3270307764911,0</coordinates></Point>
  </Placemark>
  <Placemark>
    <name>Mount Zion Baptist Church</name>
    <styleUrl>#normal</styleUrl>
    <description><![CDATA[12 mi. of Athens E on FM 1803S; between Murchison and Leagueville on 1803 near CR 3703<br/><br/><b>Address:</b> FM 1803S CR 3703, Athens<br/><br/><b>Marker Text:</b> Mount Zion Baptist Church organized in 1873 in the rural Black Jack community of Henderson County. Members met under a brush arbor until 1885, when they built their first sanctuary, a small frame structure. The congregation became a charter affiliate of the Henderson County Baptist Association in 1902. That same year, Mr. and Mrs. Joel Morton donated the sanctuary site to the church to secure its location. The Rev. Malachiah Reeves, a resident of Henderson County and veteran of the Civil War, served as the first pastor and as a trustee of Mount Zion. Since his tenure, many pastors have preached at the church while pursuing studies at Baylor University or Southwestern Baptist Theological Seminary. Most of the church's early members were farmers, and the growth of the congregation was slow due to the sparse settlement of the agricultural community. By 1923, however, the congregation had outgrown its original sanctuary and built a new one. The present sanctuary was built in 1940, with later additions including a fellowship hall and Sunday School classrooms, as well as a baptistery. Until then, baptisms were held at many different locations, including small lakes and the First Baptist Church in Murchison. Today, the Mount Zion congregation is active in mission work, and its buildings provide meeting space for community groups. Regular Sunday School classes, and important part of the church since its formation, provide religious education for members of all ages. Mount Zion Baptist Church continues to serve the Black Jack community as a focal point of activity for area residents. (2005)]]></description>
    <Point><coordinates>-95.7112751031323,32.2499370875997,0</coordinates></Point>
  </Placemark>
  <Placemark>
    <name>New Hope United Methodist Church</name>
    <styleUrl>#normal</styleUrl>
    <description><![CDATA[5 miles south of Brownsboro, Texas 75756 on the corner of FM 314 and FM 3607<br/><br/><b>Address:</b> 7943 FM 314 N, Brownsboro]]></description>
    <Point><coordinates>-95.5966284946165,32.250725050578,0</coordinates></Point>
  </Placemark>
  <Placemark>
    <name>New York Baptist Church</name>
    <styleUrl>#normal</styleUrl>
    <description><![CDATA[FM 607 and CR 4334<br/><br/><b>Address:</b> New York<br/><br/><b>Marker Text:</b> Davis (1800-1869) and Catherine Tuggle (1802-1871) Reynolds came to Texas from Georgia in 1856, settling here with their children, their children's families, and their slaves. Devout missionary Baptists, the Reynolds family soon established a community of worship, meeting in private homes. The first church building in the New York community was situated beside the Reynolds family's cemetery land. The church was organized in 1865 with the Rev. M. H. Jones as pastor, according to the records of the Saline Baptist Association. John Harrison and Nancy Walker Reynolds deeded five acres to church trustees for the New York Baptist Church and school building in 1873. The two-story structure was used by the New York Baptists, area Methodists, the school, and the Masonic Lodge. In 1886, John Harrison and Nancy Walker Reynolds deeded land adjoining the Methodist church and New York Cemetery for the use of the Baptist church. A one-room box structure was erected; additional buildings were constructed as needed to accommodate the growing congregation. In 1915 they joined the Southern Baptist Convention, dropping "Missionary" from their name. Revivals and singing were popular. Baptisms were performed at Maggie Branch, New York Creek, and in other locations. In 1947 New York Baptist Church trustees bought the Methodist church property adjacent to their own and built a new Baptist church on the site of the former Methodist church. Descendants of the founders of the New York Baptist Church continue in the traditions of worship and community service. (1998)]]></description>
    <Point><coordinates>-95.6666095511335,32.1658579859946,0</coordinates></Point>
  </Placemark>
  <Placemark>
    <name>Old Rock Hill Cemetery</name>
    <styleUrl>#normal</styleUrl>
    <description><![CDATA[take SH 31 W about 2.5 mi. to FM 3204, go west to cemetery<br/><br/><b>Address:</b> Brownsboro<br/><br/><b>Marker Text:</b> The first known burial in this cemetery, that of Thomas Clark, dates to 1851. He was buried on land that was public domain until 1857 when A. J. Laymance was awarded title to a tract of land of more than 292 acres. The Old Rock Hill Cemetery consists of nearly an acre of land and lies in the southeast corner of the Laymance survey. Many of the early settlers along the Horn Branch and the Kickapoo Creek watersheds are buried here. Martin Horn, for whom Horn Branch is named, and his wife Minda are buried here. Although there are 80 documented burials, several grave markers have become illegible. Among those buried here are John Lindsey, veteran of the War of 1812 and a Cherokee County commissioner, and Civil War veterans Hassell Chandler, John Boatman, and Jacob R. Laymance. The last burial to occur here was in 1913 upon the death of Era Tindel. When roads to this site became impassable during bad weather, a new cemetery was established nearby and named the New Rock Hill Cemetery. In 1983 the Old Rock Hill Cemetery was deeded to the Rock Hill Cemetery Association, which owns and maintains both sites.]]></description>
    <Point><coordinates>-95.5517494915728,32.2925155065479,0</coordinates></Point>
  </Placemark>
  <Placemark>
    <name>Payne Cemetery</name>
    <styleUrl>#normal</styleUrl>
    <description><![CDATA[from Eustace, 3 mi. S on RR 2329, NW corner of RR 2329 and RR 3054<br/><br/><b>Address:</b> RR 2329, Athens<br/><br/><b>Marker Text:</b> Surrounded by a forest of trees, Payne Cemetery is the final resting place for many of the area’s pioneer settlers and their descendants. In the 1870s, early pioneers moved to this area of Henderson County hoping to improve their lives. One early pioneer to the area, William K. Payne (1821-1877), served as a delegate from Henderson County to the Texas Secession Convention, signed the Texas Ordinance of Secession from the Union in 1861 and is the namesake of the town of Payne Springs. He served during the Civil War and was later elected justice of the peace in Henderson County. He and his wife, Martha (Woodward) Payne (1835-1876), are buried here. The first burial is that of Benjamin R. Cook (1869-1874), the young child of Francis Marion Cook (1832-1910) and his wife, Susan (Starr) Cook (1838-1925). One of the couple’s children, George J. Cook (1867-1938), built one of the first brick buildings in Eustace in 1907 and was the vice president of the Eustace Bank for twenty-eight years. He and his wife, Lillie (Melton) Cook (1886-1954), are buried here. Among the hundreds of burials at Payne Cemetery, a large number are attributed to the Ballard, Dixon, Hughes, Jones and Keeton families. Veterans of the Civil War, Spanish-American War, World War I, World War II, Korean War and Vietnam War are also buried here. This cemetery features a variety of headstones including granite, marble, sandstone, wood, fieldstone and concrete. Situated among oaks, pines and crepe myrtles, this historic cemetery is a reminder of the area’s nineteenth century settlers who developed this portion of Henderson County. Historic Texas Cemetery - 2012]]></description>
    <Point><coordinates>-95.9877421096011,32.2529995860654,0</coordinates></Point>
  </Placemark>
  <Placemark>
    <name>Payne Springs Methodist Church and Cemetery</name>
    <styleUrl>#normal</styleUrl>
    <description><![CDATA[just south of SH 198 and FM 316, 4.5 mi. SW of Eustace<br/><br/><b>Address:</b> Eustace<br/><br/><b>Marker Text:</b> For over a century, this church and cemetery have served the community of Payne Springs, originally known as Mallard Prairie. By 1880 the church already had a large membership and met in a log structure. The church building served as a gathering place for elections and political rallies. Summer revivals were held under a brush arbor on the church grounds. The revivals often lasted two weeks and were social as well as religious events. Local tradition indicates the cemetery was started when a child from a family traveling west was buried by a small cedar tree in the churchyard. The first marked grave was that of a mother and daughter who were buried on the other side of the cedar. Elenor Reynolds (1812-1880) and her daughter, Mary Ann Davis (1829-1880), died within a day of each other. The Mallard Prairie School once stood near the church and cemetery. It later moved across the road, and the growth of the cemetery took in land where the school and early church buildings stood. The burial ground now contains over 1,000 graves. An annual July 4th workday evolved into a fund raising event for the cemetery's upkeep.]]></description>
    <Point><coordinates>-96.0698212374619,32.2788433793037,0</coordinates></Point>
  </Placemark>
  <Placemark>
    <name>Providence Baptist Church of Tool</name>
    <styleUrl>#normal</styleUrl>
    <description><![CDATA[<b>Address:</b> Tool]]></description>
    <Point><coordinates>-96.1787294881703,32.2723892271794,0</coordinates></Point>
  </Placemark>
  <Placemark>
    <name>Red Hill Cemetery</name>
    <styleUrl>#normal</styleUrl>
    <description><![CDATA[4 mi. west  of Brownsboro on SH 31, then .4 miles south on CR 3621<br/><br/><b>Address:</b> Brownsboro<br/><br/><b>Marker Text:</b> Settlement in this area began in the 1840s. By 1849 the Red Hill Methodist Church had been established about three miles northwest of here. Sometime prior to 1877 the Red Hill Methodist congregation began to hold camp meetings at this site. In 1877 Smith County resident H. E. Calehan donated more than seven acres here to the Red Hill Methodist Episcopal Church, South. Though a church building was never built at the site, Methodist congregations from the Red Hill and Blackjack communities attended summer revivals here. The religious gatherings, which included brush arbor meetings, became traditional annual events. According to local tradition burials took place here prior to the first recorded interment, that of Joel and Mary Morton's daughter Lucinda in 1877. The site became a community graveyard serving the area's rural community and the towns of Brownsboro, Blackjack, and Murchison. Red Hill Cemetery contains more than 450 marked grave sites. Among the people buried here are many of the pioneer settlers of the area and their descendants and veterans of wars ranging from the Civil War to the Vietnam conflict. The cemetery is maintained by the Red Hill Cemetery Association. Sesquicentennial of Texas Statehood 1845 - 1995]]></description>
    <Point><coordinates>-95.694057249448,32.2831514054439,0</coordinates></Point>
  </Placemark>
  <Placemark>
    <name>Rome Cemetery</name>
    <styleUrl>#normal</styleUrl>
    <description><![CDATA[CR 1109, south of FM 753, 7 mi. SW of Athens<br/><br/><b>Address:</b> Athens]]></description>
    <Point><coordinates>-95.8895599710895,32.1136947554965,0</coordinates></Point>
  </Placemark>
  <Placemark>
    <name>Rounsavall Cemetery</name>
    <styleUrl>#normal</styleUrl>
    <description><![CDATA[<b>Address:</b> Athens<br/><br/><b>Marker Text:</b> This burial ground has served residents of the Flat Creek community since the years shortly after the Civil War. It is named for the Rounsavall family, which settled in Henderson County around 1857. Arba Monroe Rounsavall (1843 – 1926), a businessman who owned and operated a gristmill and later a cotton gin, owned this property. He and his wife, Fannie Emeline (Carter) Rounsavall (c. 1835 – 1887), are among those buried here. Ownership of this land later passed onto their son, farmer and school board trustee James Monroe Rounsavall (1871 – 1952), who is also interred here with his wife, Clyde (also Clide) Oma (Knowles) Rounsavall (1871 – 1939). Other pioneering families represented here include the Carrolls and the Carters. The earliest marked burial in the cemetery is of Annie E. Carroll (1869 – 1875). However, it is believed that James Walling (1797 – c. 1866) is buried in an earlier, unmarked grave. Cemetery features include vertical stones, an entry arch, and benches. Those interred included farmers, community leaders, and veterans of conflicts dating to the Civil War. The cemetery property was deeded to Henderson County in 1946 and subsequently deeded back to the Rounsavall Cemetery Association, which organized in 1959 and continues to maintain the burial ground. Additional property was added in 1991 and 1996. Today, Rounsavall Cemetery serves as a chronicle of some of eastern Henderson county’s earliest pioneers, who through both joys and difficulties established the Flat Creek community.]]></description>
    <Point><coordinates>-95.7328558242746,32.241536059094,0</coordinates></Point>
  </Placemark>
  <Placemark>
    <name>Sand Flat Cemetery</name>
    <styleUrl>#normal</styleUrl>
    <description><![CDATA[<b>Address:</b> FIVE MILES NORTH ON STATE HIGHWAY 19; TURN LEFT AND TRAVEL FOR 2 1/2 MILES ON CR 3907., Athens<br/><br/><b>Marker Text:</b> SAND FLAT CEMETERY IN 1856, JOSEPH M. STIRMAN OF KENTUCKY DONATED FIVE ACRES OF HIS PROPERTY FOR THE BUILDING OF A CHURCH AND SCHOOL REGARDLESS OF RACE, SEX, OR RELIGION, ESTABLISHING THE SAND FLAT COMMUNITY. OF THESE FIVE ACRES, TWO ACRES SIGNIFY THE RESTING PLACE FOR THE AFRICAN AMERICAN COMMUNITY OF THIS AREA. THE FIRST KNOWN BURIAL IN 1884 IS ATTRIBUTED TO CLARRISA ANDREWS ROYALL (1844-1884), THE WIFE OF ABRAHAM “ABE” ROYALL (1835-1911). BOTH ARE BURIED HERE, ALONG WITH THEIR DESCENDANTS. NOTABLE BURIALS ALSO INCLUDE HENRY GIVENS (1843-1923), A SUCCESSFUL FARMER AND SCHOOL TRUSTEE WHO CAME TO HENDERSON COUNTY AS A SLAVE IN 1855, JOSEPH “JOE” MANION, A FARMER AND INFLUENTIAL MEMBER OF THE SAND FLAT COMMUNITY, AND ABE ROYALL, A FARMER AND SIGNIFICANT CONTRIBUTOR TO THE AREA. ALL THREE GENTLEMEN ARE BELIEVED TO HAVE BEEN BROUGHT TO HENDERSON COUNTY AS SLAVES AND THEN GAINED THEIR FREEDOM. BY 1867, ALL THREE MEN WERE REGISTERED ON THE BLACK VOTERS LIST IN HENDERSON COUNTY. THE LANDSCAPE OF THE SAND FLAT, ALSO KNOWN AS SANDFLAT, CEMETERY IS TRADITIONAL WITH CONCRETE, FIELDSTONE, SANDSTONE, AND GRANITE MONUMENTS SURROUNDED BY A CHAIN LINK FENCE AND SHADED BY A VARIETY OF TREES. BURIALS INCLUDE SETTLERS TO THE AREA AND THEIR DESCENDANTS, VETERANS FROM WORLD WAR I, WORLD WAR II, THE KOREAN WAR, AND THE VIETNAM WAR, AS WELL AS BURIALS MARKING FREE MASONS. MANY OF THE GRAVES MARK THE FINAL RESTING PLACE FOR TEACHERS, ADMINISTRATORS AND SCHOOL BOARD MEMBERS WHO WERE DEDICATED TO THE EDUCATION OF THEIR CHILDREN AND OTHERS IN THE SAND FLAT COMMUNITY. THE DESCENDANTS OF THESE EARLY FAMILIES CONTINUE TO LIVE IN THIS AREA AND CARE FOR THE CEMETERY. HISTORIC TEXAS CEMETERY – 2010]]></description>
    <Point><coordinates>-95.883715777372,32.2717747423714,0</coordinates></Point>
  </Placemark>
  <Placemark>
    <name>Science Hill</name>
    <styleUrl>#normal</styleUrl>
    <description><![CDATA[RR 3273 E, ROW; 3.5 mi. SE of Cross Roads, off FM 59S<br/><br/><b>Address:</b> Cross Roads<br/><br/><b>Marker Text:</b> A group of pioneers from Tennessee, Mississippi, Arkansas, and Louisiana founded the Science Hill community when they arrived in this area in 1846. Their hope for the settlement was that it would become a cultural and educational center for the county. Soon after their arrival, the residents started mills, cotton gins, mercantile businesses, churches, and schools. The decade of the 1850s was one of growth and progress for Science Hill. A Methodist church was organized by the Rev. William D. Sansom, and the Science Hill Masonic Lodge began meeting in 1857. Members of the Lodge and other citizens helped found Science Hill academy, which opened in 1858. The first school of higher education in Henderson County, the academy offered classes in arithmetic, geography, history, elocution, Latin, Greek, natural science, and logic. Educator A. J. Fowler (1815-1886) was instrumental in its founding and served as first principal. During the harsh years of the Civil War and reconstruction, families began moving away from Science Hill. The academy closed in 1872. By 1878 the Masonic Lodge had only 12 members, and its charter was surrendered. Science Hill became a ghost town, leaving only its history as a reminder of the community.]]></description>
    <Point><coordinates>-95.9410693265843,32.0278150363168,0</coordinates></Point>
  </Placemark>
  <Placemark>
    <name>Site of Centerville</name>
    <styleUrl>#normal</styleUrl>
    <description><![CDATA[from Gun Barrel City, 3 mi. E, SW corner of Old Hwy 85 and CR 2927<br/><br/><b>Address:</b> CR 2927, Gun Barrel City<br/><br/><b>Marker Text:</b> Replaced Buffalo as county seat, 1848, due to central location in county; on land donated by James Harper Starr (1809-90), Texas statesman. Clerk's records were kept in a log cabin courthouse. When county was reduced in area, 1850, county seat was moved to Athens, and Centerville died. (1973)]]></description>
    <Point><coordinates>-96.08468,32.327625,0</coordinates></Point>
  </Placemark>
  <Placemark>
    <name>Smith Cemetery</name>
    <styleUrl>#normal</styleUrl>
    <description><![CDATA[W on Hwy 31, S on FM 753, W approx. .5 mi. on CR 1210<br/><br/><b>Address:</b> FM 753 at CR 1210, Athens<br/><br/><b>Marker Text:</b> Smith Cemetery Established 1850 Historic Texas Cemetery-2002]]></description>
    <Point><coordinates>-95.9435270875073,32.1619631968635,0</coordinates></Point>
  </Placemark>
  <Placemark>
    <name>St. Paul Industrial Training School</name>
    <styleUrl>#normal</styleUrl>
    <description><![CDATA[SW corner of FM 1214 and Barron Rd.<br/><br/><b>Address:</b> Caney City<br/><br/><b>Marker Text:</b> The historic St. Paul community, a self-sufficient African American settlement, became renowned for its school and its remarkable husband and wife educators. James Willliam Smothers (1896-1975) of Mt. Meggs, Alabama, was a graduate of Hampton Institute (Virginia) and Prairie View College. Alice Olenza Wingfield (1899-2000) of Greenville, Alabama, graduated from Tuskegee Institute (Alabama). Her father established the first institution for underprivileged Afriecan American children in Greenville, influencing young Alice. James and Alice married in 1926 and came to Henderson County to organize St. Paul Industrial Training School. The state department of education had asked Hampton Institute to provide a teacher of scientific agriculture. J.W. As Superintendent and Alice as Principal arrived to find a small schoolhouse for 12 students. Children began arriving from across Texas, and through assistance from the state and benefactors, the campus grew. On Decemeber 26, 1942, a tornado leveled all the school buildings. Undanted, the teachers and students retrieved the lumber and made temporaray buildings. J.W. focused on improving the school's crop and livestock yields to consume and sell for profit. Alice began statewide fundraising, and philanthropists helped build a permanent campus of brick buildings. Beyond the regular curriculum, children learned practical skills in home economics, food canning, blacksmithing, sewing and typing, as well as instruction in music and voice. By the time the school closed in the 1980s, the Smothers and their teachers had served thousands of minority students. J.W. taught young people that "if youn can't read, people will lie to you. If you can't count, they will cheat you. If you are weak, they will push you around, and if you are jittery, the world will keep you jumping." (2008)]]></description>
    <Point><coordinates>-96.044186,32.209985,0</coordinates></Point>
  </Placemark>
  <Placemark>
    <name>Thomas Boucher Wood Family Cemetery</name>
    <styleUrl>#normal</styleUrl>
    <description><![CDATA[<b>Address:</b> Wofford Street, Athens<br/><br/><b>Marker Text:</b> According to family history, Thomas Boucher Wood (1820-1897) was born in Columbus, Mississippi. He attended the University of Louisville in Kentucky in 1843 and again in 1849, at which time he received his doctoral degree in medicine with a thesis on pneumonia. Soon thereafter, Dr. Wood came to this area to farm and practice medicine. He and Susan Amanda Pinson (1833-1873) were married in July 1850. Susan's family were among the earlier pioneers of nearby Mound Prairie in Anderson County. The Wood Family Cemetery is a testament to the harsh conditions of pioneer life. It was established in 1851 when Thomas and Susan's first child, a daughter, was stillborn. Family records indicate that she was buried on the homestead. Thomas and Susan Wood had ten children. Their daughter Mary Josephine (1858-1863) was the next family member to be interred here. The following year the Woods' son, John Felix (1862-1864), died and Susan Amanda Wood miscarried a daughter on the same day. Another unnamed infant girl was stillborn in 1866. Two-year-old Amanda Joe Wood died in 1870. Susan Amanda Wood was buried here in 1873. T. B. Wood and their son, Albert (1853-1879), both succumbed to pneumonia on Albert's twenty-sixth birthday. Another daughter, Tommie Elizabeth Wood Pelham (1856-1884), was buried here next to her four infants. Some of the Wood family slaves are believed to have been buried just outside the family plot. In the late 1990s, Wood descendants returned to the site and restored the cemetery. It serves as a memorial to the Wood family pioneers of Henderson County. (2000)]]></description>
    <Point><coordinates>-95.8435284333398,32.2156147401996,0</coordinates></Point>
  </Placemark>
  <Placemark>
    <name>Trinidad Cemetery</name>
    <styleUrl>#normal</styleUrl>
    <description><![CDATA[Trinidad is located about 16 miles west of Athens on Hwy. 31. Turn left on FM 764; follow through town; turn right on Eaton Street and follow to the dead end.<br/><br/><b>Address:</b> Trinidad<br/><br/><b>Marker Text:</b> On January 30, 1869, Onslow M. Airheart (1834-1883) purchased 1476 acres on the bank of the Trinity River. Airheart was an early pioneer to Henderson County, served as a 1st lieutenant for the Confederate Army and owned and operated a ferry for many years. His wife, Mary, died in 1874 and was buried across the river from their property in Navarro County. Airheart wanted to be buried next to his wife but, when Airheart died on December 22, 1883, he was buried on his property due to flooding conditions. Airheart’s estate was divided among his remaining family. In the early 1920s, the Texas Power and Llight Company purchased around 1700 acres of land that included the Airheart Private Cemetery. The company agreed to provide additional acreage to establish a city cemetery for the town of Trinidad. Additional acreage was added in 1974 and 2002. A cemented floor pavilion and a brick entrance was added. Airheart’s twin brother, Moses C. Airheart (1834-1887), a Civil War veteran, is buried here along with their half-brother, Charles Wesley Airheart (1854-1911). Many of their descendants are buried at the Trinidad Cemetery. Moses Airheart’s grandson, Onclo Merel Airheart (1918-2001), a highly decorated World War II hero who fought alongside Audie Murphy, is also buried here. Another family buried here is the Pulley family. The Pulleys were very involved in the growth of the town of Trinidad. This historic cemetery transformed from a small family cemetery to the Trinidad City Cemetery and is a testament to generations past.]]></description>
    <Point><coordinates>-96.1010539598604,32.1370543623248,0</coordinates></Point>
  </Placemark>
  <Placemark>
    <name>Trinidad Independent School District</name>
    <styleUrl>#normal</styleUrl>
    <description><![CDATA[From Hwy 31 East; travel to Horton Circle taking right turn; left on Park Street; right on West Front Street; left onto McEntire Rd; then turn right onto West Easton St.<br/><br/><b>Address:</b> 105 West Eaton Street, Trinidad<br/><br/><b>Marker Text:</b> TRINIDAD INDEPENDENT SCHOOL DISTRICT THE TOWN OF TRINIDAD WAS FIRST KNOWN AS TRINITY SWITCH BECAUSE OF ITS LOCATION ON THE TRINITY RIVER. IN 1880, WHEN RESIDENTS APPLIED FOR A POST OFFICE, THE NAME WAS CHANGED TO TRINIDAD SINCE THERE WAS ANOTHER LOCATION BY THE SAME NAME. TRINIDAD’S FIRST SCHOOL OPENED IN 1888 IN A SMALL LOG HUT LOCATED ON THE N. ADDISON SURVEY THAT IS NOW KNOWN AS THE TRINIDAD CEMETERY. ONE YEAR LATER, THE TRINIDAD AND MANKIN SCHOOL DISTRICTS BUILT A LOG SCHOOL ABOUT ONE MILE NORTH OF TOWN KNOWN AS THE GADBERRY SCHOOL. IN 1894, THE TWO DISTRICTS DIVIDED AND THE TRINIDAD COMMON SCHOOL DISTRICT NO. 6 WAS FORMED. SCHOOL WAS HELD IN A ONE-ROOM BUILDING ACROSS THE STREET FROM THE OLD CALVARY CHURCH. AROUND 1903, A NEW BUILDING WAS ERECTED THAT SERVED AS A SCHOOL AND THE METHODIST CHURCH. BY 1912, ENROLLMENT OUTGREW THE BUILDING AND LOTS WERE PURCHASED WHERE A THREE-ROOM SCHOOL WAS BUILT WITH SINGLE DESKS FOR THE STUDENTS, JACKETED STOVES AND A LARGE CLOAK ROOM. IN 1925, THE TP&amp;L POWER PLANT OPENED IN TRINIDAD AND THE NEED FOR A LARGER SCHOOL BECAME EVIDENT. THE TRINIDAD INDEPENDENT SCHOOL DISTRICT WAS FORMED BY THE 39TH LEGISLATURE AND, A YEAR LATER, THE NEW SCHOOL OPENED WITH K.B. ADAIR ELECTED AS THE SUPERINTENDENT. DURING THE LATE 1940s, PARENTS ORGANIZED THE PTA AND OPERATED SCHOOL HEALTH CLINICS. A GYMNASIUM WAS ADDED IN 1952. UNDER THE LEADERSHIP OF COACH LEONARD ROLLINS, TRINIDAD WON THE REGIONAL CHAMPIONSHIP IN FOOTBALL IN 1954. THE SCHOOL BOARD INTEGRATED TRINIDAD SCHOOLS IN 1965 FOR GRADES ONE THROUGH TWELVE. FOR OVER A CENTURY, TRINIDAD SCHOOLS HAVE EDUCATED AND FOSTERED THE YOUTH OF HENDERSON COUNTY. (2012)]]></description>
    <Point><coordinates>-96.092074730306,32.1369205122379,0</coordinates></Point>
  </Placemark>
  <Placemark>
    <name>W. H. Howdy Martin</name>
    <styleUrl>#normal</styleUrl>
    <description><![CDATA[S. Palestine Street<br/><br/><b>Address:</b> Athens]]></description>
    <Point><coordinates>-95.8514989101231,32.1871146058353,0</coordinates></Point>
  </Placemark>
  <Placemark>
    <name>Walnut Creek Community</name>
    <styleUrl>#normal</styleUrl>
    <description><![CDATA[Athens, SH 31 W to FM 753, left to CR 1500, then left to Walnut Creek Cemetery<br/><br/><b>Address:</b> FM 753 at CR 1500, Athens<br/><br/><b>Marker Text:</b> Walnut Creek Community As early as 1850, farm families inhabited this area along Walnut Creek. Growing grains, cotton and sugar cane for cash crops, residents also raised livestock and planted family gardens in what became known as the Walnut Creek community. For shipping local products, the closest rail stop to the settlement's center was west, at Daufin. In 1859, residents began worshiping in a brush arbor on a hill above the creek. Nearly 30 years later, in 1884, Mrs. C.T. Scott sold two acres here to trustees of a local Methodist congregation for a sanctuary site. A cemetery developed on land adjoining the church building, used by local Methodists and Baptists, and the first marked grave is that of Sallie E. Weir (d. 1889). In 1899, Henderson County purchased from J.W. Williams an acre adjacent to the church property for Walnut Creek School, which served area children from October through March each year, allowing students to work family lands during the growing season. In 1921, the school district built a brick schoolhouse here; students attended classes in it until consolidation with Athens schools in 1941. As Athens grew and the local economy changed, the Walnut Creek settlement declined in population, but use of the cemetery, which eventually comprised most of the original community center, continued. After a fire in 1939, church members transferred furnishings from the 1914 sanctuary to a congregation that became Crescent Heights Methodist Church. A cemetery board, organized in 1945, maintains and protects the grounds of the graveyard, designated a Historic Texas Cemetery in 2001. In use today, it serves as a reminder of the early agricultural community, a link to the area's history and settlers. (2003) Incising on bottom rim: Researched by John A. &amp; Iona Pinckard Miller]]></description>
    <Point><coordinates>-95.9225594575707,32.17928945658,0</coordinates></Point>
  </Placemark>
  <Placemark>
    <name>William P. Avant</name>
    <styleUrl>#normal</styleUrl>
    <description><![CDATA[Tool Cemetery (CR 2436)<br/><br/><b>Address:</b> Tool<br/><br/><b>Marker Text:</b> (1826-1863) Alabama born William Avant grew up in what is now Henderson County after coming to Texas with his parents in 1834. At the age of 14, he served with his father, Durham, as a Texas Ranger. In 1849 he was issued a land grant in the Mercer colony (NE of present-day Athens) and settled there with his wife, Rutha, and their children. Involved in the building of the road from Athens to Palestine, Avant later enlisted in the Confederate Army and died after one year of service.]]></description>
    <Point><coordinates>-96.17833263786,32.273077865803,0</coordinates></Point>
  </Placemark>
  <Placemark>
    <name>Willow Springs Cemetery</name>
    <styleUrl>#normal</styleUrl>
    <description><![CDATA[10 mi. S. of Athens of FM 59, rt. on CR 1200, travel .5 mi., turn rt. at first cattle guard &amp; travel .2 mi.<br/><br/><b>Address:</b> Athens<br/><br/><b>Marker Text:</b> Likely named for a nearby spring, this cemetery has served Southern Henderson County since 1870, when John and Mary Hand conveyed land for use as a burial site. The property was also used for Willow Springs Church and a school. The earliest known burial here is of Amanda E. (Futch) Pace (d. 1873), wife of county commissioner, the Rev. Madison touchstone pace (d. 1925). Others interred here include community leaders, government officials, farmers, and veterans of conflicts dating to the Civil War. The burial ground features curbing, woodmen of the world monuments, and a number of unmarked graves. Today, Willow Springs Cemetery remains an important link to the pioneering families that lived in this area.]]></description>
    <Point><coordinates>-95.938845416293,32.0930977731013,0</coordinates></Point>
  </Placemark>
  <Placemark>
    <name>Wreay Cemetery</name>
    <styleUrl>#normal</styleUrl>
    <description><![CDATA[<b>Address:</b> Athens]]></description>
    <Point><coordinates>-95.7939026419608,32.3443280073171,0</coordinates></Point>
  </Placemark>
</Document>
</kml>
