<?xml version="1.0" encoding="UTF-8"?>
<kml xmlns="http://www.opengis.net/kml/2.2">
<Document>
  <name>Kendall County — Unmapped Historical Markers</name>
  <description>THC markers in Kendall County without an HMDB id (isMissing excluded). 11 with THC coords; 0 geocoded from address; 6 omitted (no usable address). Orange pins are isPending=True — the marker may not be installed yet.</description>
  <Style id="normal">
    <IconStyle>
      <Icon><href>http://maps.google.com/mapfiles/ms/icons/red-dot.png</href></Icon>
    </IconStyle>
  </Style>
  <Style id="pending">
    <IconStyle>
      <color>ff00a5ff</color>
      <Icon><href>http://maps.google.com/mapfiles/ms/icons/orange-dot.png</href></Icon>
    </IconStyle>
  </Style>
  <Placemark>
    <name>August Ebers House</name>
    <styleUrl>#normal</styleUrl>
    <description><![CDATA[from Comfort take Old State Road 9 fourteen miles to house in Bankersmith<br/><br/><b>Address:</b> Fredericksburg<br/><br/><b>Marker Text:</b> In 1860 August Ebers, a German immigrant, built the east portion of this stone house. It included a kitchen, a "big room", and an upstairs loft bedroom. Before 1880 he added the west wing. Ebers was killed in a well accident in 1884, and his family continued operating the farm. The home became a social center where community dances were held, and served as a polling place during elections. The home remained in the family until 1962. Recorded Texas Historic Landmark - 1983]]></description>
    <Point><coordinates>-98.8194894418864,30.1371623354989,0</coordinates></Point>
  </Placemark>
  <Placemark>
    <name>Dr. Ferdinand Ludwig Von Herff</name>
    <styleUrl>#normal</styleUrl>
    <description><![CDATA[on Malakopf Mountain, 1.5 mile NE of Boerne Via FM 474 and Kennon Ranch Road<br/><br/><b>Address:</b> Boerne<br/><br/><b>Marker Text:</b> (Nov. 29, 1820 - May 18, 1912) The son of a prominent German family and a veteran of the Prussian Army, physician Ferdinand Ludwig Von Herff first came to Texas in 1847. By the 1860s he had set up practice in San Antonio, where he was an active civic leader. His medical innovations made him a prominent physician in the Southwest. Dr. Herff and his wife Mathilde (1823-1910) owned a ranch at this site and, through their interest in the area, led in the development of Boerne. Local residents honored their many contributions with a monument here on Malakopf Mountain, a site favored by the Herffs. (1982)]]></description>
    <Point><coordinates>-98.7151752488647,29.7804966837405,0</coordinates></Point>
  </Placemark>
  <Placemark>
    <name>Early Boerne Settlement</name>
    <styleUrl>#normal</styleUrl>
    <description><![CDATA[100 N. Main St.<br/><br/><b>Address:</b> 100 N. Main St., Boerne<br/><br/><b>Marker Text:</b> Prior to the 1850s, Native American groups, such as Comanche, inhabited the Cibolo Creek Land that would become Kendall County. The country possessed a few existing roads, such as Camino San Saba and Camino Pinta. John James conducted initial surveys in the area and, in 1850, sold 400 acres of land along Camino San Saba on Cibolo Creek to William Friedrich, and it was used as a socialistic farming commune. The unnamed Cibolo Creek commune was populated by seven men from Darmstadt, Germany, with six members of the previous Llano River Bettina colony which had gathered approximately forty members. The Cibolo Creek commune was short-lived but the young men garnered two nicknames: DArmstädters (a region in Germany) and Vierziger (“forty”). Several former Cibolo Creek commune members moved to later settlements in Kendall County and became prominent.
  In 1852, John James and Gustav Theisen platted the adjacent town of Boerne, named after German writer Karl Ludwig Börne, also near Camino San Saba. William Friedrich was an early settler in the new town. Grocer and saloon owner August Staffel became Boerne’s first postmaster in 1856. The town provided travelers a much-needed rest stop along Camino San Saba, now called Fredericksburg Road. The settlement was included in the new Blanco County in 1858, but in 1859, Boerne residents were among those who filed for the creation of Kendall County (1862). Former commune members Adam Vogt, Leopold Schultz, Phillip Zoeller and Christoph Flach held civic leadership roles in the new county seat. Kendall County and Boerne continued to experience growth due to its natural assets and strategic positioning near major roadways.
(2023)]]></description>
    <Point><coordinates>-98.731937,29.79403,0</coordinates></Point>
  </Placemark>
  <Placemark>
    <name>Faltin Homestead</name>
    <styleUrl>#normal</styleUrl>
    <description><![CDATA[Main and Seventh Street, Comfort<br/><br/><b>Address:</b> Comfort<br/><br/><b>Marker Text:</b> German native Theodor Georg Ludwig Goldbeck constructed the original part of this home in 1854, the same year the town of Comfort was founded. In 1856 he sold the house and his mercantile business to Friedrich August Faltin, a merchant who had recently migrated from Prussia. Additions to the residence, completed during his ownership, reflect German influences of pioneer building techniques. For over 125 years it has remained in the Faltin family. Recorded Texas Historic Landmark - 1981]]></description>
    <Point><coordinates>-98.9087409910057,29.9661285287233,0</coordinates></Point>
  </Placemark>
  <Placemark>
    <name>Idlewilde Lodge</name>
    <styleUrl>#normal</styleUrl>
    <description><![CDATA[from Comfort, take FM 473 about 1.5 miles E - turn S onto road to lodge, about .5 mile to site<br/><br/><b>Address:</b> 115 Route 473, Comfort<br/><br/><b>Marker Text:</b> Built in 1902 of Texas long leaf yellow pine with cypress siding and millwork, this structure was first used as a spa by Dr. C. H. Wilkinson of Galveston. In 1906 the property was sold to E. Hugo, who operated "Camp Reliance" here until 1912 when Robert Wilke acquired the land and adopted the name "Camp Good Times". The building was bought by the YWCA in 1918 and served as the main lodge for "Camp Idlewilde", a girls' summer camp, for more than 60 years. Recorded Texas Historic Landmark - 1983]]></description>
    <Point><coordinates>-98.8830716765033,29.9674839226916,0</coordinates></Point>
  </Placemark>
  <Placemark>
    <name>Ludwig Hein Home</name>
    <styleUrl>#normal</styleUrl>
    <description><![CDATA[<b>Address:</b> 727 High Street, Comfort<br/><br/><b>Marker Text:</b> Ludwig Hein (1855-1933) came to Texas from Germany in 1877. He married Rosa Treiber of Waring and built this home for his family before 1900. Hein operated a blacksmith shop next door until the family moved to San Antonio in 1914. The home was known as the "nerve center" of Comfort when the local telephone switchboard was housed here from 1923 to 1955. Features of the Victorian house include its front bay window and bracketed porch supports. Recorded Texas Historic Landmark - 1987]]></description>
    <Point><coordinates>-98.906557484484,29.9663483221467,0</coordinates></Point>
  </Placemark>
  <Placemark>
    <name>Paul Ingenhuett Home</name>
    <styleUrl>#normal</styleUrl>
    <description><![CDATA[<b>Address:</b> 421 Eighth Street, Comfort<br/><br/><b>Marker Text:</b> Young Paul Ingenhuett (b. 1868), born on this block, succeeded his father Peter Joseph in the mercantile business. Soon Paul expanded into farming, sheep and cattle ranching, and helped found Comfort State Bank. In 1891 he married Ida Emma Sophie Flach and they had four children. After noted architect Alfred Giles designed several Comfort buildings, the Ingenhuetts employed him in 1897 to draw plans for this home. The limestone was quarried on family property. Recorded Texas Historic Landmark - 1979]]></description>
    <Point><coordinates>-98.9068242461791,29.9657277298037,0</coordinates></Point>
  </Placemark>
  <Placemark>
    <name>[PENDING] Pinta Trail Crossing of the Guadalupe River</name>
    <styleUrl>#pending</styleUrl>
    <description><![CDATA[<b>⚠ PENDING — marker may not yet be installed at this location.</b><br/><br/><b>Address:</b> Sisterdale]]></description>
    <Point><coordinates>-98.7168817209777,29.9630921342628,0</coordinates></Point>
  </Placemark>
  <Placemark>
    <name>Stieler Ranch House</name>
    <styleUrl>#normal</styleUrl>
    <description><![CDATA[at site, U.S. 87, 6 mile N of Comfort, Texas<br/><br/><b>Address:</b> Comfort<br/><br/><b>Marker Text:</b> Designed and built 1890-1892 by Herman Stieler, German rock mason and local sheep rancher. He came from Germany; hauled freight for Charles Schreiner Company and to Camp Verde. Made this place a shearing station for fellow ranchers. Coaches from nearby stage line often stopped for food, repairs. Style is typical of era. Each floor has two rooms on either side of central "dog trot" hall. Interior was remodeled in 1937. Recorded Texas Historic Landmark - 1970]]></description>
    <Point><coordinates>-98.9259834862491,30.0959577435683,0</coordinates></Point>
  </Placemark>
  <Placemark>
    <name>The Hon. Samuel Boyd Patton</name>
    <styleUrl>#normal</styleUrl>
    <description><![CDATA[FM 3351, 2.8 miles west of Kendalia, east side of highway right-of-way, west of Sansom Road and east of Curry Creek.<br/><br/><b>Address:</b> Kendalia<br/><br/><b>Marker Text:</b> Born in South Carolina in 1787, Samuel Boyd Patton moved to Tennessee as a youth. After serving in the war of 1812, he moved to Alabama, where he held public office and served in the state legislature. In 1837 Patton moved to Texas. He was appointed to the Board of Land Commissioners and was a member of the Congress of the Republic of Texas. He helped organize Blanco County and served as the first chief justice (county judge) from 1858-60. He was the second chief justice in Kendall County in 1865. He died in 1869 and is buried across the field nearby. (1996)]]></description>
    <Point><coordinates>-98.5633629698456,29.9496365546855,0</coordinates></Point>
  </Placemark>
  <Placemark>
    <name>[PENDING] Wren Cemetery</name>
    <styleUrl>#pending</styleUrl>
    <description><![CDATA[<b>⚠ PENDING — marker may not yet be installed at this location.</b><br/><br/><b>Address:</b> 50 Spring Creek Rd., Boerne]]></description>
    <Point><coordinates>-98.692598,29.823455,0</coordinates></Point>
  </Placemark>
</Document>
</kml>
