<?xml version="1.0" encoding="UTF-8"?>
<kml xmlns="http://www.opengis.net/kml/2.2">
<Document>
  <name>Kimble County — Unmapped Historical Markers</name>
  <description>THC markers in Kimble County without an HMDB id (isMissing excluded). 6 with THC coords; 0 geocoded from address; 2 omitted (no usable address). Orange pins are isPending=True — the marker may not be installed yet.</description>
  <Style id="normal">
    <IconStyle>
      <Icon><href>http://maps.google.com/mapfiles/ms/icons/red-dot.png</href></Icon>
    </IconStyle>
  </Style>
  <Style id="pending">
    <IconStyle>
      <color>ff00a5ff</color>
      <Icon><href>http://maps.google.com/mapfiles/ms/icons/orange-dot.png</href></Icon>
    </IconStyle>
  </Style>
  <Placemark>
    <name>Creed Taylor</name>
    <styleUrl>#normal</styleUrl>
    <description><![CDATA[29 miles E of Junction, via FM 479, on CR just E of Little Devil's River; pass Noxville School and continue about 1 mile down CR to cemetery<br/><br/><b>Address:</b> Junction<br/><br/><b>Marker Text:</b> Soldier Texas War for Independence. Gonzales to Bexar, 1835. Scout and courier, 1836.]]></description>
    <Point><coordinates>-99.3907971046307,30.3704011715237,0</coordinates></Point>
  </Placemark>
  <Placemark>
    <name>John L. Jones Ranch</name>
    <styleUrl>#normal</styleUrl>
    <description><![CDATA[from London take US 377 3.3 miles S - then FM 385 4 miles S to FM 1871, go E about 2 miles to marker<br/><br/><b>Address:</b> FM 1871, London<br/><br/><b>Marker Text:</b> Established about 1875 by Jim Ike and John L. Jones (1852-1912). John Jones drove thousands of cattle to Kansas railheads, and by 1885 had his brother's interest in the ranch, which he increased to 25,000 acres. Originally he ran large herds of cattle, but later added sheep and goats to his ranch. He built a stone drift fence, possibly first in county; portions of this still stand. He was persuaded by friends to run for sheriff in 1896, to help rid the county of rustlers; he completed the job in one term. Descendants own much of this original ranch property today. (1973)]]></description>
    <Point><coordinates>-99.5559023779697,30.5723678122168,0</coordinates></Point>
  </Placemark>
  <Placemark>
    <name>Old Log Cabin</name>
    <styleUrl>#normal</styleUrl>
    <description><![CDATA[corner of 4th and College St. (museum)<br/><br/><b>Address:</b> Junction<br/><br/><b>Marker Text:</b> OLD LOG CABIN. TYPICAL OF 1870-80 ERA. BUILT BY EMERY B. PIERCE ON RANCH OF JOHN KOUNTZ, HIS BOSS, 2 MI.S. OF JUNCTION. MOVED HERE AND REMODELED, 1903. RECORDED TEXAS HISTORIC LANDMARK, 1965]]></description>
    <Point><coordinates>-99.7644497526945,30.4885062782516,0</coordinates></Point>
  </Placemark>
  <Placemark>
    <name>Site of Ivy Chapel and School</name>
    <styleUrl>#normal</styleUrl>
    <description><![CDATA[3.3 mi. south of London on US 377, 5.4 mi. SE on FM 385, 1.8 miles west on CR 314<br/><br/><b>Address:</b> London<br/><br/><b>Marker Text:</b> THE IVY COMMUNITY WAS NAMED FOR SAM, JACK AND BOB IVY, BROTHERS WHO MOVED TO KIMBLE COUNTY IN 1883. S. H. IVY DEEDED TWO ACRES OF LAND IN 1898 FOR A SCHOOL SITE AND A STRUCTURE WAS BUILT NEARBY. IN 1917 IVY DONATED ANOTHER TRACT OF LAND, AND A SCHOOLHOUSE WAS BUILT THAT YEAR. THE BUILDING ALSO SERVED AS A COMMUNITY CHAPEL AND PREACHERS HELD SERVICES ONCE OR TWICE A MONTH. THE BUILDING WAS THE SITE OF SOCIAL GATHERINGS, SUCH AS BOX SUPPERS, AND WAS USED AS A VOTING PLACE. ALTHOUGH IVY SCHOOL WAS CONSOLIDATED WITH NEARBY LONDON SCHOOL IN 1939, THE CHAPEL CONTINUES TO SERVE THE AREA. (1996)]]></description>
    <Point><coordinates>-99.5956059413194,30.5458605532831,0</coordinates></Point>
  </Placemark>
  <Placemark>
    <name>Weaver-Bannowsky Cemetery</name>
    <styleUrl>#normal</styleUrl>
    <description><![CDATA[<b>Address:</b> Junction]]></description>
    <Point><coordinates>-99.6785427555445,30.7001790204404,0</coordinates></Point>
  </Placemark>
  <Placemark>
    <name>Wooten Cemetery</name>
    <styleUrl>#normal</styleUrl>
    <description><![CDATA[3 mi. N of Telegraph, south of Cajac Creek on west side of US 377<br/><br/><b>Address:</b> US 377, Telegraph<br/><br/><b>Marker Text:</b> Typical of burial sites chosen by early Texas Hill Country pioneers, Wooten Cemetery was established by April 1880 when one-year-old Cornelius Clay Jackson was buried. His headstone is the earliest grave marker in the cemetery. His mother, P. Jane Jackson, died in 1881 and is interred nearby. Other notable graves include a family group believed to be tuberculosis victims. The plot of the Allsup family is also prominent, as is the grave of Civil War veteran Simon Lee Wooten (1830-1896), for whom the cemetery is named, who came to Texas from Georgia upon the death of the Old South. (1997)]]></description>
    <Point><coordinates>-99.889725,30.374068,0</coordinates></Point>
  </Placemark>
</Document>
</kml>
