<?xml version="1.0" encoding="UTF-8"?>
<kml xmlns="http://www.opengis.net/kml/2.2">
<Document>
  <name>Kinney County — Unmapped Historical Markers</name>
  <description>THC markers in Kinney County without an HMDB id (isMissing excluded). 4 with THC coords; 0 geocoded from address; 3 omitted (no usable address). Orange pins are isPending=True — the marker may not be installed yet.</description>
  <Style id="normal">
    <IconStyle>
      <Icon><href>http://maps.google.com/mapfiles/ms/icons/red-dot.png</href></Icon>
    </IconStyle>
  </Style>
  <Style id="pending">
    <IconStyle>
      <color>ff00a5ff</color>
      <Icon><href>http://maps.google.com/mapfiles/ms/icons/orange-dot.png</href></Icon>
    </IconStyle>
  </Style>
  <Placemark>
    <name>1886 Kitchen/Mess Hall</name>
    <styleUrl>#normal</styleUrl>
    <description><![CDATA[<b>Address:</b> 2-3 Mackenzie Rd, Brackettville<br/><br/><b>Marker Text:</b> The earliest mess arrangements for soldiers at Fort Clark were around open fires along Las Moras Creek near the spring. This building is one of Fort Clark’s eight remaining kitchens and mess halls out of nine built in 1886 to serve each company of enlisted men. It is built with locally quarried limestone and features a pier and beam foundation, double hung windows, masonry openings spanned with timber lintels, and two chimneys for cooking and heating. The building was later used for varied administrative purposes, including day rooms, unit offices, and supply and arms storage.]]></description>
    <Point><coordinates>-100.419730869416,29.3063343352684,0</coordinates></Point>
  </Placemark>
  <Placemark>
    <name>8 Medallions on Officers' Row Quarters</name>
    <styleUrl>#normal</styleUrl>
    <description><![CDATA[<b>Address:</b> 815 Main Street, Brackettville]]></description>
    <Point><coordinates>-100.422267393431,29.3058821911775,0</coordinates></Point>
  </Placemark>
  <Placemark>
    <name>Catholic Church</name>
    <styleUrl>#normal</styleUrl>
    <description><![CDATA[fronts Sweeney Street, just past (south of) where it crosses El Paso Street, Brackettville<br/><br/><b>Address:</b> Brackettville<br/><br/><b>Marker Text:</b> --]]></description>
    <Point><coordinates>-100.417220166734,29.3134621610397,0</coordinates></Point>
  </Placemark>
  <Placemark>
    <name>Ross Home</name>
    <styleUrl>#normal</styleUrl>
    <description><![CDATA[located on Ann Street (Highway 334) directly across from Chamber of Commerce and Masonic Lodge,  Brackettville<br/><br/><b>Address:</b> Brackettville<br/><br/><b>Marker Text:</b> --]]></description>
    <Point><coordinates>-100.417281526051,29.3110527126338,0</coordinates></Point>
  </Placemark>
</Document>
</kml>
