<?xml version="1.0" encoding="UTF-8"?>
<kml xmlns="http://www.opengis.net/kml/2.2">
<Document>
  <name>Menard County — Unmapped Historical Markers</name>
  <description>THC markers in Menard County without an HMDB id (isMissing excluded). 3 with THC coords; 0 geocoded from address; 2 omitted (no usable address). Orange pins are isPending=True — the marker may not be installed yet.</description>
  <Style id="normal">
    <IconStyle>
      <Icon><href>http://maps.google.com/mapfiles/ms/icons/red-dot.png</href></Icon>
    </IconStyle>
  </Style>
  <Style id="pending">
    <IconStyle>
      <color>ff00a5ff</color>
      <Icon><href>http://maps.google.com/mapfiles/ms/icons/orange-dot.png</href></Icon>
    </IconStyle>
  </Style>
  <Placemark>
    <name>Menard County</name>
    <styleUrl>#normal</styleUrl>
    <description><![CDATA[Menard County History Museum (Santa Fe Depot), US 83<br/><br/><b>Address:</b> Menard<br/><br/><b>Marker Text:</b> Formed from Bexar county Created: January 22, 1858 Organized: June 25, 1866 Named in honor of Michel Branamour Menard 1805-1856. Signer of the Texas Declaration of Independence, member of the Texas Congress, founder of Galveston. Menard, the county seat.]]></description>
    <Point><coordinates>-99.790212296941,30.9695745441815,0</coordinates></Point>
  </Placemark>
  <Placemark>
    <name>Mission Santa Cruz de San Saba</name>
    <styleUrl>#normal</styleUrl>
    <description><![CDATA[on grounds of Menard Country Club about .5 mile off US 190, about 1.5 miles W of Menard<br/><br/><b>Address:</b> Off US 190 at Menard Country Club, Menard<br/><br/><b>Marker Text:</b> This building was originally built as a presidio or fort and the Mission was apart from it. After the Mission was attacked and burned by Indians, all personnel moved into the presidio.]]></description>
    <Point><coordinates>-99.8024111782087,30.9219915597701,0</coordinates></Point>
  </Placemark>
  <Placemark>
    <name>Puerto de Baluartes (Haven of the Strong Points)</name>
    <styleUrl>#normal</styleUrl>
    <description><![CDATA[on US 83, 1 mile S of Menard in Roadside Park<br/><br/><b>Address:</b> US 83, 1 mi. S of Menard, Menard<br/><br/><b>Marker Text:</b> In this pass between the hills--location of present day Menard--a site for an important Spanish mission to the Apaches was chosen in 1754 by Don Pedro de Rabago y Teran, second explorer sent on the assignment by the viceroy of New Spain. Suitable to be fortified and farmed, this pass had its mission built in 1757.]]></description>
    <Point><coordinates>-99.7847315931969,30.9012025186557,0</coordinates></Point>
  </Placemark>
</Document>
</kml>
