<?xml version="1.0" encoding="UTF-8"?>
<kml xmlns="http://www.opengis.net/kml/2.2">
<Document>
  <name>Navarro County — Unmapped Historical Markers</name>
  <description>THC markers in Navarro County without an HMDB id (isMissing excluded). 30 with THC coords; 0 geocoded from address; 6 omitted (no usable address). Orange pins are isPending=True — the marker may not be installed yet.</description>
  <Style id="normal">
    <IconStyle>
      <Icon><href>http://maps.google.com/mapfiles/ms/icons/red-dot.png</href></Icon>
    </IconStyle>
  </Style>
  <Style id="pending">
    <IconStyle>
      <color>ff00a5ff</color>
      <Icon><href>http://maps.google.com/mapfiles/ms/icons/orange-dot.png</href></Icon>
    </IconStyle>
  </Style>
  <Placemark>
    <name>Air Activities of Texas, Corsicana Field</name>
    <styleUrl>#normal</styleUrl>
    <description><![CDATA[Corsicana Municipal Airport, 6 miles SE of Corsicana on US 287<br/><br/><b>Address:</b> US 287, 6 mi. S of Corsicana, Corsicana<br/><br/><b>Marker Text:</b> Prior to the United States entry into World War II, the U.S. Government contracted with a number of civilian flying schools to assist in training military pilots for the Army Air Corps. In December 1940 the Air Activities of Texas, Corsicana Field, was authorized to provide primary flight training, the second phase of a three-level process. Construction of the facility on a 400-acre tract of land began here in February 1941, and employed more than 250 laborers. In addition to a landing strip, they built hangars, barracks, offices, maintenance buildings, and a mess hall/kitchen. In March, 51 cadets arrived to complete 10 weeks of intense training. By 1943, each class contained more than 300 cadets. By 1944 8,480 cadets received flight instruction in 37 training classes. The flight school employed more than 550 civilians by January 1944, and provided a significant impact on the local economy. As the war drew to a close, the need for the flight school became unnecessary, and it closed. Post-war use of the property began in 1946 with the opening of Navarro Junior College, which occupied the site until 1951. The City of Corsicana purchased the site in 1963 for a municipal airport. (1996)]]></description>
    <Point><coordinates>-96.396722,32.027652,0</coordinates></Point>
  </Placemark>
  <Placemark>
    <name>Bethel AME Church</name>
    <styleUrl>#normal</styleUrl>
    <description><![CDATA[marker pending<br/><br/><b>Address:</b> 101 North 4th St., Corsicana<br/><br/><b>Marker Text:</b> marker pending]]></description>
    <Point><coordinates>-96.457434,32.096701,0</coordinates></Point>
  </Placemark>
  <Placemark>
    <name>Birdston Valley</name>
    <styleUrl>#normal</styleUrl>
    <description><![CDATA[Birdston Valley, from Streetman, take FM 416 E about 3 miles to CR SE 1270, go N about 1 1/2 miles to fork in road, go left (W) about .1 mile to gate on S side of road proceed through gate to cemetery<br/><br/><b>Address:</b> Off CR SE 1270, via FM 416, about 5 mi. from Streetman, Birdston<br/><br/><b>Marker Text:</b> Developed as a community of former slaves following the Civil War, Birdston Valley takes its name from the nearby settlement of Birdston (2 miles south). Located on Richland Creek bottom lands, residents of the community were primarily farmers. The Birdston Valley Cemetery may have been used as early as 1855, as evidenced by the grave of Willis Kelly (1850-1855), though the marker was probably placed at a later date. A few marked burials date to the 1870s. Many of the community's early settlers are buried here, though some are interred in a nearby slave cemetery. Religious services may have been held in the area as early as 1876. The Goodwill Baptist Church was organized sometime between 1876 and 1883. The first pastor was Isom J. Collins. The first church building was damaged beyond repair in a 1939 windstorm, and was replaced by a second structure. The Birdston Valley Masonic Lodge was organized on August 22, 1907, and met temporarily in a gin owned by Isom J. Collins. A two-story lodge was built, which also served as a schoolhouse for children of the community. The building was destroyed in a 1982 fire and replaced with a one-story structure. Texas Sesquicentennial 1836-1986]]></description>
    <Point><coordinates>-96.31948,31.918562,0</coordinates></Point>
  </Placemark>
  <Placemark>
    <name>Birthsite of Beauford H. Jester</name>
    <styleUrl>#normal</styleUrl>
    <description><![CDATA[W. 7th Ave., S side between S. 15th and S. 16th streets<br/><br/><b>Address:</b> 601 W. 7th Ave., Corsicana<br/><br/><b>Marker Text:</b> (1893-1949)

Governor of Texas (1947-1949)

Chief executive when significant Gilmer-Aikin Law was passed, raising standards of public education in Texas, his administration also made strides toward prison reform, water control, improved public roads.

Jester was born at family home in Corsicana, where he attended public school. He graduated from University of Texas, 1916; left Harvard Law School to serve as captain in 90th division during World War I. Graduated in law from University of Texas, 1920, and became avid baseball player. For many years, Jester practiced law and had oil interests in Corsicana.

In 1946 he was elected governor as a Jeffersonian Conservative. At the inauguration, World War I buddies carried him on their shoulders into the Governor's Mansion, where he had slept as a boy when his father, George T. Jester, was lieutenant governor.

After the disastrous Texas City explosions killed over 400 persons in 1947, Jester personally assisted rescue operations. He was re-elected in 1948. When the legislature adjourned in 1949 after the longest regular session in Texas history, he left to take a vacation in Galveston, but died en route of natural causes. He was the only Texas governor to die in office.

His wife was Mabel Buchanan; they had 3 children. (1968)]]></description>
    <Point><coordinates>-96.468556506665,32.0889089595554,0</coordinates></Point>
  </Placemark>
  <Placemark>
    <name>Chatfield Baptist Church</name>
    <styleUrl>#normal</styleUrl>
    <description><![CDATA[<b>Address:</b> 8323 NE CR 1100, Chatfield<br/><br/><b>Marker Text:</b> Reportedly the owner of one hundred slaves and 1280 acres of land, Robert Hodge settled in this area in 1849. Hodge allowed his slaves to organize two churches -- a Baptist church and an African Methodist Episcopal Church. They shared a building known as the Colored Community Church of Chatfield with the Rev. Z. T. Pardee as pastor. By 1858 the Baptist congregation formed by Hodge's slaves was part of the Chatfield Baptist Church. In that year the Chatfield Baptist Church joined the Richland Baptist Association. During this time, white pastors preached to both white and black congregations, one in the morning and one in the evening. After emancipation many freed slaves remained in the area. They became both sharecroppers and landowners. One distinguished local family was that of Allen R. Griggs (1850-1922), a Baptist minister dedicated to the education of black Texans. His son, Sutton Elbert Griggs (1872-1933), was born in Chatfield. A minister who was heavily involved in Texas Baptist life, Sutton E. Griggs became a noted African American writer. The Navarro Baptist Association was formed in 1887 and the Chatfield Baptist Church transferred its membership to the new organization. The town of Chatfield reached its peak in the 1890s with a population of 500. The Chatfield Baptist Church congregation continues to uphold the traditions of its founders through worship and service to the community. (1999)]]></description>
    <Point><coordinates>-96.4125060449075,32.25043918503,0</coordinates></Point>
  </Placemark>
  <Placemark>
    <name>Dr. George Washington Hill</name>
    <styleUrl>#normal</styleUrl>
    <description><![CDATA[Spring Hill Cemetery, FM 709<br/><br/><b>Address:</b> Dawson<br/><br/><b>Marker Text:</b> Came to Texas in 1837. Indian agent, 1840-41. Member of the Congress of Texas, 1839-1842. Secretary of war under Presidents Houston and Jones. Hill County was named in his honor. Dr. Hill was a graduate of Transylvania University. Born in Tennessee, April 29, 1814; died in Navarro County, Texas, May 29, 1860. His wife Katherine M. Hill, born September 23, 1812; died April 24, 1871.]]></description>
    <Point><coordinates>-96.6995536234193,31.92920876894,0</coordinates></Point>
  </Placemark>
  <Placemark>
    <name>Dunn-Johnston Cemetery</name>
    <styleUrl>#normal</styleUrl>
    <description><![CDATA[From Eureka, go south 2 ¼ miles on SE CR 2240, turn left on SE CR 2230 and go approximately 2/10 mile, turn right on Tonkawa Trail into Arrowhead Development. Follow to the left to El Sueno and turn right, go 1/10 mile. Cemetery is on the left.<br/><br/><b>Address:</b> Eureka<br/><br/><b>Marker Text:</b> James and Isabella (Caufield) Dunn and their children came to Texas in 1832. Their son, James Dunn, Jr. And his wife, Missouri Ann (McGray) Dunn, moved to Navarro County from Robertson County in 1850 along with Dunn’s cousin, David J. Johnston. In the 1850s, a log schoolhouse known as Dunn’s Schoolhouse was built nearby. The earliest burial is that of James Dunn, Jr. Who died in 1865 and was buried on his property. His wife, Ann was buried next to him when she died in 1871. Members of the Johnston family are also buried here in a number of unmarked graves. This historic cemetery is the final resting place for some of the earliest settlers of the Eureka area.]]></description>
    <Point><coordinates>-96.2673992848562,31.9847928723709,0</coordinates></Point>
  </Placemark>
  <Placemark>
    <name>Emhouse Baptist Church</name>
    <styleUrl>#normal</styleUrl>
    <description><![CDATA[<b>Address:</b> N. Seely and Gamble St. off FM 1126, Emhouse<br/><br/><b>Marker Text:</b> Organized in the rural Kelm community (1.5 mi. W) in 1893, this congregation was chartered as the Tinkle Baptist Church under the direction of the Rev. B. N. Price, a pioneer Baptist missionary of the area. Worship services were first conducted in the community schoolhouse, which was located on land donated by early settler Nathan Tinkle. Later the church built a sanctuary adjacent to the school site. In October 1908 the members voted to move the church to Emhouse, which had been established two years earlier along the Trinity &amp; Brazos River Valley Rail Line. The Kelm church building was relocated at this site and served the congregation for 30 more years. A community tabernacle, built in 1914 and in use until the 1940s, was the scene of early revivals which contributed greatly to the church's growth. The Emhouse Baptist Church has played a significant role in the development of the surrounding area. Since the earliest days of Emhouse, it has been a leader in community service and involvement. In addition, the church has been led by a number of prominent Baptist preachers, including the Rev. Dan Sharpley, who grew up here and later served as a missionary in Brazil.]]></description>
    <Point><coordinates>-96.579795,32.162828,0</coordinates></Point>
  </Placemark>
  <Placemark>
    <name>Eureka Cemetery</name>
    <styleUrl>#normal</styleUrl>
    <description><![CDATA[CR SE 3110, 2 mi. east of Eureka on Cemetery Rd.<br/><br/><b>Address:</b> Eureka<br/><br/><b>Marker Text:</b> Settlement in this area began in the 1840s. J. F. and J. M. Floyd, members of the local Richland Associate Reform Presbyterian Church organized in 1876, donated land here in 1878 for church and graveyard purposes. The first recorded burial was that of infant Nellie E. Sloan in 1885. The cemetery has been enlarged over the years and in 1995 contained about 13 acres. Buried here are local religious, education, and business leaders, elected officials, and veterans of conflicts ranging from the Civil War to World War II. The cemetery is maintained by the Eureka Cemetery Association. Sesquicentennial of Texas Statehood 1845 - 1995]]></description>
    <Point><coordinates>-96.2662915747303,32.0162987348957,0</coordinates></Point>
  </Placemark>
  <Placemark>
    <name>Eureka Methodist Church</name>
    <styleUrl>#normal</styleUrl>
    <description><![CDATA[<b>Address:</b> US 287 at CR SE 3100, Eureka<br/><br/><b>Marker Text:</b> Prior to the Civil War, circuit riding ministers began serving Methodist settlers in this area. By the 1880s a formal congregation was organized, and in 1881 land was acquired from Mark H. Bird on which to build a church and establish a graveyard (now known as Bird Cemetery). A sanctuary built that year was destroyed by winds several years later. The church moved to this site in 1902 and has continued to serve the community. Recent building programs have resulted in the construction of an educational building, a parsonage, and a new sanctuary. Texas Sesquicentennial 1836 - 1986]]></description>
    <Point><coordinates>-96.2957248203017,32.0127353627179,0</coordinates></Point>
  </Placemark>
  <Placemark>
    <name>George Taylor Jester</name>
    <styleUrl>#normal</styleUrl>
    <description><![CDATA[<b>Address:</b> 609 W. 7th St., Corsicana<br/><br/><b>Marker Text:</b> (1846-1922) Lieutenant governor of Texas (1894-1898), also father of Beauford Jester, a later Texas governor. As a boy, came from Illinois to Corsicana in a two-horse wagon. Worked on courthouse, first brick building in area, for 50 cents a day. At 18, joined Confederate army but Lee surrendered same year. Married twice, had 5 children. "Clerked" for dry-goods store and traded in cotton before helping form Jester Brothers Bank in 1881. Served as representative (1890-1892) and senator (1892-1894) from Ninth District in Texas Legislature. Was one of the founders of Southern Methodist University. Recorded Texas Historic Landmark - 1967]]></description>
    <Point><coordinates>-96.4685608124495,32.0889072713321,0</coordinates></Point>
  </Placemark>
  <Placemark>
    <name>Grange Hall Cemetery</name>
    <styleUrl>#normal</styleUrl>
    <description><![CDATA[12 mi. NW of Corsicana via SH 22, FM 1126 and FM 2930 (cemetery is on FM 2930 about 1.4 mi. north of FM 1126)<br/><br/><b>Address:</b> Corsicana<br/><br/><b>Marker Text:</b> Established to serve the small farming community of Cryer Creek, Grange Hall Cemetery most likely derived its name from the active farmers' organization known as The Grange. The site was used for a burial ground as early as 1872, five years before Navarro County pioneer Samuel Wilson donated the land for a Methodist Church and churchyard. Those buried here include a number of Civil War veterans, area pioneer families, and members of the Mississippi colony who moved here from Meridian, Miss. in 1870.]]></description>
    <Point><coordinates>-96.6733063187821,32.1409058151003,0</coordinates></Point>
  </Placemark>
  <Placemark>
    <name>Grape Creek Cemetery</name>
    <styleUrl>#normal</styleUrl>
    <description><![CDATA[from Corsicana, take I-45 about 8 miles to CR SE 1050, go 1.3 mi. east to SE 1020, go south about 1.1 mi. to cemetery<br/><br/><b>Address:</b> Corsicana<br/><br/><b>Marker Text:</b> G. W. Eliot donated land at this site for a school, Methodist church, parsonage, and graveyard. Burials in the cemetery began about 1881. The Doolen, Duncan, Eliot, Humphries, Metcalf, Rakestraw, Smith, Stokes, Wimberly, and other families lived in the area at that time. The school consolidated with Navarro in 1928 and the building was relocated. The church meetinghouse was destroyed by fire in 1975. The next year a steel tabernacle was erected. It serves as the location for the annual memorial services of the Grape Creek Cemetery Association.]]></description>
    <Point><coordinates>-96.395710620577,31.9814914078946,0</coordinates></Point>
  </Placemark>
  <Placemark>
    <name>Hopewell Cemetery</name>
    <styleUrl>#normal</styleUrl>
    <description><![CDATA[from Eureka take FM 3243 about 4 mi. west to CR SE 2120, go south to cemetery<br/><br/><b>Address:</b> Eureka<br/><br/><b>Marker Text:</b> Burials at this site on the 1846 Wilson Reed survey date from the 1860s. Hopewell Baptist Church, founded in 1866, erected a church building on adjoining property two years later. The earliest marked grave is that of an infant, John W. Pritchard, who died in 1870. Another gravestone bearing the date 1870 is that of William C. Fouty (1866-1870), is also interred here. In 1875 Joshua Parmer Cox (1824-1881) purchased from J. H. Manning property which included the cemetery site. Cox, whose grave is located here, donated the land beside the church for use as a public burial ground. When the railroad extended south from Corsicana, the town of Navarro (1 mi. N) was laid out and Hopewell Baptist Church moved there in 1907. Navarro became a thriving community, dependent on cattle and farming until the oil boom of the 1920s. The Hopewell Cemetery Association was organized in 1919. Before that time, families traditionally brought picnic lunches and gathered to tend the graveyard on annual workdays. In 1940 the cemetery was enlarged when two adjacent acres were purchased from Hugh and Irene Wilson. The 500 marked graves include those eof veterans of several wars.]]></description>
    <Point><coordinates>-96.3568153148556,31.9845174459488,0</coordinates></Point>
  </Placemark>
  <Placemark>
    <name>Indian Trading Post</name>
    <styleUrl>#normal</styleUrl>
    <description><![CDATA[Pioneer Village, Jester Park, NE corner W. Park Ave. and N. 19th St. See also marker near Dawson, Near Site of Trading Post of Dr. George Washington Hill.<br/><br/><b>Address:</b> 912 W. Park Ave., Corsicana<br/><br/><b>Marker Text:</b> RTHL medallion only]]></description>
    <Point><coordinates>-96.4760138346985,32.0946629134313,0</coordinates></Point>
  </Placemark>
  <Placemark>
    <name>Josiah Martin Daniel</name>
    <styleUrl>#normal</styleUrl>
    <description><![CDATA[SW 1st and Colket streets<br/><br/><b>Address:</b> 100 block S. Colket Ave., near SW 1st St., Kerens<br/><br/><b>Marker Text:</b> (January 27, 1880 - February 20, 1968) Josiah "Joe" Martin Daniel was born in Wadeville to Theophilus Smith Daniel and Lelia Wisener Daniel. He was reared in Kerens and attended military school in North Carolina, graduating in 1900. He attended the University of Texas at Austin, but left in 1904 when a boll weevil infestation in Navarro County destroyed his family's cotton crop and their finances were diminished. Daniel worked at the First National Bank of Kerens and married Nellie Mae Hines of Tyler. Widowed in 1907, he married Jessie Mae Johnson of Corsicana in 1911. By 1913 he was a partner in the insurance firm of Daniel &amp; Stockton. He joined the Texas National Guard and became mayor of Kerens. He was reelected twice and resigned in 1916 to go on active duty for the National Guard. He was called up to the U. S. Army in its operations in west Texas in pursuit of the Mexican revolutionary Pancho Villa. During World War I he served in the army's 36th Division and was discharged as a captain. Joe Daniel went to work for the Lone Star Gas Company about 1929. He moved to Abilene in 1931, and to Corsicana in 1937. During and after World War Ii Daniel served in the Texas State Guard, retiring in 1954 with the rank of colonel. Daniel assisted Gov. Beauford Jester of Corsicana in creating the Veterans Affairs Commission in 1947. As its first chairman, he led the commission in providing valuable services to more than one million Texas veterans. Joe and Jessie Daniel returned to Kerens in 1952, shortly after his retirement from business, and his Veterans Commission term ended in 1953. Daniel served Kerens and Navarro County in a variety of civic, economic and historic preservation activities. (2000)]]></description>
    <Point><coordinates>-96.2277911057368,32.131528035567,0</coordinates></Point>
  </Placemark>
  <Placemark>
    <name>Kerens</name>
    <styleUrl>#normal</styleUrl>
    <description><![CDATA[<b>Address:</b> 100 block of SW 1st St. at S. Colket St., Kerens<br/><br/><b>Marker Text:</b> The Texas &amp; St. Louis Railway built its narrow gauge line through Navarro County in 1881 and surveyed a 270-acre townsite here. The settlement was named for Richard C. Kerens (1842-1918), an official of the railroad in St. Louis, Missouri, who evidently never saw the town. Streets and blocks were laid out in relation to the railroad, and some streets were named for railroad officials: Senter, Humphreys, Goodman, and Sloss, renamed for Kerens' daughter Mrs. Hamilton Colket, who visited here in 1941. The railroad became standard gauge in 1887, and was renamed St. Louis Southwestern in 1891. Isolated cotton farmers moved from the prairie into the new town, and many residents of Wadeville (then two miles south) transferred their homes and businesses. In 1883 Theophilus Smith Daniel (1851-1933) moved his 1878 house from Wadeville to 200 S. Throckmorton Street in Kerens. Daniel was elected in 1888 to the first city council and was president of the first bank, established in 1900. The first cotton gin was built in 1883, and cotton seed oil was processed after 1899. City gins produced 23,000 bales of cotton in 1933. The building of a state highway in 1931 along Second Street, and decline of the cotton industry greatly altered Kerens' growth and economy. Texas Sesquicentennial 1836 - 1986]]></description>
    <Point><coordinates>-96.2277727128176,32.131438223816,0</coordinates></Point>
  </Placemark>
  <Placemark>
    <name>Kerens Presbyterian Church</name>
    <styleUrl>#normal</styleUrl>
    <description><![CDATA[<b>Address:</b> 301 SE Third St., Kerens<br/><br/><b>Marker Text:</b> This congregation originated in the community of Wadeville (3 mi. S), where a Cumberland Presbyterian Church was organized at the home of Noble Wade (1808-1878) on June 5, 1869. The first church building also served as a school and Masonic Lodge hall. In 1881, when Kerens was founded along the railroad, the congregation purchased this lot and completed a church building in 1883. They shared this facility with the Baptists and the Methodists for several years. Four members of this church have entered full-time Christian ministry.]]></description>
    <Point><coordinates>-96.2246035286715,32.1298527459778,0</coordinates></Point>
  </Placemark>
  <Placemark>
    <name>L. P. Hodge Home</name>
    <styleUrl>#normal</styleUrl>
    <description><![CDATA[<b>Address:</b> Corsicana]]></description>
    <Point><coordinates>-96.4149337067423,32.2416582906746,0</coordinates></Point>
  </Placemark>
  <Placemark>
    <name>Lawrence Family Cemetery</name>
    <styleUrl>#normal</styleUrl>
    <description><![CDATA[20664 FM 709 N, 4 mi. north of Dawson<br/><br/><b>Address:</b> Dawson<br/><br/><b>Marker Text:</b> Situated on the 1835 land grant of David McCandless (1791-1876), who came to Texas as a Robertson colonist, this cemetery site was later owned by his daughter and son-in-law, Macca Orange (1831-1925) and Joseph Thompson Lawrence (1825-1885). The cemetery was opened in 1868 with the burial of their 6-year-old daughter, Sarah Medora. The graves of another daughter, Ann Eliza (1853-1942), and her husband, George Washington Savage (1826-1899), are also here. Deeded by Macca Lawrence in 1913, the burial plot is maintained by descendants.]]></description>
    <Point><coordinates>-96.7589366039206,31.9314062015375,0</coordinates></Point>
  </Placemark>
  <Placemark>
    <name>Long Prairie Cemetery</name>
    <styleUrl>#normal</styleUrl>
    <description><![CDATA[5 mi. S on SH 309, 0.25 mi. W on SE CR 3230<br/><br/><b>Address:</b> CR 3230, Kerens<br/><br/><b>Marker Text:</b> In 1870, Lawrence S. Taylor sold five acres of land for school and church purposes to Nelson Owen, J.T. Selman and W.B. Gage, trustees of the Long Prairie School District. The Long Prairie School and the Long Prairie Methodist Church shared the site, which the community also used as a cemetery. The school district consolidated into the Kerens Independent School District in 1949. Around that same time, the church merged into the Kerens Methodist Church, and the school district and the church sold their respective land at this site to the Long Prairie Cemetery Association. The first burial at the graveyard, which is also known as Alligator Cemetery, is that of Sallie K. Burt, a child who died in 1872. Many graves are marked with fraternal organization symbols, and several belong to veterans who fought in conflicts dating back to the Civil War. The names of these Long Prairie residents and their families, friends and neighbors serve as reminders of the community's history, from settlement through hardships and success. Historic Texas Cemetery - 2003]]></description>
    <Point><coordinates>-96.1985153102682,32.0597086283571,0</coordinates></Point>
  </Placemark>
  <Placemark>
    <name>Magnolia Oil Refinery</name>
    <styleUrl>#normal</styleUrl>
    <description><![CDATA[<b>Address:</b> 1604 S. 15th Street (FM 709), Corsicana<br/><br/><b>Marker Text:</b> Corsicana is recognized as the birthplace of the Texas oil industry which led to the formation of several prominent oil businesses. The first commercial oil refinery in Texas was built in Corsicana in 1898. Mayor James E. Whiteselle invited Joseph S. Cullinan, a talented manager with standard oil in Pennsylvania, to visit Corsicana and offer advice. In 1897, Cullinan came to Corsicana and quickly transferred his efforts. With a group of investors from back east, Cullinan formed the J.S. Cullinan Company, predecessor to the Magnolia Petroleum Company (Mobil Oil), to build the refinery. By December, the installation was complete with four stills, each twelve feet in diameter and thirty feet long, arranged in a row. Each firing still held 500 barrels of crude. The first batch of crude at the refinery was fired on Christmas Day in 1898 by W.C. Ralston. To market his product, Cullinan persuaded businesses across the region using coal to switch to fuel oil and provided a model for future oil endeavors. In 1911, the J.S. Cullinan company merged with several newer companies to form the Magnolia Petroleum Company (Mobil Oil), the legendary Texas oil company symbolized by the flying red horse. The refinery ceased operations in 1941, but the tank farm and pipelines at the site continue in operation. Exxon Mobil, successor of Magnolia Petroleum and Mobil Oil, continues to maintain one of the four original brick-lined firing stills from the original refinery. Magnolia Petroleum and other founders of oil industry titans to come found their start in the Corsicana oil field and are remembered as forerunners in the industry.]]></description>
    <Point><coordinates>-96.463273,32.076879,0</coordinates></Point>
  </Placemark>
  <Placemark>
    <name>Navarro Mills Community</name>
    <styleUrl>#normal</styleUrl>
    <description><![CDATA[from Dawson, take SH 31 about 4 mi. NE to FM 667, go north on 667 about 1 mi. to marker on west side of road<br/><br/><b>Address:</b> Dawson<br/><br/><b>Marker Text:</b> A flour mill built here in the 1860s drew pioneer commerce to this site. Flour was a luxury, used mostly for yeast bread, cakes, and biscuits served on Sundays or special occasions. People traveled for considerable distances with their wheat, and waited sometimes for days to have it ground. The original mill property was bought from R. A. Younger in 1867 by John Summers and sons. Several local residents owned shares in ensuing years. The waters of Rock Creek furnished power. Besides this mill and a cotton gin, there may have been other mills here. The Navarro Mills Post Office opened in 1874. A store, school, blacksmith shop, and other facilities were developed. Local leaders included Confederate veterans W. C. French (1821-97) and R. J. Wright (1837--1926). The flour mill ceased operating in 1881. The post office closed in 1882, to be revived only briefly in later years. The community continued to thrive, however. An 1880s newcomer was a former county judge, James C. Key (1817-1910), whose surname survives in the landmark Tandy Key Road. The cemetery, the Baptist church that was formed in 1901, and the tabernacle built in 1915 mark the site of the historic village.]]></description>
    <Point><coordinates>-96.6829693781519,31.9575154461616,0</coordinates></Point>
  </Placemark>
  <Placemark>
    <name>Near Site of Trading Post of Dr. George Washington Hill</name>
    <styleUrl>#normal</styleUrl>
    <description><![CDATA[Liberty Hill Park, Navarro Mills Lake, 0.4 mi NW of park entrance near lakeshore<br/><br/><b>Address:</b> 18520 FM 709, Dawson<br/><br/><b>Marker Text:</b> (1814-1860) Dedicated frontier physician and public servant to the Republic and State of Texas. Born in Tennessee, Hill received his medical degree from Transylvania University. He came to Texas in 1836, where he was a surgeon for Fort Houston at the opening of his lifelong practice. In 1837 Hill became the medical censor for Milam County. Later that year, he moved to newly created Robertson County, where he married Miss Matilda Slaughter. He entered public office as Robertson County Representative in the Congress of the Republic, 1838-41 and 1842-43. In 1838 Hill was reported operating a trading post near here. His home, called Spring Hill, became the first settlement in Navarro County. Later that year, however, it was connected with a tragedy. A few days after spending the night at Hill's place twenty-one surveyors (including Hill's brother) were virtually annihilated by several hundred Kickapoos. Hill was named Indian agent for the Republic in 1841, and in 1843 he became secretary of war. After Texas joined the Union he served in the Legislature. Throughout these years he continued to practice medicine, facing many dangers in order to render aid. In 1853 Hill County was named in his honor. (1970)]]></description>
    <Point><coordinates>-96.7214937336983,31.9518749180978,0</coordinates></Point>
  </Placemark>
  <Placemark>
    <name>Oil City Iron Works</name>
    <styleUrl>#normal</styleUrl>
    <description><![CDATA[S. 12th St., E side between W. 12th and W. 16th avenues, restricted access/private property.<br/><br/><b>Address:</b> 814 S. 12th St., Corsicana<br/><br/><b>Marker Text:</b> This modern plant grew from the small machine shop and foundry started on this site in 1866 by John Winship (1826-86) to make parts for his cotton gin. He sold the operation in 1886 to businessmen Joseph Huey (1827-1904), James Garitty (1842-1925), and J. E. Whiteselle (1851-1915), who named it the Corsicana Manufacturing Company. In 1898, the factory was leased to William Clarkson (1858-1941), a South Carolina native who came to Texas after the Civil War. He renamed it the Oil City Iron Works, because this area was then in the midst of an oil boom. He bought the company in 1908 and became president after it was incorporated in 1921. In addition to parts for cotton gins, the plant began making castings for the oil and building industries. It was converted to defense production during World War II (1941-45). When the importance of cotton declined here after the war, Oil City Iron Works diversified its operation to provide castings for the oil field, road building, farm machinery, and other industries. In 1960 it pioneered in certain uses of ductile iron and today supplies major companies around the United States. With a workforce of 325, the plant now ranks among the three largest employers in Navarro County and in the top ten per cent of the nation's foundries. (1970)]]></description>
    <Point><coordinates>-96.4612672811304,32.0858025400549,0</coordinates></Point>
  </Placemark>
  <Placemark>
    <name>Pisgah Ridge</name>
    <styleUrl>#normal</styleUrl>
    <description><![CDATA[From Richland, SW on FM 1394, which later joins RR 3194; just N of intersection with RR 641<br/><br/><b>Address:</b> FM 1394, RR 641, Richland<br/><br/><b>Marker Text:</b> Pisgah Ridge, known locally as "The Ridge" or "Pizgy Ridge," is an outcropping that begins at the northern extremity of the Tehuacana Hills about 12 miles south of Corsicana near the confluence of Richland and Pin Oak creeks. The peak of the limestone ridge, named for the biblical Mount Pisgah, was recorded at the altitude of 561 feet above sea level, but a landowner in the 1950s leveled it, reducing its elevation. The ridge contains many caves, but because of the soft limestone, most are greatly eroded. The two area creeks provide a natural supply of fish and mussels, and that coupled with the presence of game attracted settlers for centuries. In 1830, Cherokees reportedly burned a village south of the ridge that had been occupied by both Tonkawa and Tawakoni tribes. Within several years, settlers of European descent began arriving. Around 1850, a stagecoach inn near Richland Crossing, on the northern end of the ridge, served travelers. The Springfield Road traversed Navarro County across the ridge, and in addition to the stagecoach inn, pockets of settlers created communities in the area. Of the four settlements that developed along the ridge, Richland Crossing was the northernmost, followed by Mt. Pisgah, Mt. Nebo and Rushing. As more settlers came to the area, it gained a reputation for lawlessness, in part because of a feud between the Love and Anderson families, as well as an association with outlaw John Wesley Hardin. The railroad bypassed the area in the 1870s, and the new settlement of Richland drew residents away from the early Pisgah Ridge communities. Today, the ridge is a point of geological and historical interest. (2006)]]></description>
    <Point><coordinates>-96.4935149744922,31.8512239739669,0</coordinates></Point>
  </Placemark>
  <Placemark>
    <name>Raleigh Cemetery</name>
    <styleUrl>#normal</styleUrl>
    <description><![CDATA[From Blooming Grove, go S. on FM 55 about 5 mi., go W. on FM 744 about 2 1/2 miles to NW 3020, go SE about 4/10 mile to gate on E. side of Rd, follow dirt Rd 2/10 mi. to cemetery (on private prop)<br/><br/><b>Address:</b> Frost<br/><br/><b>Marker Text:</b> Raleigh Cemetery was named for the community of Raleigh, an early settlement in Navarro County. Raleigh's post office was established in 1900, and for a time the town maintained a church, grist mill, blacksmith shop and school. Although the first marked grave is that of Lauretty Frost (1852-54), Raleigh Cemetery was not mentioned in the Navarro County deed books until 1885, when A. Barry and his wife, M. E. Barry, set aside 1.5 acres of land for a burial ground. The cemetery, which is still in use, contains approximately 170 graves.]]></description>
    <Point><coordinates>-96.6989652286044,32.0090820877908,0</coordinates></Point>
  </Placemark>
  <Placemark>
    <name>Rural Shade</name>
    <styleUrl>#normal</styleUrl>
    <description><![CDATA[5 mi. S of Kerens on SH 309; 2.2 mi. E on Fm 635<br/><br/><b>Address:</b> Kerens<br/><br/><b>Marker Text:</b> As early as 1850 there were several families living in the area near the Wildcat Ferry on the Trinity River. In 1852 a gravel road designed to be the best route from Corsicana to the Wildcat Ferry ran directly through this community. In 1858 Washington Ingram became the first postmaster of Rural Shade. A school district was created in 1867. In 1888, Rural Shade Baptist Church of Christ was established and land was deeded to the community for a school and a church to be shared by the Methodist Episcopal, Christian, and primitive and missionary Baptist churches. Many early settlers were farmers living in log cabins with dirt floors. By the turn of the century there were several fine large homes, most still surrounded by barns filled with livestock. In 1917 church membership was 237. School enrollment had reached 305 pupils by 1929. Rural free delivery began in 1912; Rural Shade continued to grow until World War II, when many young people departed for cities and did not return. In 1953 a community center was created in the school building on this site. Ex-students reunited each July through the 20th century. (1998)]]></description>
    <Point><coordinates>-96.1376214638972,32.049783558578,0</coordinates></Point>
  </Placemark>
  <Placemark>
    <name>The First National Bank of Corsicana</name>
    <styleUrl>#normal</styleUrl>
    <description><![CDATA[<b>Address:</b> 100 N. Main, Corsicana<br/><br/><b>Marker Text:</b> An institution whose history reflects rise of a landmark city. Corsicana was founded about 1850. In 1871, when the Houston &amp; Texas Central gave the town rail connections with national commerce, two former H. &amp; T. C. employees established this bank as a private concern. The men were Capt. James Garitty (1842-1925), experienced as a bank clerk, and Joseph Huey (1827-1904), a tin and hardware dealer. The firm was called Garitty, Huey &amp; Company, and served cotton growers as well as ranchers and cowboys driving cattle to the railroad. By 1886 their business had expanded so greatly that they incorporated and obtained a charter for the First National Bank of Corsicana, with capital of $125,000 and surplus of $75,000. Drilling for a new municipal water well in 1894 brought first major oil and gas discovery in Texas. The pioneer field developed first use in the state of natural gas in lighting and heating, first use of petroleum for railroad locomotives, first use of oil in highway surfacing. Texas' first refinery was built in Corsicana. During and after the years of petroleum industry development, the city gained other business and cultural advantages, with this bank giving aid and leadership in many phases of civic progress.]]></description>
    <Point><coordinates>-96.464912966352,32.0930531523944,0</coordinates></Point>
  </Placemark>
  <Placemark>
    <name>The Scales-Fortson House</name>
    <styleUrl>#normal</styleUrl>
    <description><![CDATA[<b>Address:</b> 220 N. 14th Street, Corsicana<br/><br/><b>Marker Text:</b> This residence was constructed in the 1890s by H. L. Scales, owner of a local gin and cottonseed oil mill. In 1911 it was purchased by John Thompson, president of the Corsicana National Bank. It became the home of banker and landowner Joe B. Fortson in the 1920s and remained in his family until 1976. The galleried house features Victorian and Classical Revival detailing and interior woodwork of walnut, maple, and redwood. Recorded Texas Historic Landmark - 1980]]></description>
    <Point><coordinates>-96.4693005443616,32.0929425264519,0</coordinates></Point>
  </Placemark>
</Document>
</kml>
