<?xml version="1.0" encoding="UTF-8"?>
<kml xmlns="http://www.opengis.net/kml/2.2">
<Document>
  <name>Nolan County — Unmapped Historical Markers</name>
  <description>THC markers in Nolan County without an HMDB id (isMissing excluded). 3 with THC coords; 0 geocoded from address; 0 omitted (no usable address). Orange pins are isPending=True — the marker may not be installed yet.</description>
  <Style id="normal">
    <IconStyle>
      <Icon><href>http://maps.google.com/mapfiles/ms/icons/red-dot.png</href></Icon>
    </IconStyle>
  </Style>
  <Style id="pending">
    <IconStyle>
      <color>ff00a5ff</color>
      <Icon><href>http://maps.google.com/mapfiles/ms/icons/orange-dot.png</href></Icon>
    </IconStyle>
  </Style>
  <Placemark>
    <name>J.E. and Esther Davis House</name>
    <styleUrl>#normal</styleUrl>
    <description><![CDATA[401 N. State Hwy 70<br/><br/><b>Address:</b> 401 N. State Hwy 70, Blackwell<br/><br/><b>Marker Text:</b> In 1916, John Barton “J.B.” Wimberley purchased land from the Orient Land Company and soon after built a frame house. Rancher and mercantile store owner Joseph Edgar “J.E.” Davis and his wife, Esther, purchased the property in 1926. Around ten years later, J.E. and Esther hired local contractors to remodel the home into a front-gabled craftsman style with a “giraffe rock” exterior. Native rock and raised concrete is embellished with petrified wood, quartz and fossil rocks. Classic elements of craftsman architecture, such as overhanging eaves, a wide front porch, and interior wood accents, are present throughout. The home was sold in 1992 after Esther’s death.
				
RECORDED TEXAS HISTORIC LANDMARK – 2023]]></description>
    <Point><coordinates>-100.320516,32.089511,0</coordinates></Point>
  </Placemark>
  <Placemark>
    <name>Nolan County</name>
    <styleUrl>#normal</styleUrl>
    <description><![CDATA[1.8 mi. E. of Sweetwater on US Hwy 80/84<br/><br/><b>Address:</b> Sweetwater<br/><br/><b>Marker Text:</b> Nolan County, formed from Young and Bexar Territories. Created August 21, 1876, organized January 10, 1881. Named in honor of Philip Nolan, pioneer and scout who explored Texas in 1800. Murdered by the Spaniards in March 1801. Sweetwater, the county seat.]]></description>
    <Point><coordinates>-100.40808386829,32.4706460909432,0</coordinates></Point>
  </Placemark>
  <Placemark>
    <name>Sweetwater Reporter</name>
    <styleUrl>#normal</styleUrl>
    <description><![CDATA[112 West 3rd Street, Sweetwater<br/><br/><b>Address:</b> 112 W 3rd St., Sweetwater<br/><br/><b>Marker Text:</b> C.E. Gilbert, who founded the "Abilene Reporter", established the "Sweetwater Advance" in 1881, the year Nolan County was organized. Later published as the "Nolan County Review", it was purchased in 1906 by John W. Millsapps, who modernized the operation. In 1911 Millsapps, and his partner W.A. Perry, with the assistance of managing editor C.A. Wade, began publishing daily editions under the "Sweetwater Reporter" banner. A later owner of the newspaper was Houston Harte, who became a partner in the national publishing firm of Harte-Hanks. (1981)]]></description>
    <Point><coordinates>-100.409774326586,32.4708024360876,0</coordinates></Point>
  </Placemark>
</Document>
</kml>
