<?xml version="1.0" encoding="UTF-8"?>
<kml xmlns="http://www.opengis.net/kml/2.2">
<Document>
  <name>Parker County — Unmapped Historical Markers</name>
  <description>THC markers in Parker County without an HMDB id (isMissing excluded). 10 with THC coords; 0 geocoded from address; 3 omitted (no usable address). Orange pins are isPending=True — the marker may not be installed yet.</description>
  <Style id="normal">
    <IconStyle>
      <Icon><href>http://maps.google.com/mapfiles/ms/icons/red-dot.png</href></Icon>
    </IconStyle>
  </Style>
  <Style id="pending">
    <IconStyle>
      <color>ff00a5ff</color>
      <Icon><href>http://maps.google.com/mapfiles/ms/icons/orange-dot.png</href></Icon>
    </IconStyle>
  </Style>
  <Placemark>
    <name>Battern Cemetery</name>
    <styleUrl>#normal</styleUrl>
    <description><![CDATA[<b>Address:</b> 1500 Tidwell Road/401 Russell Ln, Weatherford<br/><br/><b>Marker Text:</b> Henry Hill Battern, a native of Virginia, migrated to Parker county with his family around 1860. He purchased 160 acres of property including this one-acre cemetery and established a family farm. Shortly after the move, Battern’s second wife, Sarah Jane Hendron, died in 1860 and is said to be the first person buried in Battern Cemetery. A Civil War veteran, H. H. Battern was highly esteemed by the local community. He served as the family doctor and although he lacked formal education, neighbors sought his medical advice. In 1867, he was appointed Justice of the Peace for Precinct 7. His third wife’s son, Francis Hill Battern, is the last known burial at the cemetery in 1934.]]></description>
    <Point><coordinates>-97.9478919259822,32.641555012199,0</coordinates></Point>
  </Placemark>
  <Placemark>
    <name>Bear Creek Cemetery</name>
    <styleUrl>#normal</styleUrl>
    <description><![CDATA[<b>Address:</b> 9858 McDaniel Road, Cresson]]></description>
    <Point><coordinates>-97.571769861951,32.6075188462516,0</coordinates></Point>
  </Placemark>
  <Placemark>
    <name>Chandor Gardens</name>
    <styleUrl>#normal</styleUrl>
    <description><![CDATA[711 West Lee St., Weatherford<br/><br/><b>Address:</b> 711 West Lee St., Weatherford<br/><br/><b>Marker Text:</b> Portrait painter Douglas Chandor began designs for his home and garden in 1934. Originally called White Shadows, the garden was renamed Chandor Gardens by his wife, Ina, after her husband's death in 1953. Carved from a caliche hillside that had been his in-laws' cow pasture, it consists of seven interlocking gardens with Oriental and English features. Most gardens include a fountain or pond, and space for flora, statuary or other objects. The garden opened to the public and began attracting attention by 1938 from newspaper features. Chandor's wish was that his garden would be an incentive for Texas men to take up gardening. The garden reflects Chandor's ability to transform thought and landscape into a place of beauty. Recorded Texas Historic Landmark - 2011]]></description>
    <Point><coordinates>-97.8084016664834,32.7537339550666,0</coordinates></Point>
  </Placemark>
  <Placemark>
    <name>Harmony Cemetery</name>
    <styleUrl>#normal</styleUrl>
    <description><![CDATA[<b>Address:</b> 442 Shanes Ln, Weatherford<br/><br/><b>Marker Text:</b> Originally conceived as a gathering place for the Harmony community, the Harmony Cemetery was established when Mary Green (1802-1869), mother to Rufus S. Green, a Civil War veteran, was buried here. Rufus and his wife, Mary A. Green, purchased the acreage. Later, Green sold a section including the burial ground to the DeBusk family, who then deeded the land to the Methodist Episcopal Church, South. Although the church never built on the site, the cemetery continued to be used as the community burial ground and includes relatives and descendants of the Green family. Many founding members of the local Baptist Church are buried here, along with other pioneer families, which chronicles the heritage of the Harmony community. HISTORIC TEXAS CEMETERY – 2016]]></description>
    <Point><coordinates>-97.804051459715,32.6811410736204,0</coordinates></Point>
  </Placemark>
  <Placemark>
    <name>J. J. Hamilton Log Cabin</name>
    <styleUrl>#normal</styleUrl>
    <description><![CDATA[located in the Doss Heritage Center Log Cabin Village<br/><br/><b>Address:</b> 1400 Texas Drive, Weatherford<br/><br/><b>Marker Text:</b> By Affidavit in 1855, J.J. Hamilton (1805-1890) settled land in this area and was one of the petitioners in the creation of Parker County. In 1856, he purchased two town lots on the southwest corner of East Church and South Walnut Streets. Also in 1856, Hamilton and his wife Susanna (Little) Hamilton became founding members of the Christian Church where Hamilton eventually became minister. A city census indicated that he built this log cabin on the property by 1858 with two rooms, each with a fireplace, and a dog trot between them. Hamilton continued to officiate at the Christian Church until 1863 when his two sons were killed by Native Americans at Patrick’s Creek. In their grief, the family left Parker County.]]></description>
    <Point><coordinates>-97.7850018905769,32.7410666268774,0</coordinates></Point>
  </Placemark>
  <Placemark>
    <name>Rock Springs Cemetery</name>
    <styleUrl>#normal</styleUrl>
    <description><![CDATA[From Peaster, take FM 920 .25 mile north, take McClendon Road west about 0.5 mile, take a right. Marker is at cemetery.<br/><br/><b>Address:</b> 1390 McClendon Rd., Peaster<br/><br/><b>Marker Text:</b> This cemetery contains the graves of many of the pioneers of Rock Springs, a village that served as a social center for area farmers. Thirty-one graves are marked with native stones, while a few are identified with engraved headstones. The earliest marked identifiable grave, dated 1867, is that of Mary L. Sullivan. The last marked grave in the cemetery, that of Mary J. Robertson, bears the date 1882, the same year the town of Peaster (1 mile west) was established and Rock Springs began to decline. The cemetery is one of the few remnants of this early Parker County Community. (1985)]]></description>
    <Point><coordinates>-97.8467623044816,32.8732047049804,0</coordinates></Point>
  </Placemark>
  <Placemark>
    <name>Santa Fe Depot</name>
    <styleUrl>#normal</styleUrl>
    <description><![CDATA[2 blocks east of courthouse on Fort Worth Street, Weatherford<br/><br/><b>Address:</b> Fort Worth St., Weatherford<br/><br/><b>Marker Text:</b> Application The Texas Historical Building Medallion enclosed.]]></description>
    <Point><coordinates>-97.7933199688105,32.7592151899784,0</coordinates></Point>
  </Placemark>
  <Placemark>
    <name>Sunshine Special's Ellsmere</name>
    <styleUrl>#normal</styleUrl>
    <description><![CDATA[Pate Museum of Transportation, from Cresson take US 377 north about 3.5 miles to museum.<br/><br/><b>Address:</b> US 377 N of Cresson, Cresson<br/><br/><b>Marker Text:</b> One of most elegant private cars in the world when it was built in 1914 for the personal use of Dr. W.S. Webb, president of Wagner Palace Car Company. When New York Central's "20th Century Limited" express broke New York-Chicago rail passenger speed record in 1932, this was that train's rear car. Owned 1920-1961 by T. &amp; P. Railway. Presented in 1962 to Fort Worth Children's Museum. Recorded Texas Historic Landmark, 1966.]]></description>
    <Point><coordinates>-97.602545,32.57239,0</coordinates></Point>
  </Placemark>
  <Placemark>
    <name>[PENDING] White's Funeral Home</name>
    <styleUrl>#pending</styleUrl>
    <description><![CDATA[<b>⚠ PENDING — marker may not yet be installed at this location.</b><br/><br/><b>Address:</b> 130 Houston Ave., Weatherford]]></description>
    <Point><coordinates>-97.798156,32.75814,0</coordinates></Point>
  </Placemark>
  <Placemark>
    <name>Woody Cemetery</name>
    <styleUrl>#normal</styleUrl>
    <description><![CDATA[<b>Address:</b> 4421 Veal Station Rd., Springtown]]></description>
    <Point><coordinates>-97.6629088937091,32.8991625707127,0</coordinates></Point>
  </Placemark>
</Document>
</kml>
