<?xml version="1.0" encoding="UTF-8"?>
<kml xmlns="http://www.opengis.net/kml/2.2">
<Document>
  <name>Rockwall County — Unmapped Historical Markers</name>
  <description>THC markers in Rockwall County without an HMDB id (isMissing excluded). 2 with THC coords; 0 geocoded from address; 1 omitted (no usable address). Orange pins are isPending=True — the marker may not be installed yet.</description>
  <Style id="normal">
    <IconStyle>
      <Icon><href>http://maps.google.com/mapfiles/ms/icons/red-dot.png</href></Icon>
    </IconStyle>
  </Style>
  <Style id="pending">
    <IconStyle>
      <color>ff00a5ff</color>
      <Icon><href>http://maps.google.com/mapfiles/ms/icons/orange-dot.png</href></Icon>
    </IconStyle>
  </Style>
  <Placemark>
    <name>First United Methodist Church of Rockwall</name>
    <styleUrl>#normal</styleUrl>
    <description><![CDATA[1408 S. Goliad (at the intersection of S. Goliad and Damascus Streets), Rockwall<br/><br/><b>Address:</b> 1408 S. Goliad, Rockwall<br/><br/><b>Marker Text:</b> This congregation developed from early worship services conducted by area pioneers in the home of Mrs. Hugh Shaw. The church was formally organized in 1856, several years prior to the formation of Rockwall County. Constituted with less than twenty members under the direction of the Rev. J. A. Scruggs, the small fellowship met in the local Masonic lodge building until the first sanctuary was constructed at 102 North Fannin Street in 1874. The one-room frame structure featured a belfry and a tall steeple. During its first three decades, the First Methodist Church of Rockwall shared its ministers with other pioneer area Methodist churches. By 1887, however, membership in the First Methodist Church had grown such that the Rev. James McDugald was appointed to serve as the congregation's first full-time pastor. To accommodate the membership's continued growth, additional facilities were later built, and the church relocated to this site in 1981. For more than 100 years, the First United Methodist Church of Rockwall has sponsored many active organizations in its congregation which have provided great service and leadership to the community of Rockwall. Many descendants of the original fellowship continue to worship here. (1983)]]></description>
    <Point><coordinates>-96.4503607449248,32.9156165337859,0</coordinates></Point>
  </Placemark>
  <Placemark>
    <name>Memorial Park</name>
    <styleUrl>#normal</styleUrl>
    <description><![CDATA[marker pending<br/><br/><b>Address:</b> 208 Woodpark Ln, Rockwall<br/><br/><b>Marker Text:</b> marker pending]]></description>
    <Point><coordinates>-96.462643,32.918003,0</coordinates></Point>
  </Placemark>
</Document>
</kml>
