<?xml version="1.0" encoding="UTF-8"?>
<kml xmlns="http://www.opengis.net/kml/2.2">
<Document>
  <name>Rusk County — Unmapped Historical Markers</name>
  <description>THC markers in Rusk County without an HMDB id (isMissing excluded). 22 with THC coords; 0 geocoded from address; 13 omitted (no usable address). Orange pins are isPending=True — the marker may not be installed yet.</description>
  <Style id="normal">
    <IconStyle>
      <Icon><href>http://maps.google.com/mapfiles/ms/icons/red-dot.png</href></Icon>
    </IconStyle>
  </Style>
  <Style id="pending">
    <IconStyle>
      <color>ff00a5ff</color>
      <Icon><href>http://maps.google.com/mapfiles/ms/icons/orange-dot.png</href></Icon>
    </IconStyle>
  </Style>
  <Placemark>
    <name>Anadarko Rosenwald School</name>
    <styleUrl>#normal</styleUrl>
    <description><![CDATA[<b>Address:</b> 13406 FM 1662 W, Laneville vicinity<br/><br/><b>Marker Text:</b> In 1868, former slaves of Julien Devereaux's Monte Verdi plantation settled the surrounding community of Anadarko (Anadarco). Land for the church and community was provided by descendants of the Devereaux family. Church records indicate that in 1868 newly freed African Americans led by Reverend Green Lewis and his wife, Phoebe Devereaux, established the Anadarko Christian Church. The first public school for African Americans was held in the Anadarko Christian Church. In 1917, Julius Rosenwald, president of Sears, Roebuck and Company, and Booker T. Washington established the Rosenwald Fund to assist in the foundation of schools for African Americans in the South. With money from the Rosenwald Fund ($900), public donations ($2,100) and private contributions from students and parents ($600), the Anadarko Colored "Rosenwald" School was built in 1926. The building was a three-teacher school typical of the rural schools built by the Rosenwald Foundation. Over the years, the name of the school changed several times to Laneville Colored School to Allen High School (named for U. E. Allen, former principal) prior to merging with the Laneville Independent School District. The old classrooms were moved to expand the campus during the years 1967-69 to accommodate additional students after integration. The only remnant of this historic Rosenwald School is the pier and beam foundation where the gymnasium was erected. The building may no longer function but the memory of the first public school in the area will live on as an important reminder of early African American educational efforts. (2016)]]></description>
    <Point><coordinates>-94.875469,31.928748,0</coordinates></Point>
  </Placemark>
  <Placemark>
    <name>Arlam Baptist Church</name>
    <styleUrl>#normal</styleUrl>
    <description><![CDATA[(Mt. Pisgah Missionary Baptist Church)<br/><br/><b>Address:</b> 25776 S. FM 95, Garrison<br/><br/><b>Marker Text:</b> Organized as Mt. Pisgah Missionary Baptist Church of Christ, this congregation began meeting in the Pine Flat schoolhouse in Nacogdoches County in August 1897. Eleven members met for services with pastor M. L. Hones in the schoolhouse until December of 1898, when they moved to the Arlam School in Rusk County. In 1904 the congregation, in cooperation with the Woodmen of the World Lodge, erected a new structure in the Arlam community, near the school, which they shared with area Methodists. A tornado devastated that structure in 1942, and a new sanctuary was built on the site of the old Arlam schoolhouse. By 1951 church minutes reflected the change of the congregation's name to Arlam Baptist Church. The church continued to thrive, serving the community with a variety of programs. (2000)]]></description>
    <Point><coordinates>-94.5339129995058,31.8758079994009,0</coordinates></Point>
  </Placemark>
  <Placemark>
    <name>Baysinger Cemetery</name>
    <styleUrl>#normal</styleUrl>
    <description><![CDATA[<b>Address:</b> Cushing<br/><br/><b>Marker Text:</b> In 1839, not long after bringing his family to Texas from Tennessee, Martin Baysinger (1808-1904) received a 640-acre land grant near here. He established a plantation that included a grist mill, brick making pit, syrup mill, cotton gin, "big house," general store and post office. His land holdings increased to nearly 7000 acres, out of which he set aside this small burial ground upon the death of his first wife, Adeline Tipps Baysinger (1816-1870). A wood grave house that once marked her plot is now gone, as are markers for blacks said to be buried nearby. The remaining graves serve as a record of the pioneer days of Rusk County. Historic Texas Cemetery – 2001]]></description>
    <Point><coordinates>-94.8342818414808,31.8790483128885,0</coordinates></Point>
  </Placemark>
  <Placemark>
    <name>Birdwell House</name>
    <styleUrl>#normal</styleUrl>
    <description><![CDATA[<b>Address:</b> Henderson<br/><br/><b>Marker Text:</b> Built in early 1840s for Allen Birdwell, 1851 county commissioner; member Texas Legislature 1853-54 and 1863-64. House is excellent example of "saddle bag" architecture-- story-and-half double house. Built of hand-hewn logs with squared morticed corners. Later "boarded over." Has four main rooms, two on each floor. First floor rooms have exposed beam ceilings. Moved to Monte Verdi plantation. Restored by Mr. and Mrs. E. F. Lowry, 1965-66.]]></description>
    <Point><coordinates>-94.8711600005869,31.9016240003742,0</coordinates></Point>
  </Placemark>
  <Placemark>
    <name>Capt. Robert Smith</name>
    <styleUrl>#normal</styleUrl>
    <description><![CDATA[SH 323 about 6 mi. W of Henderson in Pleasant Hill Cemetery<br/><br/><b>Address:</b> Henderson<br/><br/><b>Marker Text:</b> Soldier in the Texas War for Independence at San Jacinto, 1836.]]></description>
    <Point><coordinates>-94.8893799994103,32.209829999451,0</coordinates></Point>
  </Placemark>
  <Placemark>
    <name>Dennard Home</name>
    <styleUrl>#normal</styleUrl>
    <description><![CDATA[5 mi. east of Mt. Enterprise via US 84 to FM 95 S .5 mi., then left on county road<br/><br/><b>Address:</b> Mt. Enterprise<br/><br/><b>Marker Text:</b> A native of Missouri, Augustus "Gus" Dennard (d. 1933) came to Texas with his parents in 1883. A leader in the Concord community, Dennard was a merchant, farmer, and blacksmith. He operated a forge on part of the land he purchased in 1901. A year later, he completed this home for his family. A good example of East Texas vernacular style architecture, the house features paired gables over the porch, which is supported by turned posts with decorative brackets. Recorded Texas Historic Landmark - 1984]]></description>
    <Point><coordinates>-94.5772413587566,31.9166686603749,0</coordinates></Point>
  </Placemark>
  <Placemark>
    <name>First Methodist Church of Overton</name>
    <styleUrl>#normal</styleUrl>
    <description><![CDATA[<b>Address:</b> 213 E. Henderson St., Overton<br/><br/><b>Marker Text:</b> This church dates to 1873 when many members of the nearby Jamestown church became pioneer members of this congregation. A small frame building was built that year on this site with lumber hauled by wagon. A new sanctuary was built here in 1932, and a two-story education building was added in 1937. As membership grew a new church was completed here in 1969, using the stained glass windows from the previous structure. The church sponsors traditional programs for the congregation, and continues to serve the community as it has for more than 120 years.]]></description>
    <Point><coordinates>-94.9759318295793,32.2742295935977,0</coordinates></Point>
  </Placemark>
  <Placemark>
    <name>Forest Home Baptist Church</name>
    <styleUrl>#normal</styleUrl>
    <description><![CDATA[<b>Address:</b> Kilgore<br/><br/><b>Marker Text:</b> This congregation was organized in 1889 by the Rev. J. R. Goode and eight charter members: Mr. &amp; Mrs. Thomas Jefferson Mercer; Mr. &amp; Mrs. George Augustus Meadows; Mr. &amp; Mrs. Isaac Johnson, Sr.; and Mr. &amp; Mrs. Isaac Johnson, Jr. The first sanctuary was a one-room log structure with one door and no windows. It was replaced by a larger frame building which also served as a school for children from Rusk and Gregg counties. Additional facilities were built over the years to accommodate the growing congregation, which includes descendants of the charter members.]]></description>
    <Point><coordinates>-94.8312449996169,32.3697350001732,0</coordinates></Point>
  </Placemark>
  <Placemark>
    <name>Hickory Grove Baptist Church</name>
    <styleUrl>#normal</styleUrl>
    <description><![CDATA[<b>Address:</b> 4239 CR 284 E, Kilgore<br/><br/><b>Marker Text:</b> Cross Roads Community, located in northern Rusk County and southern Gregg County, recognized a need for a cemetery and church in 1911. In 1912, five acres of land which adjoined the pre-existing Hickory Grove Cemetery on the west side were purchased. Construction of a church began in late 1912. In 1930, the name was changed from Missionary Baptist Church of Christ at Hickory Grove to Hickory Grove Baptist Church. In 1991, the building was relocated across Rusk County Road 284 to land donated by the Still family. The original sanctuary was replaced in 1992 with a new auditorium. For over a century, Hickory Grove Baptist Church has been an active source of support for the community and those in need.]]></description>
    <Point><coordinates>-94.7981179998482,32.3204930002977,0</coordinates></Point>
  </Placemark>
  <Placemark>
    <name>John T. C. Patrick Home</name>
    <styleUrl>#normal</styleUrl>
    <description><![CDATA[15 miles E of Henderson via FM 840 to northbound FM 1798, about 2 miles from FM 840.<br/><br/><b>Address:</b> Henderson<br/><br/><b>Marker Text:</b> In 1854 John Campbell Patrick (1814-68), his wife, Eleanor Stephenson (Currence), and their five children came from South Carolina with Patrick's brothers and other families. Patrick bought 335 acres here on Shreveport Road in 1855 and built a log house that became the center of the Patrick Community. The settlement grew to include a gin, grist mill, schoolhouse, and church building. Mary Bolding, Patrick's widowed daughter, operated a store, post office, and telephone switchboard in the Patrick home until her death just prior to World War I.]]></description>
    <Point><coordinates>-94.6357395938415,32.0575750709381,0</coordinates></Point>
  </Placemark>
  <Placemark>
    <name>Joseph Charles Miszner</name>
    <styleUrl>#normal</styleUrl>
    <description><![CDATA[<b>Address:</b> Mt. Enterprise<br/><br/><b>Marker Text:</b> Professor of Music. (July 9, 1822 - September 11, 1918) Born in kingdom of Prussia. Known as a pupil of composer Franz Liszt and a graduate of Leipzig Conservatory. Came to America in 1845; was naturalized in 1860 (Vol. H, page 408), Probate Records, Rusk County, Texas). A composer and teacher of music and languages, he became a large landowner and respected citizen of Henderson. Married (in 1868) Margaret Harwood McClarty; had a son, Wiley Harris Miszner.]]></description>
    <Point><coordinates>-94.6450500801417,31.9947400073887,0</coordinates></Point>
  </Placemark>
  <Placemark>
    <name>Leverett House</name>
    <styleUrl>#normal</styleUrl>
    <description><![CDATA[<b>Address:</b> Overton<br/><br/><b>Marker Text:</b> --]]></description>
    <Point><coordinates>-94.9274640000937,32.3121299996043,0</coordinates></Point>
  </Placemark>
  <Placemark>
    <name>Lockridge Cemetery</name>
    <styleUrl>#normal</styleUrl>
    <description><![CDATA[on CR 442D, .25 mi. NE of intersection of CR 401 &amp; CR 442D<br/><br/><b>Address:</b> From Henderson go S. on HWY 79, turn left on FM 839. Go approx. 2.5 mi. &amp; turn left on CR 401. Turn rt. On CR 442-D. Cemetery is on left approx. .2 mi., Henderson<br/><br/><b>Marker Text:</b> Henry T. Lockridge settled in Rusk County, Texas during the 1850s. After serving in the Confederate Army during the Civil War, he purchased land from Charles Lewis in 1863. Henry and his wife, Jane Hunter Lockridge, lived the remainder of their lives on the property. Lockridge Cemetery is also located on the property. Although the oldest marked grave is that of Sarah M. Hunter, who died in 1881, it is believed that earlier burials exist. The cemetery became inactive after the 1940s, but there have been several burials at the site since 2004, beginning with the burial of a grandson of Henry T. and Jane Hunter Lockridge. Much of the land surrounding the cemetery is still owned by Lockridge descendants. Historic Texas Cemetery-2008]]></description>
    <Point><coordinates>-94.8514452689816,32.0642974428384,0</coordinates></Point>
  </Placemark>
  <Placemark>
    <name>Lou Della Crim No. 1</name>
    <styleUrl>#normal</styleUrl>
    <description><![CDATA[CR 1114 (Red Level Road), 0.2 mi. W of SH 42.<br/><br/><b>Address:</b> CR 1114, Laird Hill<br/><br/><b>Marker Text:</b> (600 feet south) Following the discovery of oil in East Texas on October 3, 1930, J. Malcolm Crim of Kilgore believed there was more oil to be found in the area. By October 17 drilling had begun on land belonging to his mother, Lou Della Crim. The well came in on December 28 and was named Lou Della Crim No. 1. Its discovery caused the population of Kilgore to boom from 700 to 10,000 in three days and, ultimately, proved that the East Texas oil field was a major one, covering over 480 square miles. Lou Della Crim No. 1 initially produced 20,000 barrels per day. It was plugged in 1961.]]></description>
    <Point><coordinates>-94.915477,32.345867,0</coordinates></Point>
  </Placemark>
  <Placemark>
    <name>M. Kangerga &amp; Bro.</name>
    <styleUrl>#normal</styleUrl>
    <description><![CDATA[<b>Address:</b> 102.5 E. Main, Henderson<br/><br/><b>Marker Text:</b> Mile (Michael) Kangerga, a Serbian from Croatia (now part of Yugoslavia), immigrated to Texas in 1887 at age 13. He joined his uncle, George Grozdanic, in the mercantile business in Henderson. Kangerga's brother, Rade (age 14) came to Texas in 1890 and joined the business in 1895. Known as M. Kangerga &amp; Bro., the company eventually diversified into other businesses, including cotton brokerage, real estate, and oil leasing. A landmark business in downtown Henderson for over a century, M. Kangerga &amp; Bro. has played an important role in the area's economic development.]]></description>
    <Point><coordinates>-94.800292,32.15378,0</coordinates></Point>
  </Placemark>
  <Placemark>
    <name>Mays Cemetery</name>
    <styleUrl>#normal</styleUrl>
    <description><![CDATA[17 m. SW Henderson on CR 4221<br/><br/><b>Address:</b> Henderson<br/><br/><b>Marker Text:</b> This pioneer burial ground served the New Salem Community. In the 1850s, the settlement had a stagecoach stop, post office and the New Salem Academy. The Mays and Swink families of Madison Co., Tennessee were among the early settlers. John Mandeville Mays owned the land where the cemetery was established, sited between Quinn Mountain and the Angelina River. Tradition states that two slaves were the first to be buried here. Two-year-old Mary S. C. Swink died in 1856, and hers is the oldest marked grave. Among the burials are veterans of military conflicts dating to the Civil War. Marble and granite headstones are prominent, and historic plantings include jonquils and crepe myrtle trees. A cemetery association formed in the 1930s. Historic Texas Cemetery-2006]]></description>
    <Point><coordinates>-94.9157812506183,31.9626669111582,0</coordinates></Point>
  </Placemark>
  <Placemark>
    <name>Mission Springs Baptist Church</name>
    <styleUrl>#normal</styleUrl>
    <description><![CDATA[3 mi. east of Henderson on FM 840<br/><br/><b>Address:</b> Henderson<br/><br/><b>Marker Text:</b> Several members of Ebenezer Baptist Church, organized nearby in 1884, established Missionary Springs Baptist Church n 1894. The church is named for springs at the site of initial brush arbor services. The Rev. William Hendrix was called as first pastor in 1902, the year the church joined the Southern Baptist Association. A frame sanctuary was erected at this site about 1905. Renamed Mission Springs Baptist Church about 1918, the congregation has acquired new facilities over the years and continues its support of a Sunday School, youth groups, and home and foreign missions. Sesquicentennial of Texas Statehood 1845 - 1995]]></description>
    <Point><coordinates>-94.7596416316738,32.1245567140316,0</coordinates></Point>
  </Placemark>
  <Placemark>
    <name>Pine Grove Cumberland Presbyterian Church</name>
    <styleUrl>#normal</styleUrl>
    <description><![CDATA[10 mi. E of Henderson via FM 840 to FM 2867, E until CR 364 S<br/><br/><b>Address:</b> Henderson<br/><br/><b>Marker Text:</b> Pine Grove Cumberland Presbyterian Church was organized about 1850, with the Rev. Archibald Watkins (d. 1880) playing an instrumental role in its early years. The fellowship first met in a small log cabin near Martin's Creek. This building was constructed about 1870, and was used for worship services until the congregation disbanded in 1906. It is now a part of Pine Grove's heritage and is the scene of an annual homecoming. Recorded Texas Historic Landmark - 1966]]></description>
    <Point><coordinates>-94.6535572622948,32.1020382452906,0</coordinates></Point>
  </Placemark>
  <Placemark>
    <name>Rogers-Craig House</name>
    <styleUrl>#normal</styleUrl>
    <description><![CDATA[From downtown square go about one mile down South Main St.<br/><br/><b>Address:</b> 1011 South Main St, Henderson<br/><br/><b>Marker Text:</b> The Rogers-Craig house was built around 1890 on land that was formerly the site of the Fowler Institute. The house was originally a four-room, one story frame structure owned by Anna Caroline Montgomery Rogers, the widow of James T. Rogers, a sheriff who lost his life apprehending a criminal. Oil boom prosperity encouraged remodeling, and in 1935, owner Judge R.M. Leath and his wife, Alma, added a second story, bricked exterior and created the Dutch Revival style that is present today. Salah Craig and his wife, Elizabeth, purchased the home in 1958 and a library was added.]]></description>
    <Point><coordinates>-94.7992429903613,32.1435482918653,0</coordinates></Point>
  </Placemark>
  <Placemark>
    <name>Shiloh Cemetery</name>
    <styleUrl>#normal</styleUrl>
    <description><![CDATA[SSE of FM 225 and US 84 intersection<br/><br/><b>Address:</b> Fm 225, US 84, Mt. Enterprise<br/><br/><b>Marker Text:</b> Shiloh Cemetery Established c. 1850s Historic Texas Cemetery - 2005]]></description>
    <Point><coordinates>-94.6444278250468,31.9949113853775,0</coordinates></Point>
  </Placemark>
  <Placemark>
    <name>The Railroad in Rusk County</name>
    <styleUrl>#normal</styleUrl>
    <description><![CDATA[514 N High St., Henderson<br/><br/><b>Marker Text:</b> Although plans for a rail line were made as early as 1852, railroad tracks were not laid in this area until after the end of the Civil War. Overton (14 mi. NW) became the center of Rusk County Railroading after the international &amp; great northern line came through in the 1870s. The Henderson-Overton branch railroad was completed in 1877. Several small lines were begun in the county during the early 1900s but were abandoned by the end of the 1920s. Passenger service declined throughout Texas after World War II, but rail freight continues to be an important business in Rusk County. Texas Sesquicentennial 1836-1986]]></description>
    <Point><coordinates>-94.795259,32.159317,0</coordinates></Point>
  </Placemark>
  <Placemark>
    <name>William C. Hays</name>
    <styleUrl>#normal</styleUrl>
    <description><![CDATA[Maple Grove Cemetery on CR 3141 D<br/><br/><b>Address:</b> Minden<br/><br/><b>Marker Text:</b> (April 24, 1806 - December 20, 1893) Enlisted in cause of Texas independence in Kentucky, Dec. 18, 1835. Fought in victory at San Jacinto, April 21, 1836. Received land grants as service pay, and brought family to Texas to live. Here he aided Gen. Sam Houston in treating with Chief Bowles at Shawnee village; was a charter member and elder in Maple Grove Presbyterian Church, and an early Worshipful Master, Mt. Enterprise Masonic Lodge. Five of his sons fought for Confederacy in 1860s.]]></description>
    <Point><coordinates>-94.6997739456428,32.0095197315012,0</coordinates></Point>
  </Placemark>
</Document>
</kml>
