<?xml version="1.0" encoding="UTF-8"?>
<kml xmlns="http://www.opengis.net/kml/2.2">
<Document>
  <name>Sabine County — Unmapped Historical Markers</name>
  <description>THC markers in Sabine County without an HMDB id (isMissing excluded). 24 with THC coords; 0 geocoded from address; 12 omitted (no usable address). Orange pins are isPending=True — the marker may not be installed yet.</description>
  <Style id="normal">
    <IconStyle>
      <Icon><href>http://maps.google.com/mapfiles/ms/icons/red-dot.png</href></Icon>
    </IconStyle>
  </Style>
  <Style id="pending">
    <IconStyle>
      <color>ff00a5ff</color>
      <Icon><href>http://maps.google.com/mapfiles/ms/icons/orange-dot.png</href></Icon>
    </IconStyle>
  </Style>
  <Placemark>
    <name>Barney C. Lowe</name>
    <styleUrl>#normal</styleUrl>
    <description><![CDATA[Lowe Family Cemetery about 5 mi. south of Pineland on US 96, then east on Lowe Cemetery Rd. on right<br/><br/><b>Address:</b> Pineland<br/><br/><b>Marker Text:</b> --]]></description>
    <Point><coordinates>-93.964503,31.161249,0</coordinates></Point>
  </Placemark>
  <Placemark>
    <name>Cedar Grove Baptist Church</name>
    <styleUrl>#normal</styleUrl>
    <description><![CDATA[<b>Address:</b> 3675 Cedar Grove Road, Milam<br/><br/><b>Marker Text:</b> Although Cedar Grove Colored Baptist Church’s founding date is unknown, first records of the African American church show the land is on property granted to James Mason in 1830. Church records suggest the church was established around 1890. In 1904, the congregation moved three miles southeast to its present location and by 1915, the church served as a school for black students. Notable construction includes the rear portion of the building in the early 1930s, and the establishment of the cemetery in the early 1960s. Cedar Grove Baptist Church is one of the first black churches in Sabine County and a significant place of support for the African American community. Recorded Texas Historic Landmark - 2014]]></description>
    <Point><coordinates>-93.8008230757419,31.4861027156404,0</coordinates></Point>
  </Placemark>
  <Placemark>
    <name>Clark-Dickey and Smith Cemeteries</name>
    <styleUrl>#normal</styleUrl>
    <description><![CDATA[<b>Address:</b> Hemphill<br/><br/><b>Marker Text:</b> William and Mahala Graham Clark settled in the Big Sandy Creek area before 1837. William died in 1856 and his is the oldest marked grave in the Clark-Dickey Cemetery. It is believed that earlier pioneers camped near here and buried their dead in unmarked graves. In 1850 Obediah Jackson Smith and Elizabeth Chapman bought land from William F. Clark. Obediah died in 1868; his is the only marked grave in the Smith Cemetery. It is likely that family members are also buried nearby. These two cemeteries are the last physical remnants of the Big Sandy Creek community.]]></description>
    <Point><coordinates>-93.7912164252591,31.1974351237267,0</coordinates></Point>
  </Placemark>
  <Placemark>
    <name>Clark-James House</name>
    <styleUrl>#normal</styleUrl>
    <description><![CDATA[<b>Address:</b> 377 Bowie Trail, Hemphill<br/><br/><b>Marker Text:</b> This historic home was built in 1919-1920 by Eausel Clark after his marriage to Bertie Fullen on September 17, 1919. The home was built from available lumber salvaged from older homes and includes batten walls and two hand-hewn sandstone fireplaces. In 1934, the house was reconstructed with lumber from the Knox Sawmill in East Mayfield. In 1946, the Clarks sold the property to Jesse and Aretha Cooper James who then sold it to Edward and Lula McGown James in 1959. The first three owners survived by subsistence farming and through work in the timber harvesting industry. This home represents the modest lives of farmers and timber workers in Sabine County in the early 1900s.]]></description>
    <Point><coordinates>-93.761860901345,31.2131995611744,0</coordinates></Point>
  </Placemark>
  <Placemark>
    <name>Dennis Cemetery</name>
    <styleUrl>#normal</styleUrl>
    <description><![CDATA[off SH 103 on Dennis Cemetery Lane, north side between Rosevine and Milam. Marker reported broken in half Apr. 2017.<br/><br/><b>Address:</b> SH 103, Rosevine<br/><br/><b>Marker Text:</b> This cemetery was established prior to 1836 when Texas was part of Mexico. Located on property later donated by pioneer settler Isaiah Hamilton, it was used as a burial site for slaves of the area around the pioneer Sulphur Spring community. The significance of the historic Dennis Cemetery is reflected in the lives of individuals buried here. Gravesites include those of Easter Scurlock, later Mrs. Randall Sneedy, and Henry Smith, who came to Texas in 1834 with their owner Captain William Scurlock, a celebrated veteran of the Texas Revolution two years later. Following Emancipation in 1865, both former slaves figured prominently in the development of the area's black community. Two of Easter's sons, Dave and Dick, who acquired the family name of Jim Dennis when they were sold to him, also became active leaders here. Descendants of slaves buried at this site still live in the area. No longer in use, the Dennis Cemetery contains more than 100 graves. The burial ground now serves as a reminder of Texas' early history and of the area's rich heritage. It is a symbol of pride for the local black community, which was founded on the efforts of pioneer slaves and freedmen interred here. (1982)]]></description>
    <Point><coordinates>-93.93716,31.431965,0</coordinates></Point>
  </Placemark>
  <Placemark>
    <name>Ener Cemetery</name>
    <styleUrl>#normal</styleUrl>
    <description><![CDATA[1.2 mi E of Sh 87<br/><br/><b>Address:</b> Ener Cemetery Rd, Hemphill<br/><br/><b>Marker Text:</b> This burial ground has served southeastern Sabine County since the mid-19th century. Early settlers came to this area by the 1830s, establishing farms along the fertile soil of the Housen Bayou north of here. One pioneer was James Trehane Ener (Ennor), for whom this cemetery is named. Ener was born in 1810 in Cornwall County in England. Escaping poor economic conditions, he immigrated to the United States with his brother, William, in 1835 and came to Texas shortly thereafter. He arrived here by the 1840s, and in 1847 married Marry Ann Gomer (d. 1897), daughter of James Frederick and Anna (Bateman) Gomer, early area pioneers. James and Mary Ann had twelve children. James Ener established a large farm in southeastern Sabine County. He also rented land to sharecroppers and worked as a blacksmith. Additionally, Ener served under Capt. O.M. Wheeler in Company K, 2nd Regiment, Texas Mounted Volunteers during the U.S.-Mexico War (1846-48). In 1859, Ener was murdered near the Sabine County Courthouse. The earliest known burial here is of an infant daughter of James and Mary Ann. James Ener was the second person interred here. Although most of the interments in this burial ground are of Ener family relative and descendants, there are others buried here as well. The rural family burial ground is maintained by the Ener Cemetery Association and today, it remains as a record of a pioneer family's history and a vital link to this area's historic past. Historic Texas Cemetery – 2006]]></description>
    <Point><coordinates>-93.829269,31.286052,0</coordinates></Point>
  </Placemark>
  <Placemark>
    <name>Gellatly Family Cemetery</name>
    <styleUrl>#normal</styleUrl>
    <description><![CDATA[take SH 87 N about 4 mi., then west on Licksllin Lane to first right; cemetery is on east side of road<br/><br/><b>Address:</b> Milam<br/><br/><b>Marker Text:</b> Robert and Nancy Agnes Gellatly and their son, David, immigrated to Texas from Dundee, Scotland, between 1834 and 1836. Nancy's father, William Sturrock, and other family members also came with them. For his service in the Republic of Texas army, Robert received land in 1841. He later served Sabine County as justice of the peace, sheriff, tax collector, and chief justice. Robert and Nancy eventually were the parents of six children. This graveyard was established in 1863 upon the death of their daughter, Anna Mathews. Four generations of the family are buried here.]]></description>
    <Point><coordinates>-93.8569929488361,31.4871779638823,0</coordinates></Point>
  </Placemark>
  <Placemark>
    <name>Harper Chapel Cemetery</name>
    <styleUrl>#normal</styleUrl>
    <description><![CDATA[<b>Address:</b> FM 83 E, left on Fm 83, 7.9 mi to Harper Chapel Dr, then .1 mi N, Hemphill<br/><br/><b>Marker Text:</b> On December 1, 1890, I.H. Pratt deeded one acre of land at this site to J.R. Harper. Born in 1838 in Hinds County, Mississippi, Harper came to Texas with his wife Delilah (Rice) (1836-1908), with whom he had six children. He died in 1896 and was the first to be buried here, at what was then known as Harper Cemetery. His wife was buried next to him 12 years later. Because of a fire at the Sabine County courthouse, the original deed is only referenced in a 1925 deed transfer to J.D. Fuller and E.H. Murphee. By that time, the Harper Chapel community, originally known as Lick Skillet, had further developed. Local Baptists completed construction on their wood-frame church house, Harper Chapel, in 1934. The community continued to utilize the burial ground here, acquiring additional acreage from donors over the years. The cemetery today is a link to the generations of area residents. Among those buried here are U.S. military veterans from conflicts beginning with World War I. The Harper Chapel Cemetery Association, comprised of descendants and friends of those buried here, maintains the site. Historic Texas Cemetery – 2004]]></description>
    <Point><coordinates>-93.716476,31.378994,0</coordinates></Point>
  </Placemark>
  <Placemark>
    <name>Harper Chapel Church</name>
    <styleUrl>#normal</styleUrl>
    <description><![CDATA[8 mi. E on FM 83 to Harper Chapel Drive on left<br/><br/><b>Address:</b> FM 83, Hemphill<br/><br/><b>Marker Text:</b> Local Baptists held worship services and revivals at this site under a brush arbor. In 1933, they began building this chapel and completed it the following year. Men of the community handled the construction, and women raised funds through the sale of box lunches. The church disbanded in the 1950s, but the chapel continues in use for community gatherings, funerals and weddings. Built of frame construction with a gabled roof, beveled siding and four-over-four windows, the chapel is a reminder of the important role rural churches played as centers of community development. Recorded Texas Historic Landmark - 2005]]></description>
    <Point><coordinates>-93.7166290743462,31.3789117605939,0</coordinates></Point>
  </Placemark>
  <Placemark>
    <name>Isaac Low Cemetery</name>
    <styleUrl>#normal</styleUrl>
    <description><![CDATA[15 mi. east of Hemphill via FM 83, then south on FM 3382 to E 3520, in El Camino Bay subdivision<br/><br/><b>Address:</b> Hemphill<br/><br/><b>Marker Text:</b> A veteran of the War of 1812, Isaac Low (1781-1853) migrated to this area from Tennessee in 1828. During the Texas Revolution he operated a nearby ferry across the Sabine River to aid settlers fleeing from the advancing Mexican army. He later served as a commissioner for Sabine County. His son Jesse Low (1812-1848), whose grave is the earliest marked at this site, donated the land for use as a cemetery. Also buried here are Reddick Pitt Sibley, a captain during the Civil War, and Eli Low, whose 1883 murder resulted in a three-year feud in the surrounding area.]]></description>
    <Point><coordinates>-93.6858199592502,31.3680009694975,0</coordinates></Point>
  </Placemark>
  <Placemark>
    <name>Jones-Sweet House</name>
    <styleUrl>#normal</styleUrl>
    <description><![CDATA[take FM 330 north to Sweet Lane about 3 blocks from SH 21<br/><br/><b>Address:</b> Geneva<br/><br/><b>Marker Text:</b> C. A. Jones (1869-1962) used pine lumber grown on his own land to build the original two-room portion of this home before his marriage in 1892 to Roxie Horne (1876-1941). Jones, who operated a general store and shingle mill, later enlarged the house hauling stones to this site by oxcart for the chimneys. In 1907 he sold the structure to his father-in-law W. W. Horne (1841-1926), a prosperous farmer and Confederate Veteran, who further enlarged it. Acquired in 1937 by Horne's granddaughter Imogene (Mrs. Grover) Sweet, the property has been continuously owned by family members.]]></description>
    <Point><coordinates>-93.9172507322465,31.4789578058733,0</coordinates></Point>
  </Placemark>
  <Placemark>
    <name>Lowe Cemetery</name>
    <styleUrl>#normal</styleUrl>
    <description><![CDATA[<b>Address:</b> 281 Lowe Cemetery Drive, Brookeland]]></description>
    <Point><coordinates>-93.9641834107126,31.1600318160367,0</coordinates></Point>
  </Placemark>
  <Placemark>
    <name>Mial Scurlock</name>
    <styleUrl>#normal</styleUrl>
    <description><![CDATA[<b>Address:</b> Geneva<br/><br/><b>Marker Text:</b> (b. 1809) and his brother William Scurlock (1807-85) left their Mississippi home in 1834 to settle in Texas, then a part of Mexico. That same year they received a land grant here in the Sabine District and, with their slaves, began farming the site. The following year, when disputes between Texas settlers and Mexico resulted in the Texas Revolution, the Scurlocks joined the Texas army at San Augustine. Mial participated in the Siege of Bexar and in the Battle of the Alamo, where he was killed on March 6, 1836, in the defense of his adopted land.]]></description>
    <Point><coordinates>-93.9854384493156,31.4666842665695,0</coordinates></Point>
  </Placemark>
  <Placemark>
    <name>Mt. Sinai Cemetery</name>
    <styleUrl>#normal</styleUrl>
    <description><![CDATA[Mt. Sinai Rd 0.1 mi W of FM 3315<br/><br/><b>Address:</b> Mt Sinai Rd, FM 3315, Hemphill<br/><br/><b>Marker Text:</b> Mt. Sinai Cemetery has served residents of southeastern Sabine County for more than 100 years. The first interment in the burial ground dates to 1894. Earlier burial dates, however, represent graves relocated here from the Morris, Anthony and Robertson cemeteries after water encroachment from the Toledo Bend Reservoir, built by 1968, necessitated the reinterments. Lutcher &amp; Moore Lumber Company deeded land for the cemetery in 1955. Today, Mt. Sinai Cemetery Association continues to maintain the burial ground, which serves as a reminder of Sabine County's past. Historic Texas Cemetery - 2006]]></description>
    <Point><coordinates>-93.6654905596584,31.2095962594814,0</coordinates></Point>
  </Placemark>
  <Placemark>
    <name>New Hope-Bethel Baptist Church</name>
    <styleUrl>#normal</styleUrl>
    <description><![CDATA[north of Milam via SH 87 about 4.5 mi., then east on New Hope Baptist Rd.<br/><br/><b>Address:</b> Milam<br/><br/><b>Marker Text:</b> In the early 19th century, Bethel Baptist Mission was established one mile east of this marker, on a lane that is now Farm Road 276. About 1818, Elder William Cook (d. 1829), having emigrated from North Carolina to southwestern Louisiana, began preaching both east and west of the Sabine. A log cabin under a catawba tree on property of Henry Chambers and his son Allen was site of Bethel Mission services. Elder Cook's work here and elsewhere is described by heirs of the pioneers and by a 1910 Louisiana history, "Footsteps of the Flock," by Ivan M. Wise. Bethel Baptist Church was constituted on Feb. 7, 1841, as a congregation of the Pilgrim Church of Regular Baptist Faith and Order. At that time a frame meetinghouse was built. Bethel broke off its fellowship with the Pilgrim Order in 1849, joining the Central Missionary Baptist Association. The name "Bethel" was changed about 1870 to "New Hope." This church joined the Southern Baptist Convention in 1927. It also belongs to the Sabine Valley Baptist Association. W. T. Love has been pastor since 1937. New Hope-Bethel Church stands on land which was donated by J. G. Mason. The present brick sanctuary was erected in 1970.]]></description>
    <Point><coordinates>-93.8467485554572,31.4970022821978,0</coordinates></Point>
  </Placemark>
  <Placemark>
    <name>Oakhill Cemetery</name>
    <styleUrl>#normal</styleUrl>
    <description><![CDATA[300 Oak Hill Road<br/><br/><b>Address:</b> 300 Old Oakhill Rd., Hemphill<br/><br/><b>Marker Text:</b> From the 1830s to late 1800s, pioneers settled along roads in this area, establishing dispersed agrarian communities, including Oakhill. Oakhill Baptist Church and this cemetery met the needs of individuals in these settlements. The church was originally located at Caney, but moved here by 1882; the graveyard was also established by the 1880s. While subsistence farming was the main occupation of most working individuals in the area, many supplemented their income through cutting and hauling timber to the Sabine River. By around 1910, lumber companies acquired vast amounts of timbered land in East Texas. However, by the 1930s, the lumber companies, with no reforestation programs in place, had cut most of the timber, and it became difficult for families to survive on subsistence farming, leading to the decline of area communities. This burial ground was once part of Sabine National Forest, which was established in 1935. Exceptions were made for acreage in special uses, such as burial grounds, but Oakhill Church and cemetery land was not exempted. The error was corrected in 1966, when the U.S. Forest Service conveyed property to the church and cemetery. The oldest marked grave in Oakhill Cemetery is that of Joseph Adair Smith, Sr. (d. 1882), whose grave was moved from Fairdale Cemetery. A number of other individuals were reinterred here in the 1960s, when water was impounded during the creation of the Toledo Bend Reservoir. The oldest known original interment occurred in 1885 for Philip Stine Edgar, though it is believed earlier burials exist. In 1965, the Oakhill Cemetery Association formed to care for the burial ground. Today, Oakhill Cemetery serves as a testament to the area’s pioneering settlers and early communities.]]></description>
    <Point><coordinates>-93.7215801059647,31.2740852643936,0</coordinates></Point>
  </Placemark>
  <Placemark>
    <name>Old Centerview Cemetery</name>
    <styleUrl>#normal</styleUrl>
    <description><![CDATA[3.6 mi. N on US 96, then W on Centerview Rd<br/><br/><b>Address:</b> US 96 at Centerview Rd, Pineland<br/><br/><b>Marker Text:</b> Sabine County is one of the oldest settlement areas in the state. The farming community of Centerview, which dates to the 1840s, supported a stagecoach station, post office, general store, church and school. There are at least a dozen unmarked or undated gravesites in this community cemetery, but the oldest marked grave dates to 1899 and the interment of a baby, Merle Taylor. Other burials include leaders of the community and generations of area families, as well as veterans of conflicts including the Civil War, World Wars I and II, the Korean War and the Vietnam War. Cemetery features include wooden markers, curbed plots and an elaborate arched entryway. In 1968, Centerview Methodist Church conveyed this land to the newly formed Centerview Cemetery Association. Today, the association holds an annual workday for descendants of early Centerview residents, who come together to preserve their community's history. Historic Texas Cemetery - 2003]]></description>
    <Point><coordinates>-94.0085695559858,31.2978269147741,0</coordinates></Point>
  </Placemark>
  <Placemark>
    <name>Payne-Williams Cemetery</name>
    <styleUrl>#normal</styleUrl>
    <description><![CDATA[<b>Address:</b> Geneva<br/><br/><b>Marker Text:</b> John (1784-1848) and Margaret (1788-1857) Payne came to Texas from Georgia about 1835. A veteran of the War of 1812, John served Sabine County as a justice of the peace and as a state legislator. He set aside land for this cemetery, where many of his descendants are buried, including his son Epperson Duke Payne (1810-1840), who served at the Siege of Bexar and the Battle of San Jacinto. Others interred in the small graveyard include Civil War veteran Lewis Williams (1836-1916) and several of his relatives and descendants.]]></description>
    <Point><coordinates>-93.9095459754207,31.4522101316247,0</coordinates></Point>
  </Placemark>
  <Placemark>
    <name>Pineland School</name>
    <styleUrl>#normal</styleUrl>
    <description><![CDATA[<b>Address:</b> 459 Temple Road North, Pineland]]></description>
    <Point><coordinates>-93.9726655563082,31.2562001033215,0</coordinates></Point>
  </Placemark>
  <Placemark>
    <name>Sabine Town Cemetery</name>
    <styleUrl>#normal</styleUrl>
    <description><![CDATA[11 mi. east of Hemphill via FM 83 \, then FM 3381 N to Monument Dr., right down road for .25 mi., take first right<br/><br/><b>Address:</b> Sabine Town<br/><br/><b>Marker Text:</b> S. H. Morris sold 200 acres of his land grant in the 1830s for the establishment of the town of Sabine. Businesses included a post office, customs house, wagon factory, brick kiln and a tanning yard. The Sabine Town Cemetery contains 18 known graves; Mary Jane Scott's is the earliest recorded burial in 1842. The graveyard was in use until 1907; Harry C. Maunds is the last recorded burial. In 1970 the James Frederick Gomer Chapter of the Daughters of the Republic of Texas in Hemphill took over maintenance of the site.]]></description>
    <Point><coordinates>-93.712108,31.403586,0</coordinates></Point>
  </Placemark>
  <Placemark>
    <name>Sabinetown</name>
    <styleUrl>#normal</styleUrl>
    <description><![CDATA[11 mi. east of Hemphill via FM 83, then north on FM 3382<br/><br/><b>Address:</b> Sabinetown<br/><br/><b>Marker Text:</b> --]]></description>
    <Point><coordinates>-93.709168,31.401401,0</coordinates></Point>
  </Placemark>
  <Placemark>
    <name>Scurlock Cemetery</name>
    <styleUrl>#normal</styleUrl>
    <description><![CDATA[<b>Address:</b> Geneva<br/><br/><b>Marker Text:</b> This cemetery is named for North Carolina native William Scurlock (1807-1885), a veteran of the Texas Revolution, who is buried here. He and his brother Mial migrated to Texas in 1834 and constructed a log cabin in this vicinity. The following year they enlisted in the Texas Revolutionary army. Known as the "Man with the Charmed Life," William served in the Siege of Bexar, the Battle of Agua Dulce, and participated in the Matamoros Expedition. Captured by Mexican forces at Goliad and used as a medical assistant, he escaped the massacre of Col. James W. Fannin's troops. He later eluded his captors and fought at the Battle of San Jacinto. Mial Scurlock was killed at the fall of the Alamo. After the war Capt. Scurlock served in the Republic of Texas Congress (1839-40) and fought in the Mexican War (1846-48) before settling here. His wife Frances (1821-1902) was the daughter of William A. and Phenaty Thompson, pioneer settlers of the area. The earliest marked grave here is that of their son George, who died in 1864. Also buried here is Confederate veteran W. J. Walton (1838-1916). Captured at Jonesboro, Georgia, in 1864, he spent the remainder of the Civil War in an Illinois military prison.]]></description>
    <Point><coordinates>-93.9854751902051,31.4666581243464,0</coordinates></Point>
  </Placemark>
  <Placemark>
    <name>Thomas Johnson School</name>
    <styleUrl>#normal</styleUrl>
    <description><![CDATA[From the Sabine County Courthouse in Hemphill go one block east on Hwy 83 (Worth St.), then left or north on Hwy 87/83 for 1.2 miles, then right on Hwy 83 for 1.1 miles, then right on FM 1368 for 1.0 miles to the school on the left.<br/><br/><b>Address:</b> FM 1368, Hemphill<br/><br/><b>Marker Text:</b> The Hemphill School in Sabine County was established between 1929 and 1930. Smaller schools existed in the area since the end of the Civil War for African Americans, but by the 1930s the Hemphill school was one of the few African American schools in the county. This school was originally one of thousands of schools for African Americans that were partially funded by the Rosenwald Fund. Established in 1917, the Rosenwald Fund was a collaboration between Julius Rosenwald, President of Sears, Roebuck and Company, and noted African American educator Booker T. Washington to fund African American schools in rural areas throughout the south. By 1949, the school received new facilities and became renamed the Hemphill Colored School. That year school principal Russell Sage Simmons created a school annual called “The Hawk”, which documented student names, plans and history. The publication also featured pages on a Veterans School that was added to the campus site as part of a nationwide program to provide technical training for returning veterans of WWII. Robert T. Cannon taught technical skills while Mrs. V.M. Jones taught reading, writing and math. In the mid-1950s, a new school and gymnasium were built. By 1959, the school became known as the Thomas Johnson School. In 1966, the Thomas Johnson School integrated into the Hemphill Independent School District. The school continued to be used as an elementary school, but eventually all students were moved to schools closer to the city. The Rosenwald School served as a major foundation for African American education in the community since the early 20th century.]]></description>
    <Point><coordinates>-93.8158073984209,31.3521005924173,0</coordinates></Point>
  </Placemark>
  <Placemark>
    <name>William Gasby Cemetery</name>
    <styleUrl>#normal</styleUrl>
    <description><![CDATA[take Lee Arnold Road south about 1.5 mi. to cemetery and church<br/><br/><b>Address:</b> Geneva<br/><br/><b>Marker Text:</b> Originally part of a Spanish land grant issued in 1794 to Ignacio Pirfirmo, the surrounding land was acquired in 1870 by former slave William Gasby. This cemetery was established when Gasby donated four acres of the land for a burial ground to be used by the neighboring black community. While the earliest marked grave, that of Mouzeria Thompkins, dates from 1889, there are many sites marked only with rocks, indicating the cemetery probably was in use prior to that time. William Gasby was a prominent leader in the black community and in the development of the nearby town of Geneva. He owned and operated a blacksmith shop and cotton gin on his property. Upon the death of his first wife, Mary, Gasby married Bettie Elizabeth Clay. All three are buried in this cemetery, as are many of their descendants. Another prominent black leader buried here is Alfred Canton, a minister who helped organize the County Line Missionary Baptist Church in 1868. Also known as the New Zion Cemetery for its association with New Zion Methodist Church, this graveyard is an important part of Sabine County history.]]></description>
    <Point><coordinates>-93.9321960050024,31.4654719264579,0</coordinates></Point>
  </Placemark>
</Document>
</kml>
