<?xml version="1.0" encoding="UTF-8"?>
<kml xmlns="http://www.opengis.net/kml/2.2">
<Document>
  <name>Swisher County — Unmapped Historical Markers</name>
  <description>THC markers in Swisher County without an HMDB id (isMissing excluded). 4 with THC coords; 0 geocoded from address; 0 omitted (no usable address). Orange pins are isPending=True — the marker may not be installed yet.</description>
  <Style id="normal">
    <IconStyle>
      <Icon><href>http://maps.google.com/mapfiles/ms/icons/red-dot.png</href></Icon>
    </IconStyle>
  </Style>
  <Style id="pending">
    <IconStyle>
      <color>ff00a5ff</color>
      <Icon><href>http://maps.google.com/mapfiles/ms/icons/orange-dot.png</href></Icon>
    </IconStyle>
  </Style>
  <Placemark>
    <name>Elm Tree Inn</name>
    <styleUrl>#normal</styleUrl>
    <description><![CDATA[200 West Broadway-Tulia, not located<br/><br/><b>Address:</b> 200 West Broadway, Tulia]]></description>
    <Point><coordinates>-101.76589569091,34.53723647781,0</coordinates></Point>
  </Placemark>
  <Placemark>
    <name>Swisher County Courthouse</name>
    <styleUrl>#normal</styleUrl>
    <description><![CDATA[Courthouse Square, Broadway &amp; Briscoe, Tulia<br/><br/><b>Address:</b> Broadway &amp; Briscoe, Tulia]]></description>
    <Point><coordinates>-101.763882474807,34.5365933924263,0</coordinates></Point>
  </Placemark>
  <Placemark>
    <name>Swisher County Hospital</name>
    <styleUrl>#normal</styleUrl>
    <description><![CDATA[Near intersection of Fannin and Broadway streets. Marker reported in storage Jun. 2020.<br/><br/><b>Address:</b> 105 Hospital St., Tulia<br/><br/><b>Marker Text:</b> The earliest medical care for Swisher County residents was provided by local doctors or in Amarillo hospitals (49 miles north). As the area population increased during the 1920s, it became necessary to build a general health care facility here. Approved by the voters in a 1926 bond election, this hospital was completed two years later. The original section was comprised of two floors and a basement area, providing beds for 12 patients. Enlarged by a major addition in 1946, the structure served as the county hospital until 1969 when a new facility was built. (1981)]]></description>
    <Point><coordinates>-101.756464959944,34.5358387877936,0</coordinates></Point>
  </Placemark>
  <Placemark>
    <name>Tulia First National Bank</name>
    <styleUrl>#normal</styleUrl>
    <description><![CDATA[at intersection of West Broadway &amp; Briscoe, Tulia<br/><br/><b>Address:</b> W. Broadway &amp; Briscoe St., Tulia<br/><br/><b>Marker Text:</b> Application: The Texas Historical Building Medallion enclosed]]></description>
    <Point><coordinates>-101.764594622965,34.5372978416725,0</coordinates></Point>
  </Placemark>
</Document>
</kml>
