<?xml version="1.0" encoding="UTF-8"?>
<kml xmlns="http://www.opengis.net/kml/2.2">
<Document>
  <name>Tarrant County — Unmapped Historical Markers</name>
  <description>THC markers in Tarrant County without an HMDB id (isMissing excluded). 22 with THC coords; 0 geocoded from address; 4 omitted (no usable address). Orange pins are isPending=True — the marker may not be installed yet.</description>
  <Style id="normal">
    <IconStyle>
      <Icon><href>http://maps.google.com/mapfiles/ms/icons/red-dot.png</href></Icon>
    </IconStyle>
  </Style>
  <Style id="pending">
    <IconStyle>
      <color>ff00a5ff</color>
      <Icon><href>http://maps.google.com/mapfiles/ms/icons/orange-dot.png</href></Icon>
    </IconStyle>
  </Style>
  <Placemark>
    <name>Ann Waggoner Hall</name>
    <styleUrl>#normal</styleUrl>
    <description><![CDATA[Texas Wesleyan University,Ann Waggoner Fine Arts Building, northeast corner Wesleyan and E. Rosedale streets. https://txwes.edu/news-and-events/all-news/texas-sized-reputation/ann-waggoner-fine-arts-started-as-church-building/<br/><br/><b>Address:</b> 1309 Wesleyan Dr., Fort Worth]]></description>
    <Point><coordinates>-97.2808565942679,32.7310501978597,0</coordinates></Point>
  </Placemark>
  <Placemark>
    <name>[PENDING] Bethlehem Baptist Church</name>
    <styleUrl>#pending</styleUrl>
    <description><![CDATA[<b>⚠ PENDING — marker may not yet be installed at this location.</b><br/><br/>marker pending<br/><br/><b>Address:</b> 1188 W. Broad Street, Mansfield<br/><br/><b>Marker Text:</b> marker pending]]></description>
    <Point><coordinates>-97.162197730204,32.556361710068,0</coordinates></Point>
  </Placemark>
  <Placemark>
    <name>Bryce Building</name>
    <styleUrl>#normal</styleUrl>
    <description><![CDATA[909 Throckmorton, Fort Worth<br/><br/><b>Address:</b> 909 Throckmorton, Fort Worth<br/><br/><b>Marker Text:</b> Leading Fort Worth businessman and civic leader William J. Bryce (1861-1944) built this structure in 1910 to house the offices of his construction company. Bryce erected many of the city's commercial structures and served as Mayor of Fort Worth from 1927 to 1933. The Bryce Building, with its irregulare five-sided plan, is a fine example of the adaption of the Classical Revival style to a commercial structure. Recorded Texas Historic Landmark- 1983.]]></description>
    <Point><coordinates>-97.3301559502676,32.7510317791641,0</coordinates></Point>
  </Placemark>
  <Placemark>
    <name>Cable Tool Rig</name>
    <styleUrl>#normal</styleUrl>
    <description><![CDATA[Six Flags over Texas, Boom Town, 2201 Road to Six Flags, Arlington.<br/><br/><b>Address:</b> 2201 Six Flags Rd., Inside Six Flags Over Texas, Arlington<br/><br/><b>Marker Text:</b> Drilled the early deep oil wells in Texas. Derrick here is exact replica and has same rigging and tools used in 1920 to drill the Crowley No. 1, a 250-barrel producer at 3500 feet--one of deepest wells up to the time. It was near Breckenridge, in one of great fields in oil empire of Texas. (1966)]]></description>
    <Point><coordinates>-97.0697285655941,32.7572244814998,0</coordinates></Point>
  </Placemark>
  <Placemark>
    <name>Estes Cemetery</name>
    <styleUrl>#normal</styleUrl>
    <description><![CDATA[6 mi E on 2017 Arlington-Webb Britton Road (CR 2017), N of Arlington-Webb Britton Rd and Hanger Lowe Rd intersection<br/><br/><b>Address:</b> Arlington Webb Britton Rd, Hanger Lowe Rd, Mansfield<br/><br/><b>Marker Text:</b> Estes Cemetery began as the burial ground for the family of Sarah and James Estes. By the middle of the 1850s, the Estes family had moved to Tarrant County. The two were Kentucky natives who married in Missouri. The earliest marked grave is for Sarah Estes, who passed away in 1857. During the next several years, additional members of the Estes family were interred in the burial ground. By 1867, the Estes family opened the cemetery to residents of the area who were not part of the family. During the 1880s, communities developed nearby and residents started to use the burial ground as well. These communities included Webb, Gertie and Britton. Veterans of military conflicts dating to the Civil War are also interred here. A cemetery association cares for the burial ground, which features an arched entryway, vertical stones in its older area, interior fencing and a sloping landscape. The cemetery is still active, continuing to serve descendants of those buried in the cemetery, and it remains a memorial to early settlers of southeast Tarrant County. Historic Texas Cemetery - 2003]]></description>
    <Point><coordinates>-97.0523125252865,32.6055970952427,0</coordinates></Point>
  </Placemark>
  <Placemark>
    <name>[PENDING] Fort Worth Association of Federated Women's Club Home (RTHL) (Undertold)</name>
    <styleUrl>#pending</styleUrl>
    <description><![CDATA[<b>⚠ PENDING — marker may not yet be installed at this location.</b><br/><br/>marker pending<br/><br/><b>Address:</b> 1051 Evans Ave, Fort Worth<br/><br/><b>Marker Text:</b> marker pending]]></description>
    <Point><coordinates>-97.31805,32.73338,0</coordinates></Point>
  </Placemark>
  <Placemark>
    <name>[PENDING] Fort Worth Flood of 1949</name>
    <styleUrl>#pending</styleUrl>
    <description><![CDATA[<b>⚠ PENDING — marker may not yet be installed at this location.</b><br/><br/>marker pending<br/><br/><b>Address:</b> 2600 W. 7th St, Fort Worth<br/><br/><b>Marker Text:</b> marker pending]]></description>
    <Point><coordinates>-97.35367,32.75185,0</coordinates></Point>
  </Placemark>
  <Placemark>
    <name>Fort Worth Poetry Society</name>
    <styleUrl>#normal</styleUrl>
    <description><![CDATA[525 Commerce St.<br/><br/><b>Address:</b> 525 Commerce St., Fort Worth<br/><br/><b>Marker Text:</b> The Fort Worth Poetry Society is one of the oldest continuous literary organizations in Texas and helped transform the city to what it is today. Fort Worth was an important transit point for the cattle drives throughout Texas and had a rough reputation. Wanting to present a different picture, community members came together on May 10, 1910 at the parish house of the St. Andrews Episcopal Church and established the “Rhymers and Composers Club.” Meetings were held at the church, in members’ homes, the Fort Worth Library and the Tarrant County Courthouse. Original organizers of the club included Dr. Edward Henry Eckel, the rector of St. Andrews, and published poetry “chapbooks.” D.S. Landis was a teacher and later a meteorologist for the National Weather Service. Maude Chandler Modlin was a poet with two published “poetry brochures.” Jeannie Pendleton Hall was also a well published poet. Samuel Losh was a musician and composer and taught at Texas Christian University. Gatha Wood Taylor, the first president of the club, published several poems and even a chapbook of children’s poetry in Japan while on a world tour.
  In 1922, the name of the organization was changed to the Fort Worth Poetry Society. Members met once a month from October to May and were required to bring two poems to share. The purpose, according to the constitution and by-laws, was “to serve as a medium of association for poets and as a clearing house through which poetry members may pass before being offered to a larger audience.” For over a hundred years, the Fort Worth Poetry Society has produced many poets from all walks of life and continues to transform the cultural nature of the city. (2022)]]></description>
    <Point><coordinates>-97.32976,32.75475,0</coordinates></Point>
  </Placemark>
  <Placemark>
    <name>Isham Chapel Methodist Church</name>
    <styleUrl>#normal</styleUrl>
    <description><![CDATA[530 Elm St., Hurst<br/><br/><b>Address:</b> 530 Elm St., Hurst<br/><br/><b>Marker Text:</b> Named for its founding Minister, the Rev. Marion Isham (1831-1904), this congregation was organized in the 1870s with eleven charter members. In 1876 B.H. Ross donated land (2 Mi. S) for a church and school, and a small frame church building soon was erected. A community school met in Isham Chapel until 1891. Over the years the church membership increased steadily, and in 1952 the congregation relocated to the rapidly growing community of Hurst. Now known as First United Methodist Church of Hurst, the fellowship has worshiped at this site since 1964. (1983)]]></description>
    <Point><coordinates>-97.1776551101664,32.820230189127,0</coordinates></Point>
  </Placemark>
  <Placemark>
    <name>[PENDING] Kennedale United Methodist Church</name>
    <styleUrl>#pending</styleUrl>
    <description><![CDATA[<b>⚠ PENDING — marker may not yet be installed at this location.</b><br/><br/><b>Address:</b> 229 W. 4th St., Kennedale]]></description>
    <Point><coordinates>-97.224022921526,32.646285010654,0</coordinates></Point>
  </Placemark>
  <Placemark>
    <name>Mansfield Methodist Church</name>
    <styleUrl>#normal</styleUrl>
    <description><![CDATA[601 Pleasant Ridge Road,  Mansfield<br/><br/><b>Address:</b> 601 Pleasant Ridge Road, Mansfield<br/><br/><b>Marker Text:</b> This congregation was established in Mansfield in 1885 by 14 charter families who had migrated to Texas from other parts of the U.S. Worship services were held in the Cumberland Presbyterian Church until a one-room frame building was constructed on North First Street in 1890. The Mansfield church was named as head of circuit for the Methodist Church and the Rev. E.D.L. Tims was appointed as minister. The Mansfield congregation also built a large tabernacle in 1891 and shared it with other churches in town for summer revival meetings. A storm destroyed the one-room sanctuary in 1903. A larger edifice was built in 1904, and featured arched stained glass windows and a bell tower, and served the congregation until it burned in 1942. A brick church structure was completed in 1945, largely by community labor. Later, five acres were purchased on Pleasant Ridge and a larger facility was built and dedicated in 1981 to house the growing membership. The church has supported community service programs including boy scouts, outreach for those in need, missionary ministries, and Christian day care facilities. The first Methodist Church of Mansfield continues to serve the area as it has for more than 110 years. (1996)]]></description>
    <Point><coordinates>-97.1341419119751,32.5755335131655,0</coordinates></Point>
  </Placemark>
  <Placemark>
    <name>Marion Loyd Homestead</name>
    <styleUrl>#normal</styleUrl>
    <description><![CDATA[Loyd Park<br/><br/><b>Address:</b> 3401 Ragland Road, Grand Prairie<br/><br/><b>Marker Text:</b> In 1859 brothers Marion (1835-1927) and James Loyd (1837-1922) of Illinois purchased this site. Marion built a log house to which their father John and several younger children came to live. Marion married Friendsina Cheshier (1841-1870) in 1862 and had four children. In 1879 he married his brother Thomas' (1848-1873) widow Ann Haney Loyd (1853-1912) and had three children. Marion was a farmer, area leader, and organizer of Loyd school. His deep soft water well made his home a gathering place for neighbors and travelers. Loyd descendants remain on the land. (1980)]]></description>
    <Point><coordinates>-97.0633589731526,32.6159560451543,0</coordinates></Point>
  </Placemark>
  <Placemark>
    <name>Mary Daggett Lake</name>
    <styleUrl>#normal</styleUrl>
    <description><![CDATA[Fort Worth Botanic Garden, Fragrance Garden<br/><br/><b>Address:</b> 3220 Botanic Garden Blvd., Fort Worth<br/><br/><b>Marker Text:</b> (Nov. 11, 1880-Mar. 1, 1955) A botanist, musician, author and clubwoman, Fort Worth native Mary Daggett Lake played a prominent role in the civic life of her hometown throughout the first half of the 20th century. She chronicled the lives of pioneer Fort Worth families in a series of articles for the Star-Telegram in the 1920s and 1930s. Through her active involvement and leadership with the Fort Worth Garden Club, the Texas Federation of Garden Clubs, the Fort Worth Park Board and the National Council of State Garden Clubs, Mary gained widespread recognition for her efforts in landscape conservation and beautification. Her labors on behalf of the Fort Worth Garden Center led to a national award for its work. (2001)]]></description>
    <Point><coordinates>-97.366648,32.735718,0</coordinates></Point>
  </Placemark>
  <Placemark>
    <name>Post Oak-Parker Cemetery</name>
    <styleUrl>#normal</styleUrl>
    <description><![CDATA[<b>Address:</b> 1301 Cardinal Road, Hurst]]></description>
    <Point><coordinates>-97.2049364681984,32.8095281202687,0</coordinates></Point>
  </Placemark>
  <Placemark>
    <name>Rehoboth Cemetery</name>
    <styleUrl>#normal</styleUrl>
    <description><![CDATA[Corner of T. O. Harris Rd. and FM 157 (Cooper St.), Arlington<br/><br/><b>Address:</b> Arlington<br/><br/><b>Marker Text:</b> The Rehoboth Cemetery began in 1871 with the burial of infant Mary Miller. The cemetery served the community of Sublett, named after John Sublett. The town consisted of a school, post office and church. The one-room schoolhouse, also used by the Rehoboth Baptist Church, once stood next to the cemetery. The 2.5 acre site contains more than 500 graves, although many of the headstones are illegible. Among those buried here are pioneer settlers and their descendants. Formed in 1970, the Rehoboth Cemetery Association maintains the site, which continues to serve the area. (1997)]]></description>
    <Point><coordinates>-97.1379730132758,32.6268006515616,0</coordinates></Point>
  </Placemark>
  <Placemark>
    <name>Saint Joseph Hospital</name>
    <styleUrl>#normal</styleUrl>
    <description><![CDATA[Unable to locate, possibly missing.<br/><br/><b>Address:</b> 1401 S. Main St., Fort Worth<br/><br/><b>Marker Text:</b> In the 1880s Fort Worth was a thriving railroad town. The Missouri Pacific Railroad Company established an infirmary near its headquarters to care for its employees. In 1885 the Congregation of Sisters of Charity of Incarnate Word, based in San Antonio, was asked to take over operation of the infirmary. Ten nuns traveled to Fort Worth to begin work at the Infirmary. When the work of the railroad was completed in 1889, the Congregation purchased the facility and it was renamed St. Joseph's Infirmary. St. Joseph's was Fort Worth's first general hospital, and from the outset ministered to charity patients. A new three-story brick structure was built in 1898, and over the years additional facilities were built to house the hospital's expanding services. The name was changed in 1930 to St. Joseph's Hospital, and again in 1966 to Saint Joseph Hospital. In addition to direct medical care, the hospital's programs have grown to include training for health care professionals as well as educational and counseling services for patients and their families. The county's first hospice program for terminally ill patients was inaugurated here in 1980. For over 100 years this hospital has served the community.]]></description>
    <Point><coordinates>-97.3268328708942,32.7292110769299,0</coordinates></Point>
  </Placemark>
  <Placemark>
    <name>Saint Mark United Methodist Church</name>
    <styleUrl>#normal</styleUrl>
    <description><![CDATA[1200 Wesleyan St., Fort Worth - Archives of The Central Texas Conference United Methodist Church, Texas Wesleyan University<br/><br/><b>Address:</b> 1200 Wesleyan St., Fort Worth<br/><br/><b>Marker Text:</b> This congregation was formed in 1940 by the merger of several historic Fort Worth Methodist Churches. The Swedish Methodist Episcopal Church was organized in 1883 with twenty charter members under the leadership of the Rev. P.S. Juhline. Use of the Swedish language during worship services continued until 1920. In 1924 the name of the congregation was changed to Broadway Methodist Episcopal Church. Six years later, St. Paul Methodist Episcopal Church merged with the Broadway Congregation. St. Paul's had been organized in 1877 with thirty charter members under the leadership of the Rev. Harvey Webb. Mulkey Memorial Methodist Episcopal Church began in the late 1880s as a mission of the First Methodist Episcopal Church of Fort Worth. The church was named for the Rev. and Mrs. William Mulkey, parents of George Mulkey, who was a charter member of the new church. The Rev. John M. Barcus served as first pastor. At the 1940 Annual Conference these historic congregations merged to become the Broadway-Mulkey Methodist Episcopal Church, South. The name St. Mark was adopted in 1945. The congregation has worshiped at this site since 1960. [Now renamed Christ-Life Church]]]></description>
    <Point><coordinates>-97.281908,32.731847,0</coordinates></Point>
  </Placemark>
  <Placemark>
    <name>Six Flags over Texas</name>
    <styleUrl>#normal</styleUrl>
    <description><![CDATA[2201 Road to Six Flags, Arlington; Six Flags over Texas, main gate-inside.<br/><br/><b>Address:</b> 2201 Road to Six Flags, Arlington<br/><br/><b>Marker Text:</b> Flags of six different countries have been raised over Texas. In 1519 the land was claimed for Spain, whose explorers came later in search of silver and gold, but found buffalo, Indians and mirages. They planted the red and gold banner of Spain, with its lions and castles, beside the cross of the missionaries intent on converting the Red Men. The gold and white standard of France arrived in 1685 with the expedition of La Salle, the first resident Governor of Texas. Around a fort built near the Lavaca River, La Salle tried to establish a permanent colony for his King. He failed and in 1687 was killed by his own men. French activity in Texas caused Spain to renew her interest. Finding the fort of La Salle in ruins, the Spaniards in 1689 began to build missions and presidios, and grant land for ranches and colonies. Smoldering rebellion in 1821 brought an end to Spanish rule. Afterward the green, white and red flag of Mexico--with its eagle, serpent and cactus--flew in Texas for 15 years. The settlers joined together in building towns, farming, fighting Indians. Then the policies of dictator Santa Anna provoked revolution. On March 2, 1836, the Texas Declaration of Independence was adopted and signed at Washington-on-the-Brazos. The Republic of Texas was born in the dark era of the fall of the Alamo, Goliad Massacre and "Runaway Scrape" of settlers fleeing before the coming of Santa Anna and his army. The glorious victory of the Texans at San Jacinto on April 2, 1836, established the sovereignty of the Lone Star Flag. As a nation, Texas built towns and mills; developed strong commerce; fought against the Indians and foreign raiders; established patterns of justice, with Homestead Acts and other laws; and won the respect of all the world. However,after nine yeas as a Republic, the people voted in favor of annexation to the United States. On February 16, 1846, the Lone Star banner became a state flag and Texas took her position as the 28th star in the United States flag. Until 1861 no other state adopted a flag, but the Lone Star has been the pride of Texas through all the years since 1836. For 4 years, 1861-1865, the stars and bars of the Confederate States of America flew over Texas. 90,000 Texans served the South. The state supplied large amounts of cotton, food and other goods. At the end of the Civil War, Old Glory with its stars and stripes again was raised. Some other flags have flown somewhat briefly over parts of Texas, but the six national banners shown here are those of enduring history. The exhibits associated with the Six Flags over Texas make vivid the colorful history of the Lone Star State.]]></description>
    <Point><coordinates>-97.0703094474711,32.754995780005,0</coordinates></Point>
  </Placemark>
  <Placemark>
    <name>Tarrant, General Edward H.</name>
    <styleUrl>#normal</styleUrl>
    <description><![CDATA[<b>Address:</b> Fort Worth]]></description>
    <Point><coordinates>-97.329944,32.765664,0</coordinates></Point>
  </Placemark>
  <Placemark>
    <name>Tate Springs Baptist Church</name>
    <styleUrl>#normal</styleUrl>
    <description><![CDATA[Pleasant Ridge Road and Little Road, Arlington<br/><br/><b>Address:</b> Pleasant Ridge Road &amp; Little Road, Arlington<br/><br/><b>Marker Text:</b> Prior to the formation of area churches, worship services were conducted at camp meetings on Village Creek. On Feb. 5, 1882, ten local residents met to organize the Tate Springs Baptist Church. Presiding over the meeting were elders M.T. Walker and D.B. Brown. The Joplin Schoolhouse (1 mi. E), located on land donated by E.C. Tate, served as the first chapel. The church moved to this site in 1895 and became the center of the rural settlement. A leader in community activities, Tate Springs Baptist Church experienced rapid growth in the 1970s as a result of nearby urban development.]]></description>
    <Point><coordinates>-97.1932130922904,32.6812037757351,0</coordinates></Point>
  </Placemark>
  <Placemark>
    <name>The First Hundred Years of Texas Christian University</name>
    <styleUrl>#normal</styleUrl>
    <description><![CDATA[2800 S. University, Ft. Worth; Inside Foyer of M.E. Sadler Hall, Texas Christian University,<br/><br/><b>Address:</b> 2900 S University Drive, Fort Worth<br/><br/><b>Marker Text:</b> Founded during 19th century Christian Restoration Movement, by Joseph Addison Clark (1815-1901) and sons Addison (1842-1911) and Randolph (1844-1935). Joseph A. Clark, born in Illinois, came to Republic of Texas in 1839. A teacher, preacher, lawyer, surveyor, editor and publisher, he also was Fort Worth Postmaster in noisy cattle-trail and early railroad era. His sons, home from the Civil War, established a school in this city in 1869, on site which proved unsuitable. The family moved the school to Thorp Springs (33 MI. SW), where they founded Add-Ran Male and Female College in 1873. Church-related from its origin, the college was given in 1889 to the Christian Church Convention of Texas, and renamed Addran Christian University. Moved to Waco on Christmas Day, 1895, the school was renamed Texas Christian University (1902), and stayed there until the main building was destroyed by fire in 1910. When Fort Worth offered 52 acres of land for a campus and funds of $200,000 for building, Texas Christian University returned (1910) to the city first chosen as its location. By 1973, TCU had grown to 243 acres, 60 buildings, seven schools and colleges, and an average fall enrollment of 6500 students. Erected during Centennial Observance - 1973.]]></description>
    <Point><coordinates>-97.3615096416982,32.7088583618939,0</coordinates></Point>
  </Placemark>
  <Placemark>
    <name>[PENDING] Vickery Inn Motel and Como Courts</name>
    <styleUrl>#pending</styleUrl>
    <description><![CDATA[<b>⚠ PENDING — marker may not yet be installed at this location.</b><br/><br/>marker pending<br/><br/><b>Address:</b> 5636 W. Vickery Blvd., Fort Worth<br/><br/><b>Marker Text:</b> marker pending]]></description>
    <Point><coordinates>-97.40735,32.71184,0</coordinates></Point>
  </Placemark>
</Document>
</kml>
