<?xml version="1.0" encoding="UTF-8"?>
<kml xmlns="http://www.opengis.net/kml/2.2">
<Document>
  <name>Upton County — Unmapped Historical Markers</name>
  <description>THC markers in Upton County without an HMDB id (isMissing excluded). 4 with THC coords; 0 geocoded from address; 1 omitted (no usable address). Orange pins are isPending=True — the marker may not be installed yet.</description>
  <Style id="normal">
    <IconStyle>
      <Icon><href>http://maps.google.com/mapfiles/ms/icons/red-dot.png</href></Icon>
    </IconStyle>
  </Style>
  <Style id="pending">
    <IconStyle>
      <color>ff00a5ff</color>
      <Icon><href>http://maps.google.com/mapfiles/ms/icons/orange-dot.png</href></Icon>
    </IconStyle>
  </Style>
  <Placemark>
    <name>Adrian Building</name>
    <styleUrl>#normal</styleUrl>
    <description><![CDATA[On US 67, Eastern edge of McCamey in Santa Fe Park<br/><br/><b>Address:</b> 25634 Pleasanton Rd, McCamey<br/><br/><b>Marker Text:</b> Western Bungalow. Built 1915, in Girvin, by R. F. Mayse, first merchant. Moved to McCamey, 1946. Mr. and Mrs. Hal Holmes: gift. Recorded Texas Historic Landmark, 1965.]]></description>
    <Point><coordinates>-102.218004270049,31.1373746586871,0</coordinates></Point>
  </Placemark>
  <Placemark>
    <name>Elliott Ranch</name>
    <styleUrl>#normal</styleUrl>
    <description><![CDATA[At the Yates Hotel (5th and Main Sts.) Rankin<br/><br/><b>Address:</b> 5th and Main St., Rankin<br/><br/><b>Marker Text:</b> Built 1880 near old Butterfield Stage Road by Geo. Elliott, from San Antonio, one of first to go so far out on open range. Had to haul water from head of the Concho, 50 miles. His home was first polling place in what became Upton County in 1887. Headquarters 1905-1928 for Mayer Halff and brother's J. M., "Quien Sabe", Circle Dot herds. After Upton County organized, 1910, served as a mail station, a salt house, cowboys' bunkhouse. Recorded Texas Historic Landmark, 1965.]]></description>
    <Point><coordinates>-101.939558446167,31.2208786128078,0</coordinates></Point>
  </Placemark>
  <Placemark>
    <name>Garden of Memories Cemetery</name>
    <styleUrl>#normal</styleUrl>
    <description><![CDATA[marker pending<br/><br/><b>Address:</b> US Hwy 385, McCamey<br/><br/><b>Marker Text:</b> marker pending]]></description>
    <Point><coordinates>-102.236018789899,31.1493943099216,0</coordinates></Point>
  </Placemark>
  <Placemark>
    <name>Table Top Mountain</name>
    <styleUrl>#normal</styleUrl>
    <description><![CDATA[On US 67, about 9 miles E. of McCamey, marker missing, replacement in progress 9/2021<br/><br/><b>Address:</b> US 67, E of McCamey, Rankin<br/><br/><b>Marker Text:</b> Round, flat-topped mesa rising 475 feet above its base; part of an uplift in Permian Basin, which was once a prehistoric sea. The limestone-topped buttes and mesas in this area are remnants of rock that covered county 115 million years ago, but has now been mostly eroded.]]></description>
    <Point><coordinates>-102.078998422781,31.151026692394,0</coordinates></Point>
  </Placemark>
</Document>
</kml>
