<?xml version="1.0" encoding="UTF-8"?>
<kml xmlns="http://www.opengis.net/kml/2.2">
<Document>
  <name>Van Zandt County — Unmapped Historical Markers</name>
  <description>THC markers in Van Zandt County without an HMDB id (isMissing excluded). 24 with THC coords; 0 geocoded from address; 11 omitted (no usable address). Orange pins are isPending=True — the marker may not be installed yet.</description>
  <Style id="normal">
    <IconStyle>
      <Icon><href>http://maps.google.com/mapfiles/ms/icons/red-dot.png</href></Icon>
    </IconStyle>
  </Style>
  <Style id="pending">
    <IconStyle>
      <color>ff00a5ff</color>
      <Icon><href>http://maps.google.com/mapfiles/ms/icons/orange-dot.png</href></Icon>
    </IconStyle>
  </Style>
  <Placemark>
    <name>Allen Cemetery</name>
    <styleUrl>#normal</styleUrl>
    <description><![CDATA[8 mi. S of Wills Point on SH 64, 2 mi. W on Broadmore Road, then 0.5 mi. off co. rd. in Turner community<br/><br/><b>Address:</b> Wills Point<br/><br/><b>Marker Text:</b> This burial ground first served pioneer settlers of the Turner community. The earliest marked grave is that of Hiram White (b.1811), who died in 1867. The site was originally named for the White family members interred here, but became known as Allen Cemetery after William J. Allen formally deeded the property to trustees in 1909. Allen and his wife Elizabeth Jane, both buried here, migrated to this area in 1850. Others interred here include military veterans, European Immigrants, and descendants of pioneer families. (1988)]]></description>
    <Point><coordinates>-96.0108023893539,32.6510965182491,0</coordinates></Point>
  </Placemark>
  <Placemark>
    <name>Carter Cemetery</name>
    <styleUrl>#normal</styleUrl>
    <description><![CDATA[From Canton 4.1 mi. E on SH 64, then 3.2 mi. S on CR 4106 then 1.1 mi. W on CR 4112<br/><br/><b>Address:</b> CR 4112, Canton<br/><br/><b>Marker Text:</b> Martha and John Pate Carter brought their family to Van Zandt County about 1851 and were among the first settlers in this area. Although local oral tradition holds that the first person buried in the cemetery was a nine-year-old son of the Carters, the oldest documented grave is that of H. H. Meeks (d. 1859). The Carter family later donated the land for a public cemetery, and the burial ground has served residents of a number of small communities in this area. A cemetery association formed in the 1960s maintains the historic graveyard. (1991)]]></description>
    <Point><coordinates>-95.8111322240496,32.4766150646255,0</coordinates></Point>
  </Placemark>
  <Placemark>
    <name>Colfax Cemetery</name>
    <styleUrl>#normal</styleUrl>
    <description><![CDATA[At intersection with SH 16 and CR 4414 in Colfax community<br/><br/><b>Address:</b> Colfax<br/><br/><b>Marker Text:</b> In 1883, A. L. Kellam donated five acres of land that helped establish this cemetery. The first burial, which took place in 1884, was that of Elisha Tunnell, founder of Tunnell's Chapel, the rural community which later became known as Colfax. Land included with the burial ground has been occupied by three school buildings and two local churches, and was often the site of revivals and summer camp meetings. Colfax Cemetery which contains about 1,000 graves is the resting place of many of the area's pioneers and their descendants. (1983)]]></description>
    <Point><coordinates>-95.733147,32.509851,0</coordinates></Point>
  </Placemark>
  <Placemark>
    <name>Cool Springs (Tundra)</name>
    <styleUrl>#normal</styleUrl>
    <description><![CDATA[Cool Springs Cemetery; County Road 1651 at Cool Springs Primitive
Baptist Church, 1.3 miles off hwy 19<br/><br/><b>Address:</b> Cool Springs Cemetery, Canton<br/><br/><b>Marker Text:</b> THE COMMUNITY OF COOL SPRINGS WAS NAMED FOR APPROXIMATELY ONE DOZEN SPRINGS AND SEEPS THAT DOT THE IMMEDIATE AREA. THE SITE IS ALSO THE DIVIDING LINE BETWEEN THE WATERSHEDS OF THE TRINITY RIVER, SABINE RIVER AND NECHES RIVER. WHEN THE VAN ZANDT COUNTY COMMISSIONERS APPOINTED A GROUP OF MEN IN 1850 TO REVIEW AND LAY OUT A ROAD FROM THE NEW TOWN OF CANTON TO THE HENDERSON COUNTY SEAT OF ATHENS, COOL SPRINGS WAS AN IDEAL RESTING SPOT FOR TRAVELERS. THE CLOSE PROXIMITY OF A GIN OPERATED BY DAVID L. RILEY ON NEARBY MILL CREEK MADE COOL SPRINGS A CONVENIENT LOCATION TO PROCESS CROPS AND DREW SETTLERS TO THE AREA. COOL SPRINGS PRIMITIVE BAPTIST CHURCH WAS ORGANIZED IN 1874 WITH JOHN R. MARTIN AS ITS FIRST PASTOR. THE CHURCH ORIGINALLY STOOD ONE QUARTER MILE FROM ITS PRESENT LOCATION ADJACENT TO THE COOL SPRINGS CEMETERY. THE COMMUNITY’S BUSINESS DISTRICT OPERATED APPROXIMATELY ONE MILE WEST FROM THIS SITE. BUSINESSES INCLUDED GINS, A DRUG STORE, A GENERAL MERCHANDISE STORE, AND A SERVICE STATION. THE LONE STAR SCHOOL (1883) OPERATED ACROSS THE ROAD FROM THE CHURCH AND CEMETERY. THE SCHOOL SERVED THE CHILDREN OF THE AREA UNTIL CONSOLIDATING WITH CANTON SCHOOLS IN 1944. THE EBENEZER BAPTIST CHURCH ORGANIZED IN 1898 AND LATER CHANGED ITS NAME TO TUNDRA BAPTIST CHURCH, B. M. A. THE COMMUNITY WAS GRANTED A POST OFFICE IN 1899 UNDER THE NAME “TUNDRA.” THE COMMUNITY RETAINED THE NAME OF TUNDRA AFTER THE POST OFFICE CLOSED IN 1905. CHANGES IN AREA AGRICULTURAL PRODUCTION MADE THE ONCE VIBRANT COMMUNITY OBSOLETE, AND THE NUMBER OF RESIDENTS HAS DWINDLED THROUGH THE YEARS. (2009)]]></description>
    <Point><coordinates>-95.8695085292419,32.4768104422657,0</coordinates></Point>
  </Placemark>
  <Placemark>
    <name>Corinth Cemetery</name>
    <styleUrl>#normal</styleUrl>
    <description><![CDATA[<b>Address:</b> Grand Saline]]></description>
    <Point><coordinates>-95.7226379358982,32.5879302889491,0</coordinates></Point>
  </Placemark>
  <Placemark>
    <name>Cox Cemetery</name>
    <styleUrl>#normal</styleUrl>
    <description><![CDATA[7 mi. SE of Canton on SH 64, then 3 mi. S on FM 1863, cemetery is on W. side of road<br/><br/><b>Address:</b> Canton<br/><br/><b>Marker Text:</b> Robert K. Gibbs and his family settled in this area in the early 1850s. A gravestone for an infant daughter of R. K. and Sarah Gibbs reveals the earliest documented burial in this cemetery to be November 1853. Robert Daniel Cox (1842--1898) acquired the land in 1880. He offered the small Gibbs family graveyard for use as a community cemetery. It became known as Cox Graveyard or Cox Cemetery. Land additions in 1920 and 1933 enlarged the cemetery. Some unmarked graves are believed to be those of slaves. Five generations of Cox family members are interred here. Texas Sesquicentennial 1836-1986]]></description>
    <Point><coordinates>-95.7717560202412,32.4510485680281,0</coordinates></Point>
  </Placemark>
  <Placemark>
    <name>Four Mile Lutheran Church</name>
    <styleUrl>#normal</styleUrl>
    <description><![CDATA[From Canton about 9 mi. W on FM 243 then S on SH 47 about 2.5 mi. then W on SH 90 about 3.5 mi. to CR 2607 about 3/10 mi.<br/><br/><b>Address:</b> 460 VZ CR 2607, Mabank<br/><br/><b>Marker Text:</b> Congregation established 1848. Successive churches erected in 1854, 1875, 1941, 1955. Texas' first Norwegian Lutheran Church. Recorded Texas Historic Landmark - 1964]]></description>
    <Point><coordinates>-96.070379,32.491866,0</coordinates></Point>
  </Placemark>
  <Placemark>
    <name>Frontier Red Hill Cemetery</name>
    <styleUrl>#normal</styleUrl>
    <description><![CDATA[From Edom North and East via US 64 about 3.5 mi., north on CR 4913 about 2 mi.<br/><br/><b>Address:</b> Edom<br/><br/><b>Marker Text:</b> The first grave here was that of 19-year-old Elizabeth Carolina Piles, who died May 4, 1856. Buried nearby are her sister Melissa, who died two days later, and her father John Piles (1802-57), on whose land the cemetery was located. Included among the 188 graves here are those of six Confederate veterans-- Samuel W. Murphy, David Tumlinson, Robert S. Boykin, Thomas Piles, F. M. Shirey, and Robert Beam. Four acres of land were first set aside for the cemetery in 1886, and four more acres were donated in 1963. The Frontier Red Hill Cemetery Association now maintains the site. (1975)]]></description>
    <Point><coordinates>-95.5573952273938,32.4108031781494,0</coordinates></Point>
  </Placemark>
  <Placemark>
    <name>Holly Springs Cemetery</name>
    <styleUrl>#normal</styleUrl>
    <description><![CDATA[From Martin's Mill about 1.7 mi. N of FM 1653, cemetery is east on CR 4403 about .1 mi.<br/><br/><b>Address:</b> Martin's Mill<br/><br/><b>Marker Text:</b> In 1860, Robert K. Gibbs donated three acres of land near this site for the establishment of Holly Springs Methodist Episcopal Church, South. Three years later, during the height of the Civil War, W. E. and Comelia J. Roberts deeded approximately three additional acres to create this community burial ground. The site has been enlarged over the years through later land acquisitions. The first person interred here was Susan M. Hanks (d.1863), wife of Hansford Hanks. Two tombstones, those of James W. Gray (d.1850) and Sarah C. Gray (d.1856), bear earlier death dates, but the grave sites were among those reinterred from the Ephriam Gray Graveyard in 1968. The Pioneer Gray Cemetery was originally located 2.5 miles northwest of Martin's Mill. The Holly Springs Cemetery has served residents of Martin's Mill (1.7 miles southwest) and surrounding rural communities for over a century. Individuals interred here include pioneer area settlers, church and community leaders, and military veterans. Still used, the historic cemetery serves as a reminder of the area's rich heritage. Texas Sesquicentennial 1836-1986]]></description>
    <Point><coordinates>-95.772525,32.436522,0</coordinates></Point>
  </Placemark>
  <Placemark>
    <name>Holly Springs United Methodist Church</name>
    <styleUrl>#normal</styleUrl>
    <description><![CDATA[From Martins Mill go North on FM 1653 approximately 2 miles.<br/><br/><b>Address:</b> North on FM 1653 about 2 miles, Martins Mill<br/><br/><b>Marker Text:</b> HOLLY SPRINGS UNITED METHODIST CHURCH LOCATED 10 MILES SOUTHEAST OF CANTON IN VAN ZANDT COUNTY, THE HOLLY SPRINGS UNITED METHODIST CHURCH HAS SERVED THE COMMUNITY FOR OVER 160 YEARS. THE CHURCH WAS ORGANIZED IN 1852 AND IS NAMED FOR THE NATIVE HOLLY TREES AND FRESH WATER SPRINGS NEAR THE ORIGINAL SITE OF THE CHURCH, TWO MILES WEST OF THE CURRENT LOCATION. THE ORIGINAL STRUCTURE WAS A SMALL BOARD BUILDING USED FOR BOTH CHURCH AND SCHOOL WHERE MEMBERS RELIED ON COMMUNITY LIVING AND FARMING. IT IS ONE OF THE OLDEST CHURCHES OF ANY DENOMINATION IN THE AREA. IN 1859, MEMBERS DECIDED TO MOVE TO THE PRESENT LOCATION, WHERE IT CONTINUES TO BE AN INFLUENTIAL SPIRITUAL BEACON IN THE COMMUNITY. (2014)]]></description>
    <Point><coordinates>-95.7737793453384,32.4368959883635,0</coordinates></Point>
  </Placemark>
  <Placemark>
    <name>Ingram Cemetery</name>
    <styleUrl>#normal</styleUrl>
    <description><![CDATA[FM 279, 5 mi. E of Edom<br/><br/><b>Address:</b> Edom<br/><br/><b>Marker Text:</b> Stephen Ingram, who served in the U. S. Army in the second Seminole War (1835-1842), moved to Van Zandt County with his wife Elizabeth (McKleroy) and their family in 1850, building log homes on this site by the Tyler-Porter's Bluff Road. Stephen Ingram's burial in 1858 was the first in the Ingram Cemetery. He was soon joined by two granddaughters, infants of Mary (Ingram) and David Cade. The cemetery land was given to the descendants of Stephen Ingram by his son James in 1897. From a count of 56 graves in 1997, there are two Civil War veterans (sons of Stephen Ingram), four veterans of World Wars I and II, and two Korean War veterans. (1998) Incise on base: Polly L. Martin, Historian]]></description>
    <Point><coordinates>-95.5295434943489,32.3640322515217,0</coordinates></Point>
  </Placemark>
  <Placemark>
    <name>Lexie Dean Robertson</name>
    <styleUrl>#normal</styleUrl>
    <description><![CDATA[Martins Mill, 301 FM 1861<br/><br/><b>Address:</b> 301 FM 1861, Martins Mill<br/><br/><b>Marker Text:</b> Educator and noted poet, Lexie Dean Robertson, was the first native born Texan to be named Poet Laureate of Texas (1939-41). Born in Lindale (Smith co.) to educators Alexander Green and Lena (Ansley) Dean, Lexie and her family moved to Martin’s Mill shortly after her birth. Her father opened a school here, naming it Lexie Academy after his eldest daughter. Lexie spent much of her formative years in Martin’s Mill, before living in Grand Saline and various other communities. She graduated from Canton High School at the age of 15 and began attending North Texas State Normal College (now the University of North Texas), where she met her future husband, James Franklin Robertson. The couple taught in Texas and Oklahoma, before settling in Rising Star (Eastland Co.), where Lexie worked as a school principal. By the mid-1920s, Robertson left the education field to focus on her writing career. Known for her homespun poetry, Robertson was published in various publications nationwide and released her first volume of poetry, Red Heels, in 1928. She followed the popular anthology by releasing I Keep a Rainbow (1932), Acorns on the Roof (1939), and Answer in the Night (1948). In 1939, a special Texas State Legislative Committee named Robertson Texas Poet Laureate. She also participated in literary clubs and in 1944, was named Poet Laureate of the Texas Federation of Women’s Clubs. Lexie Dean Robertson died unexpectedly in Abilene (Taylor Co.) in 1954. She left behind a legacy of literature through the poems read by Texas schoolchildren of all ages and by readers throughout the nation and world. (2010)]]></description>
    <Point><coordinates>-95.7902597535872,32.4150624278231,0</coordinates></Point>
  </Placemark>
  <Placemark>
    <name>Little Hope Baptist Church</name>
    <styleUrl>#normal</styleUrl>
    <description><![CDATA[From Canton 4.1 mi. E on SH 64, then 3.2 mi. S. on CR 4106 to intersection with CR 4112<br/><br/><b>Address:</b> Canton<br/><br/><b>Marker Text:</b> This church was organized in 1893. The congregation met at the Farmers Alliance Hall before building their first sanctuary in 1894. Louis Manuel Parsons deeded over two acres, which included the newly constructed building, to the church in 1896. A second sanctuary was built in 1916 and replaced by a third church building in 1954. A new facility containing an auditorium and baptistry was dedicated here in 1981. This congregation continues its long tradition of helping community members in need and supports various missionary and outreach activities. (1993)]]></description>
    <Point><coordinates>-95.7965649580459,32.482043485251,0</coordinates></Point>
  </Placemark>
  <Placemark>
    <name>Mars Community</name>
    <styleUrl>#normal</styleUrl>
    <description><![CDATA[7 mi. S of Ben Wheeler on FM 773<br/><br/><b>Address:</b> 7 mi. S of Ben Wheeler on FM 773, Ben Wheeler<br/><br/><b>Marker Text:</b> Mars Community A settlement known as Mars flourished at this crossroads from the 1880s until about 1930. The intersection of the Tyler-Porter's Bluff Road (now FM 2339) and the Canton-Athens Road (now FM 773) provided a likely site for a community to develop. Early settlers in the area included John Ammons and his son-in-law, Henry Washington Brown, who arrived in 1869 and purchased 320 acres of land. By 1871, Ammons had deeded two of his acres to the Pleasant Ridge Church and school for constructing a church building and schoolhouse. Wheat was the original crop that area farmers grew, but cotton soon replaced it as the primary crop. H. W. Brown built a cotton gin and grist mill for the community, and a blacksmith shop and two mercantile stores soon followed. Subsequent cotton gin operators included T. J. Bristow, E. P. Miller, W. R. Dyer and W. W. McWilliams. According to local tradition, the mercantile operations were run by H. W. Brown, Thomas Hobbs, T. O Wells, W. A. "Algie" Harville, Sr., and J. W. Barefoot. In 1891, a post office was established to serve the settlement. Originally called Acme, the station's name was changed seven years later to mars to reflect the name of the community. A declining population caused the post office to close in 1907 and the school to consolidate with the Bois D'Arc School in 1916. Although little physical evidence remains of the Mars Community, its history helps illustrate the story of cotton gin settlements in Texas. (2001)]]></description>
    <Point><coordinates>-95.7260627688504,32.3571077796183,0</coordinates></Point>
  </Placemark>
  <Placemark>
    <name>Morris Cemetery</name>
    <styleUrl>#normal</styleUrl>
    <description><![CDATA[10.6 mi. S of Canton on SH 19, then 2.5 mi. W on FM 1256, then 0.1 mi. N on Morris Cemetery Rd.<br/><br/><b>Address:</b> Canton<br/><br/><b>Marker Text:</b> The oldest documented burial in this cemetery is that of Sarah Morris (1807-1866). Sarah had come to Texas from Kentucky in 1857 with her husband Thomas Banister Morris and family. The land on which the cemetery is located was part of a farmstead which was purchased in 1886 by Elijah Newton Morris, son of Sarah and Thomas. It eventually became a community cemetery for the people of the China Grove/Denman area. Gravestones here document burials of Civil War and World War I Veterans, as well as victims of early epidemics. Texas Sesquicentennial 1836-1986]]></description>
    <Point><coordinates>-95.8946313981468,32.4009769504839,0</coordinates></Point>
  </Placemark>
  <Placemark>
    <name>Mt. Zion C. M. E. Church</name>
    <styleUrl>#normal</styleUrl>
    <description><![CDATA[12.8 miles southeast of Ben Wheeler at SH 64, in the Redland community<br/><br/><b>Address:</b> 150 CR 4823, Ben Wheeler vicinity<br/><br/><b>Marker Text:</b> Members of the Redland, Bethlehem, Prairie Creek and Chandler communities met near this site on Ephraim and Malinda Curtis' farm to organize the Mt. Zion Church in 1874. The congregation provided spiritual assistance, community outreach and encouragement to those needing it during the tumultuous reconstruction era after the Civil War. The Rev. M. L. Ragsdale served as first pastor. In 1877, Ephraim and Malinda Curtis deeded part of their land to the trustees of Mt. Zion for the purpose of constructing a building for worship and fellowship. By 1898, more room was needed, which led Peter Hill to provide land at this site for a larger building, constructed during the pastorate of the Rev. L. E. Craig (1890-1894). Over the years, additional facilities were provided to accommodate the growing congregation, with a third new sanctuary completed in 1990. Throughout its history, Mt. Zion C. M. E. Church has been a focal point for Redland and surrounding communities. A number of its members have gone on to become ordained ministers. The fellowship serves as a significant part of the area's religious and cultural history. (2001)]]></description>
    <Point><coordinates>-95.500779,32.375223,0</coordinates></Point>
  </Placemark>
  <Placemark>
    <name>Oak Hill Cemetery</name>
    <styleUrl>#normal</styleUrl>
    <description><![CDATA[<b>Address:</b> Edgewood]]></description>
    <Point><coordinates>-95.8902279897308,32.6971052306673,0</coordinates></Point>
  </Placemark>
  <Placemark>
    <name>Prairie Springs Cemetery</name>
    <styleUrl>#normal</styleUrl>
    <description><![CDATA[2 mi. W of Ben Wheeler on SH 64<br/><br/><b>Address:</b> Ben Wheeler<br/><br/><b>Marker Text:</b> Associated for many years with the Prairie Springs Methodist Episcopal Church, South, this cemetery dates to 1866, when the infant grandson of R. W. Berry was buried here. Berry formally deeded land for the graveyard in 1880, although several other burials took place here before that time. The Prairie Springs Church moved to the town of Ben Wheeler (2 mi. SE) in 1893, but title to the cemetery was not formally transferred to the Prairie Springs Cemetery Association until 1949. The large graveyard is the burial ground for many of the area's pioneers and their descendants. (1985)]]></description>
    <Point><coordinates>-95.7283751812649,32.4641239407073,0</coordinates></Point>
  </Placemark>
  <Placemark>
    <name>Roseland Plantation Home</name>
    <styleUrl>#normal</styleUrl>
    <description><![CDATA[From Tyler about 11 mi. W on US 64 (on south side of road) - Burwell Hambrick / W. C. Windsor home, just west of Smith County line<br/><br/><b>Address:</b> Edom<br/><br/><b>Marker Text:</b> Built 1854 by B. H. Hambrick, from Virginia. Headquarters for 3,000-acre property. Colonial architecture. Pegged mortise and tenon construction. Joists are 48-ft. timbers. Bricks were handmade on the plantation. Site, halfway between Dallas and Shreveport, at times served as overnight stagecoach stop and change station for horses. An early-day social center. Restored in 1954 by Mrs. W. C. Windsor. Recorded Texas Historic Landmark, 1966]]></description>
    <Point><coordinates>-95.5141582095654,32.3811068433446,0</coordinates></Point>
  </Placemark>
  <Placemark>
    <name>Site of C. W. Morris Cotton Gin</name>
    <styleUrl>#normal</styleUrl>
    <description><![CDATA[FM 279, just E of FM 314 intersection, Edom<br/><br/><b>Address:</b> Edom<br/><br/><b>Marker Text:</b> As was the case in so many small Texas towns in the late 19th and early 20th centuries, the cotton gin in Edom was a major element in the economy. First opened at this site in 1918 by Ro Dike, who moved his ginning operation here from Davidson (3 mi. W), the gin was owned and operated by local merchant C. W. Morris beginning in 1924. For approximately 4 months in the late summer and early fall, most activities revolved around ginning. Some 700 to 800 farmers depended on the local cotton gin. In peak season the gin was known to operate 24 hours a day. The original Continental Gin Company machinery burned in 1929 and was replaced with modern diesel-powered equipment manufactured by the Murray Gin Company. During the 1930s the gin processed an average of 3 to 4 bales of cotton per hour. The gin shut down about 1946. (1999) Incise on base: Historian: John Bryant Beall]]></description>
    <Point><coordinates>-95.6065000637329,32.3722399209519,0</coordinates></Point>
  </Placemark>
  <Placemark>
    <name>Site of Friendship Community School</name>
    <styleUrl>#normal</styleUrl>
    <description><![CDATA[3 miles northeast of Grand Saline on FM 17, then 1.5 miles east on CR 1712<br/><br/><b>Address:</b> Grand Saline<br/><br/><b>Marker Text:</b> Organized in about 1880, the community school in this area was first taught by Mr. E. L. Richardson. Classes were scheduled around the local farmers' growing seasons. Mr. And Mrs. W. N. Farmer deeded two acres of land to the community for school and church purposes. Friendship was established on December 14, 1905; by 1907, school enrollment was sufficient to justify funds for a new building. David and Nettie King deeded 1¼ acres of land to the community, and in 1915 a new two-room structure was erected for $1800. The Friendship school was consolidated with Grand Saline schools in 1949, and in 1952 the school board sold the school building and its land back to Friendship community. The structure was used as a community center for several years. (2000)]]></description>
    <Point><coordinates>-95.6473264448398,32.6921789288404,0</coordinates></Point>
  </Placemark>
  <Placemark>
    <name>Small Community and Cemetery</name>
    <styleUrl>#normal</styleUrl>
    <description><![CDATA[5 mi. N of Edgewood on FM 859; W on CR 3701<br/><br/><b>Address:</b> Edgewood<br/><br/><b>Marker Text:</b> Small community was settled by the 1870s; the first school was opened one-half mile east of this site about 1889. A Baptist church was organized in 1895. Three years later Willis R. Henson donated land for a cemetery on this site; its first recorded burial was that of Mrs. Mary Allen. A post office was established in the mercantile store of William Henry Luster in January 1900. Despite closure of the post office in 1907, the town continued to thrive, boasting a Church of Christ and a Methodist church, a drug store, doctor's office, barber shop, photographer, gin, grist mill, blacksmith and woodworking shop. Two churches merged with congregations in nearby Edgewood in the 1930s and 1940s and the school merged with the Edgewood school in 1949. The cemetery and Baptist church were all that remained of Small in 1999. (1999)]]></description>
    <Point><coordinates>-95.8559590471964,32.7474301145898,0</coordinates></Point>
  </Placemark>
  <Placemark>
    <name>Stanger Springs Church</name>
    <styleUrl>#normal</styleUrl>
    <description><![CDATA[3.5 mi. E of Ben Wheeler on CR 4614<br/><br/><b>Address:</b> Ben Wheeler<br/><br/><b>Marker Text:</b> Organized in July 3, 1875, and born of the Bacon Presbytery in the Cumberland Presbyterian Church, Stanger Springs Church began with 27 charter members under the leadership of the Rev. J. W. Vance. The church building, originally made of pine and sweetgum boxing planks, stood on land owned by Eliza and John Stanger. Also on the Stanger land, directly across from this site, stood the Stanger school, known as the Union Grove School, until 1929. The turn of the century brought many changes. In 1889, local Methodists began worshipping here. The two denominations shared their resources equally. Many families claimed both Presbyterian and Methodist members for over a century. "Ruf" Stanger deeded the Stanger land to the church and school in 1896. The Bacon Presbytery became part of the Presbyterian Church U.S.A. in 1900. In 1956, a new brick church was built. The 1950s also saw the origin of an annual homecoming on the second Sunday in September. An additional acre of land was deeded to the church by two former members in 1992. Non-denominational since June 1, 1995, the members of the renamed Stanger Springs Community Church continue such programs as a Christmas Mission Fund. (1997)]]></description>
    <Point><coordinates>-95.6636207459382,32.4243324689471,0</coordinates></Point>
  </Placemark>
  <Placemark>
    <name>T. Z. Woodhouse Residence</name>
    <styleUrl>#normal</styleUrl>
    <description><![CDATA[<b>Address:</b> 904 Canton Ave, Wills Point<br/><br/><b>Marker Text:</b> One of first homes in Wills Point. Built 1872 of materials hauled by ox wagons from ports of Jefferson and Shreveport. Woodhouse (1841-1928), whose English-born ancestors came to Virginia in 1637, served in 6th Texas Cavalry, C. S. A. In 1868 he married Sarah Elizabeth Nash. Owned and operated a mercantile business until age 80. Greek revival home remodeled in 1917 to add rooms. Still owned by descendants. Recorded Texas Historic Landmark, 1965]]></description>
    <Point><coordinates>-96.000457,32.701795,0</coordinates></Point>
  </Placemark>
</Document>
</kml>
