<?xml version="1.0" encoding="UTF-8"?>
<kml xmlns="http://www.opengis.net/kml/2.2">
<Document>
  <name>Waller County — Unmapped Historical Markers</name>
  <description>THC markers in Waller County without an HMDB id (isMissing excluded). 6 with THC coords; 0 geocoded from address; 2 omitted (no usable address). Orange pins are isPending=True — the marker may not be installed yet.</description>
  <Style id="normal">
    <IconStyle>
      <Icon><href>http://maps.google.com/mapfiles/ms/icons/red-dot.png</href></Icon>
    </IconStyle>
  </Style>
  <Style id="pending">
    <IconStyle>
      <color>ff00a5ff</color>
      <Icon><href>http://maps.google.com/mapfiles/ms/icons/orange-dot.png</href></Icon>
    </IconStyle>
  </Style>
  <Placemark>
    <name>Brookshire Family Cemetery</name>
    <styleUrl>#normal</styleUrl>
    <description><![CDATA[1 mi. S of IH-10 to 1809 FM 359 S, then E on private road, via left fork<br/><br/><b>Address:</b> Brookshire<br/><br/><b>Marker Text:</b> Brookshire Family Cemetery Established c. 1850 Historic Texas Cemetery - 2004]]></description>
    <Point><coordinates>-95.9415684282751,29.7635465298154,0</coordinates></Point>
  </Placemark>
  <Placemark>
    <name>Heinrich Konrad Karl Leverkuhn</name>
    <styleUrl>#normal</styleUrl>
    <description><![CDATA[Leverkuhn Family Cemetery, Hegar community, between Hegar and Macedonia School roads, north of Magnolia Road<br/><br/><b>Address:</b> Hegar Road, Waller<br/><br/><b>Marker Text:</b> (July 22, 1842 -- November 11, 1915) German-born Heinrich Leverkuhn cane to Texas in 1857 and was a foragemaster for the Confederate army during the Civil War. He ran a store in Hockley after the war. In 1878 he became a farmer-rancher in "Foresouth Prairie", now Macedonia Community. He had a cotton gin, syrup mill, and blacksmith shop. Leverkuhn helped found Macedonia Methodist Church and McPherson School. He married Selma Kuhn (d. 1876) and Martha Rebecca Davis (1855-1906) and had fourteen children. Recorded - 1979]]></description>
    <Point><coordinates>-95.833719,30.118139,0</coordinates></Point>
  </Placemark>
  <Placemark>
    <name>Prairie View A&amp;M University</name>
    <styleUrl>#normal</styleUrl>
    <description><![CDATA[University campus, 1 mile north of US 290 on FM 1098<br/><br/><b>Address:</b> FM 1098, Prairie View<br/><br/><b>Marker Text:</b> Authorized by the Texas legislature in 1876, the "Agricultural and Mechanical College for Colored Youth" was Texas' second state-supported institution of higher learning. As a land grant college, it occupied a 1434-acre former slave plantation. Organized by the Texas A&amp;M Board of Directors, Prairie View has remained a part of the Texas A&amp;M system. The first eight students enrolled on March 11, 1878, but low enrollment caused the school to close. The following year the "Prairie View Normal Institute" was organized with emphasis on preparing teachers in trade and agricultural subjects. A coeducational college, Prairie View's enrollment of 16 soon reached 60. In ten years, industrial training was added to the curriculum. Intercollegiate athletics began in 1904. By 1931 the campus boasted 31 main buildings and 50 cottages. In 1934 the Southern Association of Schools granted a class "A" rating. In 1947 the institution became "Prairie View Agricultural and Mechanical College". Integrated during the 1960s, the name changed to "Prairie View A&amp;M University" in 1973. The University's motto is "Prairie View produces productive people".]]></description>
    <Point><coordinates>-95.98825103932,30.0887388504374,0</coordinates></Point>
  </Placemark>
  <Placemark>
    <name>[PENDING] Prairie View Farms Project</name>
    <styleUrl>#pending</styleUrl>
    <description><![CDATA[<b>⚠ PENDING — marker may not yet be installed at this location.</b><br/><br/><b>Address:</b> 44500 US HWY Business 290, Prairie View]]></description>
    <Point><coordinates>-95.986948,30.07122,0</coordinates></Point>
  </Placemark>
  <Placemark>
    <name>St. Francis Episcopal Church</name>
    <styleUrl>#normal</styleUrl>
    <description><![CDATA[<b>Address:</b> 300 Dooley St., Prairie View<br/><br/><b>Marker Text:</b> ----]]></description>
    <Point><coordinates>-95.992975927235,30.0871780552538,0</coordinates></Point>
  </Placemark>
  <Placemark>
    <name>Waller County</name>
    <styleUrl>#normal</styleUrl>
    <description><![CDATA[1 mi. N. of Hempstead, on US Hwy 290/SH 20q<br/><br/><b>Address:</b> Hempstead<br/><br/><b>Marker Text:</b> Waller County, created April 28, 1873, organized August 16, 1873. Named in honor of Edwin Waller, 1800-1881, member of the consultation in 1835, signer of the Texas declaration of independence, first mayor of the city of Austin, member of the secession convention of 1861. Hempstead, the county seat.]]></description>
    <Point><coordinates>-96.0768482206636,30.0979311756619,0</coordinates></Point>
  </Placemark>
</Document>
</kml>
