<?xml version="1.0" encoding="UTF-8"?>
<kml xmlns="http://www.opengis.net/kml/2.2">
<Document>
  <name>Wilbarger County — Unmapped Historical Markers</name>
  <description>THC markers in Wilbarger County without an HMDB id (isMissing excluded). 1 with THC coords; 0 geocoded from address; 0 omitted (no usable address). Orange pins are isPending=True — the marker may not be installed yet.</description>
  <Style id="normal">
    <IconStyle>
      <Icon><href>http://maps.google.com/mapfiles/ms/icons/red-dot.png</href></Icon>
    </IconStyle>
  </Style>
  <Style id="pending">
    <IconStyle>
      <color>ff00a5ff</color>
      <Icon><href>http://maps.google.com/mapfiles/ms/icons/orange-dot.png</href></Icon>
    </IconStyle>
  </Style>
  <Placemark>
    <name>Jonathan Doan</name>
    <styleUrl>#normal</styleUrl>
    <description><![CDATA[Eastview Memorial Park, N section of the cemetery, about 400 feet from the entrance, on the left<br/><br/><b>Address:</b> FM 1763, Vernon<br/><br/><b>Marker Text:</b> (May 20, 1837- November 6, 1902) Frontier trader and merchant; a Quaker, peaceable on troubled frontiers. With nephew C. F. Doan, came from Ohio and entered hides trade in Indian Territory, 1874-75. In April 1878 opened trading post at Western Cattle Trail crossing on Red River (12 mi. NE). C. F. Doan moved down that fall to run post. Jonathan Doan continued to trade on frontier. Doan's store and the family were famous and respected among the Indian, the cattlemen, and the frontiersmen. Recorded - 1972]]></description>
    <Point><coordinates>-99.2331340514411,34.1474923625612,0</coordinates></Point>
  </Placemark>
</Document>
</kml>
