<?xml version="1.0" encoding="UTF-8"?>
<kml xmlns="http://www.opengis.net/kml/2.2">
<Document>
  <name>Wise County — Unmapped Historical Markers</name>
  <description>THC markers in Wise County without an HMDB id (isMissing excluded). 13 with THC coords; 0 geocoded from address; 2 omitted (no usable address). Orange pins are isPending=True — the marker may not be installed yet.</description>
  <Style id="normal">
    <IconStyle>
      <Icon><href>http://maps.google.com/mapfiles/ms/icons/red-dot.png</href></Icon>
    </IconStyle>
  </Style>
  <Style id="pending">
    <IconStyle>
      <color>ff00a5ff</color>
      <Icon><href>http://maps.google.com/mapfiles/ms/icons/orange-dot.png</href></Icon>
    </IconStyle>
  </Style>
  <Placemark>
    <name>Alvord Lodge No. 512, A. F. &amp; A. M.</name>
    <styleUrl>#normal</styleUrl>
    <description><![CDATA[113 N. Wickham Street -Alvord<br/><br/><b>Address:</b> 113 N. Wickham Street, Alvord<br/><br/><b>Marker Text:</b> Prominent founding member R. W. Johnson led efforts to organize Audubon Masonic Lodge No. 512 in the village of Audubon (7 miles northeast) in 1879. The lodge moved to Alvord in 1886 where members built a second floor onto a schoolhouse to use as a lodge hall. The name was officially changed to Alvord Lodge in 1890, and in 1991 a new 2-story stone lodge hall was erected at this site. The Masons met on the second floor and a local bank rented the first floor until 1984. The lodge continues a tradition of public outreach to the Alvord community.]]></description>
    <Point><coordinates>-97.6947720817579,33.3589635076802,0</coordinates></Point>
  </Placemark>
  <Placemark>
    <name>Audubon</name>
    <styleUrl>#normal</styleUrl>
    <description><![CDATA[From Alvord, take CR 2585 about 5 miles northeast, turn north on CR 2675 and continue about .25 mile to marker. Replacement marker; original in Wise County Museum in Decatur.<br/><br/><b>Address:</b> N of intersection of CR 2585 and 2675, Alvord<br/><br/><b>Marker Text:</b> A vanished town which was important in this area in the 19th century. It was settled by southerners and named for naturalist John J. Audubon (1785-1851). Earliest settler, D. D. Shirey, platted town out of his farm land in 1865. He and his wife, "Aunt Polly", expanded their log house into a stagecoach inn that grew famous for a lavish table. Their excellent food was set out on a lazy Susan, which was the wonder of the countryside. In the late 1860s and following decades, trail crews detoured from the cattle trail that ran to the east of here and bought supplies in the town. Audubon had a post office from June 25, 1874, to July 20, 1904. Local social and fraternal bodies included Woodmen of the World and a Masonic Lodge active from 1879 to 1886. There were three churches, a school, a telephone office, two cotton gins, several mercantile stores, several lawyers and physicians, and two blacksmiths. The noted Dr. W. B. Palmer, had a beautiful country home, "Gynndome". Bypassed by the Fort Worth &amp; Denver Railroad in 1883, Audubon gradually declined. Post office closed in 1904; school consolidated with Alvord in 1930. Among outstanding native sons was the Reverend M. M. Barnett of the California Baptist Foundation.]]></description>
    <Point><coordinates>-97.6155201476105,33.3905433871747,0</coordinates></Point>
  </Placemark>
  <Placemark>
    <name>Babb Cemetery</name>
    <styleUrl>#normal</styleUrl>
    <description><![CDATA[2.5 mi E on FM 1625<br/><br/><b>Address:</b> Chico<br/><br/><b>Marker Text:</b> Established September 5, 1866, when Mrs. John S. Babb was killed by Comanche Indians. The party also captured a widow, Mrs. Luster (who soon escaped); as well as two of Babb's children, Dot and Bianca, who were held captive for two years before being rescued by their father. (1968)]]></description>
    <Point><coordinates>-97.7584460479868,33.271967689446,0</coordinates></Point>
  </Placemark>
  <Placemark>
    <name>East Mount Cemetery and School</name>
    <styleUrl>#normal</styleUrl>
    <description><![CDATA[From Bridgeport, take FM 2123 about 4 miles south, turn west onto CR 3519 (road will turn south, west, then north again); continue north onto unnumbered road to cemetery.<br/><br/><b>Address:</b> Off CR 3519, S of Bridgeport, Bridgeport<br/><br/><b>Marker Text:</b> This community was named for the lookout point used by Indians and settlers in the 19th century. From his land near the landmark mound, W. C. Ellis designated (1876) acreage for public use, and the cemetery had been opened by 1880. Van Dearing Perrine (1869-1955), later a noted artist, lived here about 1880. His mother's unmarked grave is in this cemetery. On March 15, 1887, W. C. Ellis and T. J. Wise deeded 3 acres for the school, in which enrollment would rise at times to nearly 100 pupils in eight grades taught by one teacher. In 1930 the school was consolidated with Bridgeport.]]></description>
    <Point><coordinates>-97.7797127339242,33.1563956618237,0</coordinates></Point>
  </Placemark>
  <Placemark>
    <name>El Castile (Old Waggoner Home)</name>
    <styleUrl>#normal</styleUrl>
    <description><![CDATA[1000 E. Main St., Decatur<br/><br/><b>Address:</b> Decatur]]></description>
    <Point><coordinates>-97.577234391495,33.2342556173025,0</coordinates></Point>
  </Placemark>
  <Placemark>
    <name>First National Bank in Rhome</name>
    <styleUrl>#normal</styleUrl>
    <description><![CDATA[US 287 bypass at SH 114<br/><br/><b>Address:</b> US 287, SH 114, Rhome<br/><br/><b>Marker Text:</b> Prominent area businessman Dan Waggoner began this financial institution in 1904 as a branch of his privately-owned bank in Decatur (15 mi. NW). His son, W.T., served for a time as its president. Rhome's first bank was given a national charter in 1914 and grew steadily through the years. Its sound financial policies enabled it to survive the period of the Great Depression. Headquartered downtown for more than seventy years, the First National Bank in Rhome has been located at this site since 1975. (1984)]]></description>
    <Point><coordinates>-97.472382486922,33.0534162805974,0</coordinates></Point>
  </Placemark>
  <Placemark>
    <name>[PENDING] Glass Manufacturing in Wise County</name>
    <styleUrl>#pending</styleUrl>
    <description><![CDATA[<b>⚠ PENDING — marker may not yet be installed at this location.</b><br/><br/><b>Address:</b> 205 N. Newark St., Decatur]]></description>
    <Point><coordinates>-97.578982579682,33.234860820883,0</coordinates></Point>
  </Placemark>
  <Placemark>
    <name>Huff Family Massacre</name>
    <styleUrl>#normal</styleUrl>
    <description><![CDATA[From Alvord, take Pine Street (Old Decatur Road) about 2 miles east.<br/><br/><b>Address:</b> Pine Street, E of Alvord, Alvord<br/><br/><b>Marker Text:</b> An atrocity of 1874, in one of last Wise County Indian raids. While C. W. Huff and son worked in remote part of land recently settled by the family, Indians killed Mrs. Huff and daughters, Palestine and Molly. Neighbors buried the scalped and mutilated victims in a wagon bed, in the grave. It is said that lumber was later obtained for coffins and the victims were reburied. In 1879 land around plot was given for cemetery by C. W. Huff.]]></description>
    <Point><coordinates>-97.6684852976634,33.3442885350791,0</coordinates></Point>
  </Placemark>
  <Placemark>
    <name>Olive Branch Cemetery</name>
    <styleUrl>#normal</styleUrl>
    <description><![CDATA[From Chico, take SH 101 about 3.5 miles north, turn west onto CR 1667 about 1 mile, turn onto CR 1661 about 1 mile, turn south onto CR 1771; drive south on CR 1771, turn right over cattle guard and continue on unpaved road to cemetery.<br/><br/><b>Address:</b> CR 1771, N of Chico, Chico<br/><br/><b>Marker Text:</b> The first burial at this site occurred in the early 1870s. Area settlers H. H. Bradford, B. P. Cox, J. C. Cartwright, and J. C. Weaver, donated the property for the interment of a young girl who had died on a wagon train. The earliest marked grave is that of Maria B. Smith (1805-1875). During the 1890s, a sanctuary was built north of the burial ground for a Methodist Episcopal Church. As declining soil conditions caused families to move from the area, the congregation became inactive. The chapel was removed by 1914, but the Olive Branch Cemetery remains in use.]]></description>
    <Point><coordinates>-97.8552701819646,33.3328984707144,0</coordinates></Point>
  </Placemark>
  <Placemark>
    <name>Rhoads Family Cemetery</name>
    <styleUrl>#normal</styleUrl>
    <description><![CDATA[Northeast of Alvord, surrounded by the LBJ National Grasslands.<br/><br/><b>Address:</b> Northeast of Alvord, surrounded by the LBJ National Grasslands., Alvord<br/><br/><b>Marker Text:</b> Rhoads Family Cemetery Originally from Tennessee, Abner E. (1820-1910) and Chloe Mays (1824-1886) Rhoads and family came to this area from Kentucky by covered wagon, arriving in 1870. Their son, Moses b. (1845-1916), who was a Methodist circuit rider, schoolteacher and carpenter already living in Texas, came to join them on their 205-acre tract of land along with his wife, Eugenia Sarah (1845-1924), and children. The oldest dated graves marking the deaths of two of their young sons in 1879 and 1880 speak of the difficulties of their experience as they joined with others in settling the land. Recorded here are members of the Johnson, Mitchum, Rhoads and Woodruff families; some descendants believe that as many as 100 others may be laid to rest nearby in unmarked graves. The cotton growers who once plowed this land were forced to relocate in the 1920s and 30s when their fields' soil and fertility were depleted by years of cultivation. In 1940, much of the Rhoads property, including this burial ground, was sold to the U.S. government and is now part of the Ibj National Grasslands. This site remains as a record of these settlers whose successes and struggles are part of the heritage of the Alvord area of Wise County. Historic Texas Cemetery-2002]]></description>
    <Point><coordinates>-97.6609743237729,33.3852986820911,0</coordinates></Point>
  </Placemark>
  <Placemark>
    <name>Rhome Church of Christ</name>
    <styleUrl>#normal</styleUrl>
    <description><![CDATA[marker pending<br/><br/><b>Address:</b> 170 W. First St., Rhome<br/><br/><b>Marker Text:</b> marker pending]]></description>
    <Point><coordinates>-97.473184,33.053441,0</coordinates></Point>
  </Placemark>
  <Placemark>
    <name>Robert Calvin Mount</name>
    <styleUrl>#normal</styleUrl>
    <description><![CDATA[From Chico, take Mount Street north; cemetery is on west side of road north of Mount house; not accessible to public.<br/><br/><b>Address:</b> Mount Street, N. of Chico, Chico<br/><br/><b>Marker Text:</b> Born in Tennessee. Came to Texas 1855, and was elected first assessor-collector of taxes, Wise County 1856. A First Lieutenant, Bythe's Militia in Civil War. Built fort-like rock home near Chico, 1874. An outstanding pioneer of Wise County.]]></description>
    <Point><coordinates>-97.7926140233712,33.3118376051374,0</coordinates></Point>
  </Placemark>
  <Placemark>
    <name>Site of Old Town Paradise</name>
    <styleUrl>#normal</styleUrl>
    <description><![CDATA[Intersection of CR 3355 (School House Rd) and Sunflower Rd, near the City of Paradise water tower<br/><br/><b>Address:</b> CR 3355 (School House Rd) and Sunflower Rd, Paradise<br/><br/><b>Marker Text:</b> SITE OF OLD TOWN PARADISE PARADISE IS A SMALL INCORPORATED TOWN WITH A POPULATION JUST SHORT OF 500 AND LOCATED IN SOUTH CENTRAL WISE COUNTY. ONE OF THE EARLIEST SETTLERS IN WISE COUNTY WAS O. H. P. READ, WHO MADE HIS HOME HERE IN 1858. MANY PIONEERS BEGAN MOVING TO THE AREA, INITIALLY CALLED ELDORADO. WILLIAM M. ANDERSON OPENED A GENERAL STORE, AND SOON AFTER, OTHER BUSINESSES SPRANG UP TO SERVE THE COMMUNITY. A TOWN SQUARE WAS DESIGNED BY LOCAL SURVEYOR BEN BANKS, AND A WATER WELL WAS DUG ON THE SOUTHEAST CORNER OF THE SQUARE. IN 1876, ELDORADO RECEIVED THE RIGHTS TO HAVE A POST OFFICE, BUT BECAUSE ANOTHER TOWN HAD CLAIMED THE RIGHTS TO THE NAME, IT CHANGED ITS NAME TO PARADISE PRAIRIE, LATER SHORTENED TO PARADISE. IN 1892, THE CHICAGO, ROCK ISLAND &amp; TEXAS RAILWAY BUILT A LINE FROM MONTAGUE COUNTY SOUTH TO WEATHERFORD IN PARKER COUNTY. THE RAIL LINE RAN THROUGH WISE COUNTY AND CAME WITHIN ONE MILE OF PARADISE. THE RAILROAD WAS A PROFOUND INFLUENCE ON THE SURROUNDING TOWNS. BECAUSE OF THE SHORT DISTANCE TO THE RAILROAD, RESIDENCES AND BUSINESSES BEGAN MOVING NORTHEASTWARD TO BE CLOSER TO THE LINE. BY THE EARLY 1900s, “NEW” PARADISE WAS WELL UNDER WAY WITH CHURCHES, HOTELS, A NEW CITY WELL AND SHOPS. BY 1927, MANY OF THE COTTON CROPS HAD BEEN DESTROYED AND “OLD” PARADISE CAME TO AN END. THE ONLY REMAINING STRUCTURE IN OLD TOWN PARADISE IS A PRIVATE HOME BUILT BY CONFEDERATE LIEUTENANT WILLIAM HALL JAY, WHO IS BURIED IN THE PARADISE CEMETERY. THE HOME SITS ON A CORNER JUST SOUTH OF THE OLD TOWN SQUARE AND IS A CONSTANT REMINDER OF AN EARLIER TIME. (2014)]]></description>
    <Point><coordinates>-97.6963159079377,33.1418104574891,0</coordinates></Point>
  </Placemark>
</Document>
</kml>
